Continent,Country,State,City,Name,CenterNumber,long,lat,Address,ZONE,ContactPerson,Mobile_1,Mobile_2,Landline,Email
Asia,Abudhabi & Alain,UAE,ABUDHABI,Abudhabi - Ladies Centre,unknown,54.3618901,24.4888,HAMDAN STREET,,-,-,-,-,-
Asia,Abudhabi & Alain,UAE,ABUDHABI,Abudhabi - SKY Centre,unknown,54.36198881,24.4888,HAMDAN STREET,,-,-,-,-,-
Asia,Abudhabi & Alain,UAE,ABUDHABI,Al-Ain Abudhabi Sub centre,unknown,54.36198881,24.4888,AL AIN,,-,-,-,-,-
Asia,Abudhabi & Alain,UAE,ABUDHABI,"Musaffah, Abudhabi Sub Centre",unknown,54.5341328,24.3342506,"ME10  MUSAFFAH, ABUDHABI",,-,-,-,-,-
Asia,Abudhabi & Alain,UAE,ABUDHABI,SKY Yoga Club -Abudhabi,unknown,54.3767821,24.4989668,-,,-,-,-,-,-
Australasia/Oceania,Australia,NEW SOUTH WALES,HOMEBUSH,"Vethathiri Yoga Centre, New South Wales",unknown,151.0793169,-33.8712438,"45, The Crescent, Homebush, Sydney, New South Wales - 2140,  Australia",,A/N. Dr. Barathy Balasubramanium - President,0061-404 904 702,0061-290 298 979,"0061-412 992 536, +91-9003100666 (India)","sydneyvyc@gmail.com, sydneyskyyoga@gmail.com"
Australasia/Oceania,Australia,PERTH,HUNTINGDALE,"Perth SKY Meditation Centre, Western Australia",unknown,115.9703964,-32.0846376,"11 Roscommon Vista,Huntingdale, WA 6110",,-,-,-,-,-
Australasia/Oceania,Australia,VICTORIA,ADELAIDE - MAGILL,Adelaide SKY Yoga (Victoria SKY Sub Centre),unknown,145.1769623,-38.0840915,"33 Eton Avenue, Magill, SA-5072",,-,-,-,-,-
Australasia/Oceania,Australia,VICTORIA,CLARINDA,Melaleuca Community Centre (Victoria SKY Sub Centre),unknown,145.1769623,-38.0840915,"Melaleuca activity hub, 31 Melaleuca Drive,Clarinda,Vic 3169",,-,-,-,-,-
Australasia/Oceania,Australia,VICTORIA,Dandenong,Victoria SKY Meditation Society,WCSC/AFF/AUS/007,145.1769623,-38.0840915,"No. 9, Rodd Street, Dandenong, Victoria - 3175, Australia",,SKY Asst. Prof. B. Parthasarathy - President,0061-430096552,9791094228 (India),"0061-434264253, 0061-3-87075684",victoria.sky@hotmail.com
Europe,Austria,Vorarlberg,VORARLBERG,Austria SKY Meditation Centre,WCSC/AFF/AUT/026,47.5162,14.5501,"A/N. Thomas Stockinger Master I/C, Walagaustrasse 18, 6824 Schlins, Austria / Vorarlberg,",,A/N. Thomas Stockinger Master I/C,4.37E+11,-,-,"thomas.stockinger@gmx.at, austria@vethathiri.ac.in"
Asia,Bahrain,Bahrain,MANAMA,Bahrain SKY Centre,unknown,50.5577,26.0667,Bahrain,,-,-,-,-,-
Asia,Cambodia,Cambodia,CAMBODIA,Cambodia SKY Centre,unknown,104.910246,11.553915,"Phnom Penh, Near Olympic Market, Cambodia",,-,-,-,-,-
North America,Canada,Canada,TORONTO,SKY Yoga Centre - Toronto Canada,unknown,-79.2517088,43.8198607,"Middlefield Sai Centre 80-F Nashdene Road, Unit 130 Scarborough, ON M1V 5E4 Canada.",,-,-,-,-,-
North America,Canada,Canada,TORONTO - WEST,SKY Yoga -Toronto West,unknown,-79.5898171,43.6788794,"40 Voyager court North Etobikoke ,ON M9W 4Y3 Toronto Canada",,-,-,-,-,-
Europe,DenMark,Denmark,VILDBJERG,SKY Denmark,unknown,8.7589176,56.191186,"Agards VEJ 18, 7480 Vildbjerg, Denmark.",,-,-,-,-,-
Asia,Dubai & Sharjah,AJMAN,RASHIDIYA,Ajman - Rashidiya,unknown,55.4485162,25.3987023,"FLAT-108 , AL SHALI BUILDING , OPPOSITE TO FALCON TOWER-A5, NEAR NESTO HYPERMARKET, AJMAN",,-,-,-,-,-
Asia,Dubai & Sharjah,DUBAI,AL NAHADA,Dubai - Al Nahda (Ladies),unknown,55.3838742,25.29138,"FLAT-215 , AL ABBAR BUILDING , NEAR ZULEKHA HOSPITAL, DUBAI.",,-,-,-,-,-
Asia,Dubai & Sharjah,DUBAI,DISCOVERY GARDENS,Dubai - Discovery Gardens,unknown,55.1303477,25.0473848,"FLAT-117, ZEN CLUSTER BUILDING-09, ASTER CLINIC BUILDING, DUBAI",,-,-,-,-,-
Asia,Dubai & Sharjah,DUBAI,DISCOVERY GARDENS,Dubai-Discovery Gardens(ladies),unknown,55.1301762,25.0476683,"LADIES- DUBAI - DISCOVERY GARDENS FLAT-318 , ZEN CLUSTER , BUILDING 10, ASTER SPECIALITY CLINIC BUILDING, DUBAI",,-,-,-,-,-
Asia,Dubai & Sharjah,DUBAI,DUBAI - DIP,"Dubai  Dubai Investment Park, Green Community - East",unknown,55.3838742,25.29138,"PARTY HALL  SWIMMING POOL 05 , GREEN COMMUNITY EAST, NEAR NMC HOSPITAL",,-,-,-,-,-
Asia,Dubai & Sharjah,DUBAI,KARAMA,Dubai - Karama,unknown,55.3838742,25.29138,"GOLDEN FALCON KARATE CENTRE, MEZANNINE FLOOR , AL ADIL SUPERMARKET BUILDING",,-,-,-,-,-
Asia,Dubai & Sharjah,DUBAI,KARAMA,Dubai-Karama(ladies),unknown,55.2707828,25.2048493,"FLAT - 404 , KARAMA 4 BUILDING (GOLDEN STAR KARATE ), NEAR LULU HYPER MARKET , BEHIND KALYAN SILKS, DUBAI",,-,-,-,-,-
Asia,Dubai & Sharjah,DUBAI,MUHAISNAH,Dubai - Muhaisnah (Ladies),unknown,55.28719342,25.2522194,"FLAT-409 , DROOR 2 RESIDENCY- JAMAL BUILDING, NEAR MADINA MALL, DUBAI",,-,-,-,-,-
Asia,Dubai & Sharjah,DUBAI,MUHAISNAH,Dubai - Muhaisnah,unknown,55.2870941,25.2522194,"FLAT-409 , DROOR 2 RESIDENCY- JAMAL BUILDING, NEAR MADINA MALL, DUBAI",,-,-,-,-,-
Asia,Dubai & Sharjah,SHARJAH,ABUSHAGARA,Sharjah - Abushagara,unknown,55.3970325,25.3378177,"FLAT-431 , AL NAKHOOS BUILDING , NEAR CITY CENTRE SUPERMARKET , ABUSHAGARA , SHARJAH",,-,-,-,-,-
Asia,Dubai & Sharjah,SHARJAH,AL NAHADA,Sharjah - Al Nahda,unknown,55.3795319,25.3010437,"GOLDEN FALCON KARATE CENTRE, SEALAND RESTAURANT BUILDING , AL NAHDA , SHARJAH",,-,-,-,-,-
Asia,Dubai & Sharjah,SHARJAH,AL QASIMIA,Sharjah - Al Qasimia(Ladies),unknown,55.3939958,25.3411346,"FLAT-801 , AL OWAIS BUILDING ,OPPOSITE TO AL BUSTAN TOWER , NEAR CRYSTAL PLAZA HOTEL, SHARJAH",,-,-,-,-,-
Asia,Dubai & Sharjah,SHARJAH,AL QASIMIA,Sharjah - Al Qasimia,unknown,55.3915573,25.3417989,"NIMR AL KHALEEJ KARATE CENTRE M02, TARIQ BUILDING , NEAR SPARK HOTEL , AL NAD, SHARJAH.",,-,-,-,-,-
Asia,Dubai & Sharjah,SHARJAH,MUWAILEH,Sharjah - Muwaileh,unknown,55.4527591,25.2847108,"AL HUDA CHILDREN SKILL DEVELOPMENT CENTRE , SHAIKHA BUILDING,E102 , NEXT TO HILAL AL MADINA SUPERMARKET, ShARJAH",,-,-,-,-,-
Asia,Dubai & Sharjah,SHARJAH,MUWAILEH,Sharjah-Muwaileh(Ladies),unknown,55.4485164,25.2969015,"FLAT-302 , BUILDING NO-3521, OPPOSITE TO TAREEQ AL NOOF STATIONARY, MUWAILEH SCHOOL ZONE AREA, SHARJAH",,-,-,-,-,-
Europe,France,France,COURBEVOIE,Grieny Centre,unknown,2.213749,46.227638,2 pl de Hotel de ville courbevoie 92400 France,,-,-,-,-,-
Asia,India,ANDHRA PRADESH,ELURU,Eluru SKY Meditation Trust,A.NO.43,16.70477776,81.07267037,"Sankaralaya St, No.2-86, Srinivasa Nagar, Satrampadu, Eluru mandal, West Godavari - 534007",ANDHRA PRADESH,A/N. B.Venu gopal,9441086983,-,08812 - 234372,venu_gb2001@yahoo.com
Asia,India,ANDHRA PRADESH,ELURU,Eluru Gowri Sankar SKY Trust,A.NO.399,16.7138185,81.1083148,"No.20B-4-90, Narni Veeresalingam Streeet, Kothapeta - Powerpeta, Gandhi Nagar, Eluru 534 002.",ANDHRA PRADESH,A/N.Nemala Gowri Sankar,9848135262,-,-,an.a399@vethathiri.edu.in
Asia,India,ANDHRA PRADESH,ELURU,Eluru Vethathiri Maharishi SKY Trust,A.NO.510,16.71491637,81.1227439,"H.No: 1-207 B, Anoallamma Thota, Kodelu Road, Jayaprakash Nagar, Betesth Church Street, Eluru, West Godavari Dist. Andhra Pradesh, Pin 534001",ANDHRA PRADESH,A/N.P. Venkateswara Rao,6300409522,-,-,venkateswararao9858@gmail.com
Asia,India,ANDHRA PRADESH,GUNTUR,Guntur R.Agraharam SKY Trust,A.NO.392,16.2905215,80.4389107,"D.No.24-5-17, R.Agraharam, Guntur 522 008, Andhra Pradesh.",ANDHRA PRADESH,"A/N.Chekka Bramaramba, W/o.A/N.Chekka Venkata Chennaiah",9505549653,9343793549,-,-
Asia,India,ANDHRA PRADESH,GUNTUR,Guntur Acharya Nagarjuna SKY Trust,A.NO.444,15.9128998,79.74017432,"D.No.5-94-31, 6/13A Brodiepet, Guntur 522 002.",ANDHRA PRADESH,"A/N.Dr.A.Koteswwaramma, W/o.A.Chennakesava Reddy",9866873477,-,0863 - 2233517,sekhinamsivanageswararao@gmail.com
Asia,India,ANDHRA PRADESH,KOTALA,Kotala SKY Trust,A.NO.505,13.5944283,79.28162818,"6-33, Kotala (Via & Post) 517 102, Chandragiri (Mandal), Chittoor Dist",ANDHRA PRADESH,A/N. S. Sudha,9704838606,8374836388,-,-
Asia,India,ANDHRA PRADESH,KOVVUR,Gowthami Yoga Sravanthi SKY Trust,A.NO.329,17.0167,81.7333,"No.13-11-14/4, Bapuji Nagar, Lawyers Colony, Kovvur - 534 350, West Godavari Dt, Andhra.",ANDHRA PRADESH,A/N. D.V. Sitarama raju,9985231058,9248463717,9440583088,-
Asia,India,ANDHRA PRADESH,RAJAHMUNDRY,Rajahmundry SKY Trust,A.NO.449,15.9128998,79.74008091,"D.No.07-23-01, Aswini Hospityals, Opp. to Hindu Samajam, Rajahmundry - 533 101. East Godavari Dist.,",ANDHRA PRADESH,A/N. Dr. B. Santha Devi,8832462502,9052165394,-,-
Asia,India,ANDHRA PRADESH,SRIKAKULAM,Srikakulam SKY Trust,A.NO.502,18.28567883,83.89679042,"MIG No:2 (Upstairs)), APHB Colony, Opp to Zilla Parishad, Srikakulam, Andhra",ANDHRA PRADESH,A/N. A.V.V.B.N. Acharyulu,9177675494,-,-,achari261957@gmail.com
Asia,India,ANDHRA PRADESH,TIRUPATI,Tirupathi Subba Reddy Nagar SKY Trust,A.NO.417,13.6287557,79.4191795,"7-4/B, Subba Reddy Nagar, Akkaram Pathi Road, Tirupathi 517 501 ",ANDHRA PRADESH,A/N.G.Mohan Reddy,9966008643,-,-,-
Asia,India,ANDHRA PRADESH,TIRUPATI,Tirupati Peddakapu Layout SKY Trust,A.NO.438,13.6287557,79.41927193,"D.No.13-6-600/44(8), Peddakapu Layout, Tirupati, Chittoor Dist, Andhra Pradesh 517 507.",ANDHRA PRADESH,A/N.P.Munirathnam Reddy,6304756329,7981302620,-,-
Asia,India,ANDHRA PRADESH,VIJAYAWADA,Vijayawada Omkara Dhyana Mandiram SKY Trust,A.NO.112,16.5061743,80.6480153,"No.11-30-36, Seshaiah St, Prardhana Sangham Upstairs, Vijayawada - 520001.",ANDHRA PRADESH,A/N.Andalam Ramanath,9848125679,-,"421466, 2422609",-
Asia,India,ANDHRA PRADESH,VIJAYAWADA,Vijayawada Vagu Veeranjaneya SKY Trust,A.NO.398,16.5061743,80.64810899,"Plot No.55, Syndicate Bank Colony, KL Rao Park Road, Chitti Nagar,Kothapet, Vijayawada - 520009",ANDHRA PRADESH,A/N.P.Vanaja Murthy,7396543422,7396543422,0866 - 2568803,-
Asia,India,ANDHRA PRADESH,VIJAYAWADA,Amaravathi Sulabhathbara Kundalini Yoga SKY Trust,A.NO.484,16.52534262,80.6039717,"F.F.9, Pavan Swarana Sai Towers, Beside: Cithara Hall, Vidyadharapuaram, Vijayawada - 12",ANDHRA PRADESH,A/N.M.Kameswara Rao,8074760499,9849955658,9848744567,marripudikamesh199@gmail.com
Asia,India,HARYANA,GURGAON,Gurgaon SKY Trust,A.NO.389,28.4217917,77.0967965,"B 140, GAIL Housing Society, Plot No.GH-9, Sector 56, Gurugram - 122011, Haryana",DELHI,A/N.S.Malathy,9971392649,-,-,malathy.vetha@gmail.com
Asia,India,KARNATAKA,BENGALURU,Bangalore Malleswaram SKY Trust,A.NO.19,12.79261293,77.78222293,"Villa-73, Phase-1, Golden Homes (Liberty Acres), Indlabele Village, Sarjapur-Attibele Road, Attibele, Bangalore - 562 107",KARNATAKA,A/N. C. Sathiyamurthy,9342540403,9449022221,23345728,-
Asia,India,KARNATAKA,BENGALURU,Bangalore Krishnarajapuram SKY Trust,A.NO.70,12.99679849,77.6869039,"“SRI PRASONA”,  No.229/1, Nandagokula St, Akash Nagar, 3rd cross, K.R.Puram, Bangalore-560 016. ",KARNATAKA,Dr.T.S.Kani,9449824197,9880740840,-,-
Asia,India,KARNATAKA,BENGALURU,Bangalore Vishala Karnataka SKY Trust,A.NO.109,12.7226843,77.7065754,"Temple of Consciousness, Anekal Arivina Sri Mandira, Kavalahosahalli Village, Sidihosakote Post, Opp. Alliance Bussiness School, Anekal Taluk, Bangalore 562 106.",KARNATAKA,Prof.K.Ravindran,9480426595,9900626477,8147827600,-
Asia,India,KARNATAKA,BENGALURU,Bangalore R.T. Nagar SKY  Trust,A.NO.111,13.0229777,77.5855752,"No.62/1, 1st Cross , 2nd main, Ganga Nagar, Bangalore - 560032.",KARNATAKA,A/N.Dr.Devadas,9738526399,-,23633463,-
Asia,India,KARNATAKA,BENGALURU,Bangalore Shivaji Nagar SKY Trust,A.NO.188,13.0017896,77.6205058,"No.17/2, Lazar Road, Ist Cross, Fraser Road, Bangalore North, Bangalore - 560005",KARNATAKA,A/N.T.B.J.Kumar,9886138376,-,-,-
Asia,India,KARNATAKA,BENGALURU,Bangalore Srirampuram  SKY Trust,A.NO.219,12.9909285,77.55733623,"No.2, Prakash Nagar Main Road, Prakash Nagar, Bangalore - 560021.",KARNATAKA,A/N.Arulmozhi Vinayagam,9845084248,9886411849,-,-
Asia,India,KARNATAKA,BENGALURU,"Bangalore Vimanapura SKY Trust,",A.NO.295,12.9748321,77.6775261,"582/1A, 6th Cross, 1st Main Road,, L.B.Shastri Nagar, Vimanapuram PO, Bangalore - 560017.",KARNATAKA,A/N.P.I.Dhanaraj,9740980990,-,-,-
Asia,India,KARNATAKA,BENGALURU,Bangalore Panchasheela Nagara SKY Trust,A.NO.307,12.97439903,77.52056941,"No.302, 7th Cross 1 st Stage, Panchasheela Nagara, Moodalapalya,  Bangalore-560072",KARNATAKA,A/N.P.Dhanapathi,9448471694,-,-,-
Asia,India,KARNATAKA,BENGALURU,"Bangalore Machohally SKY Trust,",A.NO.376,12.9907903,77.4542804,"No.4, Machohally Vishwaneedam, Mangadi Main Road, Bangalore 560 091.",KARNATAKA,A/N.R.Kantharaju,9342751732,-,080-28535719,-
Asia,India,KARNATAKA,BENGALURU,Channapatna SKY Trust,A.NO.414,12.9870326,77.4759713,"No.5, Anushree Ashra, Vele-Kodigehalli Village & Post, Bangalore 560091",KARNATAKA,A/N.G.Kuppan,9342020456,9036862235,-,-
Asia,India,KARNATAKA,BENGALURU,Bangalore Chandapura SKY Trust,A.NO.475,13.0173525,77.6335088,"No.475, Ramaiah Layout, Opp. MTB Bricks, Chandapura, Attibele Hobli, Anekal (TK), Bangalore -560 099.",KARNATAKA,A/N.M.Shanthamma,9740463415,-,-,chandapuraskytrust@gmail.com
Asia,India,KARNATAKA,BENGALURU,Bangalore Peenya SKY Trust,A.NO.480,13.0002867,77.4885727,"No.64, Maruthi Nagar, Andrahalli Main Road, Bangalore - 560 091",KARNATAKA,A/N.K.B.Bhagyamma,9845603550,8904302770,-,-
Asia,India,KARNATAKA,BENGALURU,Bengaluru Sivanandanagar SKY Trust,A.NO.497,12.9701318,77.5263897,"32, 5th Cross, Sivanandanagar, (Karnataka High School Road), Nagara Bhavi Main Road, Moodalpalya, Bangaluru 560 072.",KARNATAKA,A/N.D.Gowri,9742846256,9036138509,-,-
Asia,India,KARNATAKA,MYSORE,Mysore Brindavan SKY Trust,A.NO.344,12.30181617,76.63513715,"#241, Kantharaj Urs Road, Treasury Layout, Kergalli, Mysore - 570026.",KARNATAKA,A/N.N.Devaraj,9449621430,8212415007,-,-
Asia,India,KERALA,ALAPPUZHA,Alappuzha SKY Trust,A.NO.442,9.653514509,76.31967792,"Karakkattu, Cherthala South Post, Alappuzha Dist. Kerala 688 539.",KERALA,A/N.K.V.Haridas,9497109353,9447565698,-,-
Asia,India,KERALA,AMBALAPUZHA,Ambalapuzha SKY Trust,A.NO.495,9.38642826,76.36057933,"""SREYAS"", Palkudy Lane, Ambalapuzha, Alappuzha (Dist), Kerala 688 561.",KERALA,"A/N.B.Rajeev, A/N.A.Sreekantan Nair",9447505552,9495087033,-,-
Asia,India,KERALA,CHERTHALA,Poornnam SKY Trust,A.NO.224,9.4980667,76.3388484,"A/N.K.G.R.Panicker, C/o, 4/41, Parklane Road, Cherthala North Village, Cherthala, Alleppey District, Kerala - 688524.",KERALA,A/N.K.G.R.Panicker,9447052303,-,-,-
Asia,India,KERALA,CHERTHALA,Cherthala SKY Trust,A.NO.463,9.988553117,76.28096623,"Door No.28/947, Pulluruthikarayil (H), Providance Junction, Cherthala (Post), Kerala 688 524.",KERALA,A/N.P.J.Abraham,9495421422,-,-,abrahampjcst@gmail.com
Asia,India,KERALA,CUMBUMMETTU PO,Kumily SKY Trust,A.NO.221,9.8138076,76.9297354,"C/o.A/N.P.S.Abraham, Secretary, Plackyil (H), Cumbummettu P.O., Idukky (Dist), Kerala - 685 551.",KERALA,A/N.D.Suresh Babu,9349762696,9447824740,-,-
Asia,India,KERALA,ERNAKULAM,Jyothis SKY Trust,A.NO.123,10.01267996,76.30147717,"Mangattu House, MRRA - 25, Mangattu Road, Mamagalam, Palarivattom, Cochin, Kerala - 682 025. ",KERALA,A/N. K. R. Satheesh,9446324878,8289956114,-,krsatheesh.2010@gmail.com
Asia,India,KERALA,ERUVA,Eruva SKY Trust,A.NO.479,9.1939662,76.4967458,"C/o.A/N.G.Gopinathan, Secretary, ""Aswathy"", Eruva East, Eruva-Post, Kayamkulam 690 572, Alappuzha Dist, Kerala State",KERALA,A/N.D.Parameswaran Nair,9447193013,8281090852,9400731131,"eruvaskytrust@gmail.com,  gopinathansky@gmail.com"
Asia,India,KERALA,IRITTY,Iritty-Kannur  SKY Trust,A.NO.452,11.8744775,75.3703662,"Kunnoth, Kiliyanthara Post, Kannur District, Kerala 670 706.",KERALA,"A/N.P.P.Johnson alias Kalavoor Johnson,",9447853499,-,0490-24230537,-
Asia,India,KERALA,KADAMBUR PO,Kannur SKY Trust,A.NO.465,11.81369041,75.45525796,"Manikkoth, Kadambur Post, Kannur, Kerala - 670 663.",KERALA,A/N.M.S.Anand,9446170220,-,-,-
Asia,India,KERALA,KAYAMKULAM,"Kayamkulam SKY Trust,",A.NO.456,9.1843659,76.515156,"C/o.P.E.Hariharan, Secretary, ""HARISHREE"", Puthiyidom, Kayamkulam, Kerala 690 502.",KERALA,A/N.V.S.Gopalakrishnan,8281857001,9446635501,0479-2448842,kayamkulamskytrust@gmail.com
Asia,India,KERALA,KOTTAYAM,Pallickathodu SKY Trust,A.NO.460,9.5915668,76.5221531,"Ponganakkunnel, Anicadu Post, Kottayam 686 503, Kerala.",KERALA,A/N.P.S.Ramachandran Nair,9447729521,-,-,ramachandrankskyyoga@gmail.com
Asia,India,KERALA,KOZHIKODE,"Calicut SKY Trust,",A.NO.281,11.54258101,75.73558457,"C/o.A/N.K.Ramachandran, MIC, “Padmasree”, Eravattor (P.O), Perambra (Via), Calicut (Dt), Kerala - 673525.",KERALA,A/N.Dr.T.N.Vijaya Kumar,9496285070,-,"0496-2610070, 2668500",-
Asia,India,KERALA,PUTHUR,Palakkad SKY Trust,A.NO.478,10.7865687,76.662929,"""SREEPADAM"", Durga Junction, Puthur, Palakkad 678 001. Kerala",KERALA,A/N.R.Swaminathan,9846626278,-,-,-
Asia,India,KERALA,THIRUVANANTHAPURAM,Thiruvananthapuram SKY Trust,A.NO.448,8.4890682,76.9423828,"Krishnarilasam, T.C.28/1452, Greekantheswaram, Thiruvananthapuram 695 023",KERALA,"A/N.A.V.Geethakumari,",9400288501,-,-,-
Asia,India,KERALA,THRISSUR,Thrissur SKY Trust,A.NO.490,10.66541233,76.25217592,"""SOUPARNIKA"", Pangattukulangara Post, Wadakanchery, Thrissur, Kerala 680 623",KERALA,A/N.V.R.Ramesh,9496353468,-,04884-267892,"thrissurskytrust@gmail.com,  ramshvr37@gmail.com"
Asia,India,MAHARASHTRA,MUMBAI - CHEMBUR (EAST),Mumbai Chembur SKY  Trust,A.NO.207,19.05019857,72.89208066,"No.306, 3rd Floor, Hari Kunj Apts, Sindhi Society, Chembur, Mumbai - 400071. ",MUMBAI,A/N.Hemalatha Chandrasekaran,9322277766,-,022-32964897,-
Asia,India,NEW DELHI,NEW DELHI,Delhi NCR Simplified Kundalini Yoga Trust,A.NO.509,28.55870019,77.17800114,"Room No.103, First Floor, Grith Kalyan Kendra, Samraj Sadan, Sector - 4, R.K.Puram, New Delhi 110 022.",DELHI,A/N.M.Parameswaran,9871888230,-,-,skyyoga.delhi@gmail.com
Asia,India,PUDUCHERRY,KARAIKAL,Karaikal MVKM Trust,A.NO.65,10.9075513,79.8464804,"Arivuthirukoil, 5th Cross Street, Extension, MMG Nagar, Karaikkal - 609 602.",KUMBAKONAM,A/N.K.N.Shanmuganatham,9443057061,7598198009,04368 - 222880,-
Asia,India,PUDUCHERRY,PUDUCHERRY,Vethapuram MVKM Trust,A.NO.5,11.93968,79.8188341,"No.18, 8th cross Street, Brindhavanam, Pondy - 605 013",PUDUCHERRY,A/N. V. Janagiram,9443658123,9894189750,-,-
Asia,India,PUDUCHERRY,PUDUCHERRY,Pondicherry Lawspet  MVKM Trust,A.NO.253,11.95599482,79.81297123,"No.2, 22 nd Cross St, Avvai Nagar, Lawspet, Pondi - 605008.",PUDUCHERRY,A/N.S.Murugaiyan,9443442187,9442066408,-,-
Asia,India,PUDUCHERRY,PUDUCHERRY,Pondicherry Thirubuvanai MVKM Trust,A.NO.467,11.9236663,79.6507597,"No.6, V.T.C. Street,  Jaibeem Nagar, Thirubuvanai, Pondicherry - 605107",PUDUCHERRY,A/N.M. Gnanasekaran,9843241440,9655422836,-,-
Asia,India,PUDUCHERRY,PUDUCHERRY,Pondicherry Bahoor MVKM Trust,A.NO.468,11.8044555,79.7441651,"C/o.A/N. A. Irudhayamary, No. 103, South Street, Bahoor, Pondicherry - 607 402",PUDUCHERRY,A/N.T. Sankar,9787720403,9363366123,-,-
Asia,India,PUDUCHERRY,PUDUCHERRY,Pondicherry Embalam MVKM Trust,A.NO.469,11.87118957,79.71329911,"No. 57, Villiyanur Main Road, Embalam, Pondicherry - 605 106",PUDUCHERRY,N. Balamurugan,9751681737,9786655417,-,-
Asia,India,PUDUCHERRY,PUDUCHERRY,Pondicherry Villiyanur MVKM Trust,A.NO.470,11.9174015,79.8115741,"Plot No: 5, Bharathi Street, Thillai Nagar, Villiyanur, Puducherry - 605 110   ",PUDUCHERRY,A/N.R. Tirounavoucarassou,9894217551,9787559004,-,-
Asia,India,TAMILNADU,ARIYALUR,Jayankondam MVKM Trust,A.NO.2,11.2143483,79.3612652,"Iyyanar Koil Campus, Iyyanar Koil Street, Chidambaram Road, Jayankondam 621 802",KUMBAKONAM,A/N. S. Elangovan,9443953954,9751073677,-,-
Asia,India,TAMILNADU,ARIYALUR,Ariyalur MVKM Trust,A.NO.306,12.97609579,79.93585016,"C/o.A/N.P.Sumathy, Secretary, Sumathy Physiotherapy Clinic, Near Vasan Medical, Kailasanathar Koil Street, Theradi, Ariyalur - 621 704.",TRICHY,A/N.A.P.N.Suthakar,9443807475,9842442157,9487522693,-
Asia,India,TAMILNADU,CHENGALPATTU,Tambaram Sanatorium MVKM Trust,A.NO.7,12.946583,80.13091298,"N.No.254 (O.No207) Thambu Chetty St, Chennai - 600 001.",KANCHEEPURAM,A/N. A.R. Viswanathan,9944365999,-,-,-
Asia,India,TAMILNADU,CHENGALPATTU,Guduvanchery MVKM Trust,A.NO.25,12.8448776,80.06071964,"No.103, G.S.T.Road, Guduvanchery - 603202.",KANCHEEPURAM,A/N.R.Piramukutti,9444190005,-,"27465958, 27461892",-
Asia,India,TAMILNADU,CHENGALPATTU,Chrompet MVKM Trust,A.NO.41,12.9451395,80.14029734,"No.23/11, Hasthinapuram Main Rd, Nehru Nagar, Chrompet, Chennai-600 044.",KANCHEEPURAM,A/N.G.Arunachalam,9841408046,-,22233991,-
Asia,India,TAMILNADU,CHENGALPATTU,Kalpakkam MVKM Trust,A.NO.79,12.55944086,80.12757421,"802, 8th Floor, Thamirabarani,  DAE Township, Anupuram - 603 127",KANCHEEPURAM,A/N. A.Vetrivel,9442327881,9444103846,-,-
Asia,India,TAMILNADU,CHENGALPATTU,Adambakkam MVKM Trust,A.NO.129,12.99353148,80.20014874,"C/o.A/N.R.Baskaran, Secretary, No.6/34, East Vellalar 1st St, Universal Eng Complex, Adambakkam, Chennai - 600088. ",KANCHEEPURAM,A/N.T.M.Laxmipathy,9381399555,-,044-22530066,-
Asia,India,TAMILNADU,CHENGALPATTU,Thirukazhukundram MVKM Trust,A.NO.222,12.60910266,80.05622954,"No.21, Kammalar Veedhi, Thirukkazhukkundram, Kanchipuram - 603109.",KANCHEEPURAM,A/N.S.Kanniyappan,9944018672,9865444974,9994122360,-
Asia,India,TAMILNADU,CHENGALPATTU,Madipakkam Thilagar Avenue MVKM Trust,A.NO.239,12.967373,80.1999234,"C/o.A/N.K.Ekambaram, Secretary, P.No.152. A, 6th Cross St,  Thilagar Avenue, Balaiah Garden,  Madipakkam, Chennai - 600091.",KANCHEEPURAM,A/N.E.Rajeshwari,9841928482,-,044-22422236,-
Asia,India,TAMILNADU,CHENGALPATTU,Chrompet Umayalpuram MVKM Trust,A.NO.270,12.9822107,80.1909588,"Plot No.9, Athirai Street, Umayalpuram, Chromepet, Chennai - 600 044.",KANCHEEPURAM,A/N.Rama.Sundaresan,9840205758,9940486809,"044-22410634, 9940486809, 9840205758, 9444570398",-
Asia,India,TAMILNADU,CHENGALPATTU,Madambakkam MVKM Trust,A.NO.330,12.9155116,80.1521428,"No.6, Ambika Nagar Extn, Sudarsana Nagar 4th Street, Madambakkam, Chennai - 600073.",KANCHEEPURAM,A/N.N.Lochana,9840760623,9840096522,-,-
Asia,India,TAMILNADU,CHENGALPATTU,East Tambaram MVKM Trust,A.NO.339,12.91008158,80.15610728,"C/o.A/N. R.Narayanasamy, Secretary, 3B, 1st Street, Thenugambal Nagar, Madambakkam, Chennai - 600 126.",KANCHEEPURAM,A/N.S.Thiyagarajan,9486107026,9600089825,9042764710,-
Asia,India,TAMILNADU,CHENGALPATTU,Padmavathy Nagar Ladies MVKM Trust,A.NO.348,12.9045319,80.1593833,"No.65/3, Ashthalakshmi Apartment, Alamelupuram, 2nd Street, Madambakkam, Chennai - 600 126. ",KANCHEEPURAM,A/N.K.Geetha,9940148905,9962404235,044-22293745,-
Asia,India,TAMILNADU,CHENGALPATTU,Chrompet Radha Nagar MVKM Trust,A.NO.360,12.95432153,80.14520889,"B-1, Vinayagam Apartments, No.7, Elumalai Street, Radha Nagar, Chrompet, Chennai - 600044. ",KANCHEEPURAM,A/N.R.Serma Selvaraj,9884374090,9962206217,-,-
Asia,India,TAMILNADU,CHENGALPATTU,Tambaram MVKM Trust,A.NO.375,12.9247314,80.106839,"Sri Ramana Vidhayalaya Matriculation School, No.6, Kalyan Nagar Main Road, Mudichur Road, Chennai 600 045.",KANCHEEPURAM,A/N.Gnana Saravanan,9445005569,9940096020,"9940273154, 8438482682",-
Asia,India,TAMILNADU,CHENGALPATTU,"Sempakkam MVKM Trust,",A.NO.403,12.93227645,80.16160004,"No.10, Srishti Residency, Bagyam Nagar 4th Street, Sempakkam, Chennai 600 073.",KANCHEEPURAM,A/N. B.Ramamoorthy,9444209735,9840336875,-,-
Asia,India,TAMILNADU,CHENGALPATTU,Chengalpattu MVKM Trust,A.NO.415,12.6593927,79.984936,"No.15/1, Gandeepan Street, Chengalpet 603 001.",KANCHEEPURAM,A/N.V.Siva,9444433339,9444339530,-,-
Asia,India,TAMILNADU,CHENGALPATTU,East Tambaram Thirumazhisai Street MVKM Trust,A.NO.416,12.92968178,80.13068973,"51/25, Muthuramalingar Street, East Tambaram, Chennai 600 059.",KANCHEEPURAM,A/N.N.Hemalatha,9884156518,9940156759,8056137141,-
Asia,India,TAMILNADU,CHENNAI,Mylapore MVKM Trust,A.NO.28,13.03227992,80.26996924,"No.12, South Mada Street, Mylapore, Chennai - 600004.",CHENNAI,A/N. M.P. Ponnuswamy,8939543914,9962542859,9345629440,-
Asia,India,TAMILNADU,CHENNAI,Chennai KK.Nagar MVKM Trust,A.NO.31,13.03958062,80.20089991,"No.16/491, 24th St, 5th Sector, K.K.Nagar, Chennai - 600078.",CHENNAI,"A/N.S.Arumugam,",7550289400,-,044-23664094,-
Asia,India,TAMILNADU,CHENNAI,Rangarajapuram MVKM Trust,A.NO.32,13.0475137,80.2227289,"129/54,  Rangarajapuram Main Road, Kodambakkam, Chennai  600 024.",CHENNAI,A/N.S.Nagarajan,9445005362,9443244320,9382615060,-
Asia,India,TAMILNADU,CHENNAI,Anna Nagar MVKM Trust,A.NO.82,13.0854894,80.2029689,"E-10, Sneham Apartments, 3 Park Road, Padi (Anna Nagar West Ext), Chennai - 600 050. ",CHENNAI,A/N.N.Jayaraman,9444122284,9445236242,044-26160537,-
Asia,India,TAMILNADU,CHENNAI,Perambur MVKM Trust,A.NO.97,12.8927617,80.0864421,"66/3, Gnanambal Illam, Melpatti Ponnappa St, Perambur, Chennai - 600039. ",CHENNAI,A/N.Vadivanandhar,9840204141,9940030649,9444053736,-
Asia,India,TAMILNADU,CHENNAI,Chennai Secretariat MVKM Trust,A.NO.107,12.97257854,80.13034898,"No.17, Sathiyamoorthy Street, V.O.C. Nagar, Pammal, Chennai 600 075.",CHENNAI,A/N.G.Rukmani,7871300972,-,-,-
Asia,India,TAMILNADU,CHENNAI,Villivakkam MVKM Trust,A.NO.114,13.10795267,80.20972864,"No.29/2, Vellalar Street, Villivakkam, Chennai - 600 049.",CHENNAI,A/N.P.Sekhar,9444451255,9941292499,9952021074,-
Asia,India,TAMILNADU,CHENNAI,MKB Nagar MVKM Trust,A.NO.122,13.12537169,80.26299616,"C/o.V.Palani, Secretary, M14/12, Mathiya Nizhar Salai, Chennai 600 039.",CHENNAI,A/N.N.Hariraman,9444547484,-,-,-
Asia,India,TAMILNADU,CHENNAI,D.M.S.MVKM Trust,A.NO.151,13.166812,80.2455126,"No.2673,  LIG II, MMDA, Mathur, Manali, Chennai - 600068.",CHENNAI,A/N.K.Nagaraj,9841803882,-,044-25010142,-
Asia,India,TAMILNADU,CHENNAI,Saidapettai MVKM Trust,A.NO.189,13.0212991,80.2231266,"Door No.21/12, Ethiraj-Amirtha Valli Illam, Mosque Street, West Saidapet, Chennai - 600 015.",CHENNAI,A/N.T.E.Srinivasan,9790847120,-,-,-
Asia,India,TAMILNADU,CHENNAI,Chepaukkam MVKM Trust,A.NO.192,13.0639677,80.2805753,"C/o.S.Palaniyammal, Office of the Chief Engineer PWD, Plan Formulation Office, Chepaukkam, Chennai 600 005.",CHENNAI,A/N.Er.R.Jeyaprakasam,9962752722,9444453391,9865235689,-
Asia,India,TAMILNADU,CHENNAI,Jawahar Nagar MVKM Trust,A.NO.193,13.1248748,80.22702245,"Neltex Hall, B - 90, 1st Main  Road, Jawahar Nagar, Chennai - 600082. ",CHENNAI,A/N.K. Selvamuthiah,9840705118,9444246694,044-26702433,-
Asia,India,TAMILNADU,CHENNAI,Velachery MVKM Trust,A.NO.200,12.9817507,80.2239905,"Sai Akil - 4/3, Dr.Seethapathi Nagar, Fourth Cross Street, Velachery, Chennai 600 042.",CHENNAI,A/N.S.Gnanasambandan,9444412471,-,044-22433593,-
Asia,India,TAMILNADU,CHENNAI,Chennai Kuyapet MVKM Trust,A.NO.209,13.09746208,80.25483561,"No.52, Kandasami Koil Street, Kuyapet, Chennai - 600012.",CHENNAI,A/N.Srini.Elangovan,9381881102,9444275746,"044-26620903, 9841901035",-
Asia,India,TAMILNADU,CHENNAI,Chetpet MVKM Trust,A.NO.236,13.0724408,80.2423951,"No.3/1, (7), Ranganathapuram St, Chetpet, Chennai - 600031.",CHENNAI,A/N.D.Avinashilingam,9444218837,-,044-28361075,-
Asia,India,TAMILNADU,CHENNAI,Chennai Adambakkam Lake View MVKM Trust,A.NO.237,12.96590532,80.21402357,"Chennai Maanagar Arivuthirkkoil, 358, Vallal Kari Street, Srinivasa Nagar, Kaiveli, East Madipakkam, Chennai  600 091. ",CHENNAI,A/N.Dr.S.Sekhar,9444165220,9445216732,044-48607732,-
Asia,India,TAMILNADU,CHENNAI,Muthamizh Nagar MVKM Trust,A.NO.263,13.1357061,80.2495922,"No.7/289, North Avenue Street, Muthamizh Nagar, Chennai - 600118.",CHENNAI,A/N.C.M.Lakshmanan,9043047585,-,044-43800638,-
Asia,India,TAMILNADU,CHENNAI,Saidapet Jones  Road MVKM Trust,A.NO.271,13.1180685,80.1391395,"Brindhavan Illam, No.45/ 17 & 18. Jones Road, Saidapet, Chennai - 15.",CHENNAI,A/N.V.S.Karunagaran,9789078901,9444102603,"044-23813660, 9080888883",-
Asia,India,TAMILNADU,CHENNAI,Thiruvanmiyur MVKM Trust,A.NO.284,12.98486575,80.26243082,"No.14-B, CGE Colony,  (Near Bhavani Medai), Thiruvanmiyur Kuppam Beach Road,  Thiruvamiyur, Chennai - 600 041.",CHENNAI,A/N.B.Shanmuga Velayudam,9840062350,9940217518,044:42300194,-
Asia,India,TAMILNADU,CHENNAI,Guindy Secretariate Colony MVKM Trust,A.NO.293,12.9973507,80.2091297,"No.16/4, Gopalakrishnan St, Ganesh Nagar, Guindy, Chennai - 600032. ",CHENNAI,A/N.R.Padmavathi,9444491300,-,-,-
Asia,India,TAMILNADU,CHENNAI,Mandaveli MVKM Trust,A.NO.300,13.0223022,80.2591371,"No.8/68, Adaijan Mudalai St, Chennai - 600028.",CHENNAI,A/N.S.K.S.Madhan Mohan,-,-,044-24610617,-
Asia,India,TAMILNADU,CHENNAI,Royapuram MVKM Trust,A.NO.302,12.85334097,80.24273581,"645/1, C.L.V. Nagar, 1st Street, Kanathur, Kovalam Post, Chennai 603 112.",CHENNAI,A/N.D.Sasikala,9600198083,-,-,-
Asia,India,TAMILNADU,CHENNAI,Ice House MVKM Trust,A.NO.310,13.0494547,80.2744871,"N.No.75, Dr.Nadesan Salai, Ice House, Triplicane, Chennai  - 5.",CHENNAI,A/N.D.Vijaya Ramakrishna,9444010343,9445181810,044-28445654,-
Asia,India,TAMILNADU,CHENNAI,Kolathur Teachers Colony MVKM Trust,A.NO.346,13.11603816,80.20998547,"No.72, Bharath Rajiv Gandhi Nagar, Kolathur, Chennai  - 600099.",CHENNAI,A/N. C. Karthikeyan,9444219977,-,044-26512833,-
Asia,India,TAMILNADU,CHENNAI,Chennai Kumaran Nagar MVKM Trust,A.NO.347,13.1178796,80.2316085,"3/99, Annal Gandhi Street, (I Cross Street), Kumaran Nagar, Chennai 600 082.",CHENNAI,A/N. S. Ravichandran,9841137689,-,-,-
Asia,India,TAMILNADU,CHENNAI,Kottur Garden MVKM Trust,A.NO.353,13.0206996,80.244864,"4/20, 3rd Main Road, Kottur Gardens, Chennai - 600085.",CHENNAI,A/N.Dr.H.Kothandaraman,9944912020,9381048166,-,-
Asia,India,TAMILNADU,CHENNAI,Chennai Ambal Nagar MVKM Trust ,A.NO.365,13.018172,80.20152975,"7/15, Shanmugaraja Street,  Gandhi Nagar, Ekkattuthangal, Guindy, Chennai - 600032.",CHENNAI,A/N.S.Sukumaran,9444192915,9840123209,9791163969,-
Asia,India,TAMILNADU,CHENNAI,Villivakkam Thirunagar MVKM Trust,A.NO.374,13.10001903,80.20232927,"14/55, Thiru Nagar, 8th Street, Villivakkam, Chennai 600 049.",CHENNAI,A/N.V.Rajalakshmi,9710282069,9094328901,-,-
Asia,India,TAMILNADU,CHENNAI,Vyasarpadi MVKM Trust,A.NO.377,13.11416396,80.243695,"Plat 3A, Block 1, KKR Richy Dale, 131, Madhavaram High Road, Perambur, Chennai 600 011.",CHENNAI,A/N.B.V.Perumal,9940161007,9381053661,-,-
Asia,India,TAMILNADU,CHENNAI,Besant Nagar MVKM Trust,A.NO.382,12.99543225,80.26202918,"Jenith Akash, 80/5, T.M.Maistry Street, Thiruvanmiyur, Chennai 600 041.",CHENNAI,A/N.V.Pandurangan,9840137876,9940678769,044-65498955,-
Asia,India,TAMILNADU,CHENNAI,T.Nagar Pothys MVKM Trust,A.NO.427,13.0379113,80.2321029,"C/o.A/N.S.Sekar, A.O., No.75, D, Sri Rajalakshmi Flats, 2nd Cross St, New NGGO Colony, (Near E.B.Colony) Adambakkam, Chennai  600 088.",CHENNAI,A/N.S.Pothyraj,9444165220,8124409986,-,-
Asia,India,TAMILNADU,CHENNAI,Saligramam MVKM Trust,A.NO.437,13.07373066,80.1855529,"No.85, 3rd Street, (S2, 2nd Floor), SBI Colony, Virugambakkam, Chennai 600 092.",CHENNAI,A/N.V.K.Subramanian,9962385093,9894073711,-,-
Asia,India,TAMILNADU,CHENNAI,Chennai Kaladipet MVKM Trust,A.NO.504,13.06096089,80.26491055,"26/27A, Janki Ammal Estate, Kaladipet, Thiruvottriyur, Chennai 600 019.",THIRUVALLUR,A/N.M.Venkatachalapathy,9841757247,9840661865,-,-
Asia,India,TAMILNADU,CHENNAI,Aminjikarai Collectorate Colony MVKM Trust,A.NO.507,13.06948732,80.21961968,"84, 5th Cross Street, Aminjikarai, Chennai 600 029.",CHENNAI,A/N.H.Banumathi,9566059692,8098327327,-,-
Asia,India,TAMILNADU,CHENNAI,"Jafferkhanpet Muthurangam Block MVKM Trust,",A.NO.508,13.02719747,80.21000375,"16, Janaki Raman Street, Muthurangam Block, Jafferkhanpet, Chennai 600 083.",CHENNAI,A/N.Geetha Mahalingam,9940480107,9600188570,9566137132,-
Asia,India,TAMILNADU,CHENNAI,Chennai Bakthavachalam Colony MVKM Trust,A.NO.514,13.05281002,80.24762823,"No.157, Bharathidasan Street, Kakkan G. Colony, B-1 Block, Chennai 600 039.",CHENNAI,A/N.B. Jothi,9840894645,-,-,-
Asia,India,TAMILNADU,COIMBATORE,Kovai MVKM Trust,A.NO.34,11.01863765,76.96467847,"121, ""MAY FLOWER"" Complex II Floor, 10th Street, Gandhipuram, Coimbatore - 641 012.",COIMBATORE,A/N.A.Arumugam,9486355577,9443521711,0422-2494242. 9500556532,-
Asia,India,TAMILNADU,COIMBATORE,North Kovai MVKM Trust,A.NO.46,11.01559855,76.95460497,"Kandasamy & Co., Campus, No.266, Mettupalayam Road, Coimbatore - 641 043.",COIMBATORE,A/N. Senthamarai Jayakumar,9486355107,9443756252,"9442526880, 9488875970",-
Asia,India,TAMILNADU,COIMBATORE,Periya Naicken Palayam MVKM,A.NO.49,11.15564547,76.91788881,"No.57, Arivuthirukoil Veedhi, Ananda Nagar, S.R.V.K.(Po), Coimbatore - 641 020.",COIMBATORE,A/N.Dr.V.Ponnuswamy,9080485959,9442187901,"0422 - 2694152, 8220496778, 9442575805",-
Asia,India,TAMILNADU,COIMBATORE,Mettupalayam MVKM Trust,A.NO.91,11.33161878,76.94119083,"C/o.A/N.M.Balasubramanian, MIC, 152 D, K.K.Nagar, Karamadai Road, Mettupalayam, Coimbatore - 641301.",COIMBATORE,A/N.V.Balasubramanian,9842237475,-,04254-228845,-
Asia,India,TAMILNADU,COIMBATORE,Karamadai MVKM Trust,A.NO.92,11.24046826,76.96122344,"T.O.C. 2/308, Thirumoolar Street, Aravindar  colony, Karamadai, Coimbatore  - 641 104.",COIMBATORE,A/N.U.Natarajan,9894845020,9443505890,-,-
Asia,India,TAMILNADU,COIMBATORE,P.N.Pudur MVKM Trust,A.NO.94,11.02231185,76.91602419,"C/o.A/N.Dr.L.Devarajan, Secretary, Anandha Nagar Main Veethi, Anandha Nagar, P.N.Pudur (Post), Coimbatore - 641 041.",COIMBATORE,A/N.N.P.Srinivasan,9842781564,9751125976,"9486036405, 9842752564",-
Asia,India,TAMILNADU,COIMBATORE,Pollachi MVKM Trust,A.NO.133,10.66327594,76.99982044,"Dr.Sankunni Memorial Hospital Complex, East Gate, 17/36, Palakkad Road, Pollachi - 642 001. ",COIMBATORE,A/N.K.Kumaraguru,9790277755,9942909090,"04259 - 224619, 9443510941",-
Asia,India,TAMILNADU,COIMBATORE,Somanur MVKM Trust,A.NO.147,11.08718892,77.19079863,"10/8, Mill Road, Somanur - 641668.",COIMBATORE,A/N.R.Subramaniyam,9842902133,9578033889,-,-
Asia,India,TAMILNADU,COIMBATORE,Peelamedu MVKM Trust,A.NO.154,11.04152414,77.0034907,"C/o. A/N.R.Devilakshmi, Secretary, 239/94, LIG II, ""ARAVIND NIVAS"", Gandhi Managar, Peelamedu (Post), Coimbatore - 641 004.",COIMBATORE,A/N.P.Saravanan,9789128293,9894821565,-,-
Asia,India,TAMILNADU,COIMBATORE,Sirumugai MVKM Trust,A.NO.216,11.3226504,77.00902289,"C/o. 42/25.I, Jeevan Nagar, Sirumugai, Mettupalayam, Coimbatore - 641302.",COIMBATORE,A/N.N.C.Samraj,9750550308,9942280008,-,-
Asia,India,TAMILNADU,COIMBATORE,Sulur MVKM Trust,A.NO.305,11.01674378,77.1303669,"No.12/3 D, German Garden, Kalangal Pathai, Sulur - 641402.",COIMBATORE,A/N.S.V.Nagarajan,9865902879,9842207767,9843364242,-
Asia,India,TAMILNADU,COIMBATORE,Kovai Sundarapuram MVKM Trust,A.NO.324,10.96346714,76.97197527,"A/N.Dhanalakshmi, Secretary, 5/11D-2, Gandhiji Road, Sundarapuram PO, Kurinji, Coimbatore - 641 024.",COIMBATORE,A/N.R.Udyakumar,9843811282,9944641412,-,-
Asia,India,TAMILNADU,COIMBATORE,Somanur Karugampalayam MVKM Trust,A.NO.358,11.06972834,77.19229171,"Litercy Mission School (Near), Ram Nagarm, Karugampalayam, Echeepatti Post, Tiruppur-Dt-641668.",COIMBATORE,"A/N.A.Mani Velusamy,",9842223095,9842211675,-,-
Asia,India,TAMILNADU,COIMBATORE,Annur MVKM Trust,A.NO.422,11.24978544,77.10514547,"No.133/2-A-5-1, V.O.C. Street, 1st Floor, Angappa Mudaliar Colony, Annur 641 653, Coimbatore Dist.",COIMBATORE,A/N.M.Thamarai,9789988949,-,-,-
Asia,India,TAMILNADU,COIMBATORE,Veeriyampalayam MVKM Trust,A.NO.423,11.05636194,77.03084074,"36, Maharaja Nagar, Nehru Nagar West, Kalapatti Post, Coimbatore 641 048.",COIMBATORE,A/N.G.Pankajam,8072439350,9842586167,-,-
Asia,India,TAMILNADU,COIMBATORE,Kinathukadavu MVKM Trust,A.NO.434,10.82156121,77.01913665,"C/o.A/N.K.Kannaiyan, No.120, Pollachi Main Road, Kinathukadavu 642 109,",COIMBATORE,A/N.K.S.Gopal,9842281931,9600907337,-,-
Asia,India,TAMILNADU,COIMBATORE,Mannur Ramanathapuram MVKM Trust,A.NO.435,10.72837027,77.00302178,"No.6/617, Ramanathapuram, Mannur Post 642 005, Pollachi Taluk, Coimbatore Dist.",COIMBATORE,A/N.R.A.Sakthivel,9487575587,9976824345,-,-
Asia,India,TAMILNADU,COIMBATORE,Kovai South Ramanathapuram MVKM Trust,A.NO.481,10.99521759,76.99108507,"No.26/2, Bharathi Nagar, 4th Veethi, Ramanathapuram Post, Coimbatore 641 045.",COIMBATORE,A/N.A.Annamalai,9787330898,9443364184,-,-
Asia,India,TAMILNADU,COIMBATORE,Devarayampalayam MVKM Trust,A.NO.517,11.19598656,77.26754291,"10/488A, Kamaraj Veethi, V.S.V. Colony, Avinashi 641 654.",TIRUPUR,A/N.K.Nallusamy,9787709018,9087349631,9080197380,-
Asia,India,TAMILNADU,CUDDALORE,"Viruthachalam  MVKM Trust,",A.NO.48,11.40276443,79.24211994,"Pazhampathai Street, Pennadam Post, Titakudi T.K., Cuddalore Dist 606 105.",VILLUPURAM,A/N.T.Mayilvaganan,9442520287,7598173314,-,-
Asia,India,TAMILNADU,CUDDALORE,Chidambaram MVKM Trust,A.NO.144,13.1237533,80.1282852,"8, Melaveethi, (Near Kanchi Thotti Bus Stand), Chidambaram - 608001.",VILLUPURAM,A/N.N.R.Ravichandran,9363131000,9345171227,-,-
Asia,India,TAMILNADU,CUDDALORE,Neyveli MVKM Trust,A.NO.159,11.61136795,79.48680617,"D-4, Moon Street, Block-19, Neyveli - 607 803.",VILLUPURAM,A/N.K.P.Udayakumar,9442250921,9488788640,-,-
Asia,India,TAMILNADU,CUDDALORE,Thirupathiripuliyur MVKM Trust,A.NO.297,11.7373813,79.7516783,"No.31/28, Kurunji St, Siva Nagar, Vandipalayam Road, Cuddalore - 607004.",VILLUPURAM,A/N.M.Srinivasan,9444273311,9443435455,-,-
Asia,India,TAMILNADU,CUDDALORE,Vriddhachalam Nagar Mvkm Trust,A.NO.336,11.5195875,79.3251583,"""Gogulam"", 36A, Salem Road, Vriddhachalam 606 001, Cuddalore Dist. ",VILLUPURAM,A/N.G.Balachandran,9443562873,9486307046,-,-
Asia,India,TAMILNADU,CUDDALORE,Vadalur MVKM Trust,A.NO.385,10.9608336,78.422916,"9C, Murugan Koil Street, Abathranapuram, Vadalur 607 303. Cuddalore Dist.",VILLUPURAM,A/N.K.Paramasivam,9841771712,-,-,-
Asia,India,TAMILNADU,CUDDALORE,Bhuvanagiri MVKM Trust,A.NO.390,11.4459041,79.6530174,"25D-3/NA, Bismi Complex, Bhuvanagiri 608 602, Cuddalore Dist.",VILLUPURAM,A/N.R.Senguttuvan,9443876925,-,-,-
Asia,India,TAMILNADU,CUDDALORE,Panruti MVKM Trust,A.NO.393,11.7692363,79.55402055,"2/48A, 2nd Cross Street, Police Line, Kamaraj Nagar, Panruti 607 106.",VILLUPURAM,A/N.S.Vijaayarangan,9842549111,-,-,-
Asia,India,TAMILNADU,CUDDALORE,Manjakuppam MVKM Trust,A.NO.411,11.7631811,79.760077,"No.10-D, Chinnappan Street, Manjakuppam 607 001, Cudalore Dist.",VILLUPURAM,A/N.C.Parthiban,9994749257,9840794591,9940907899,-
Asia,India,TAMILNADU,CUDDALORE,Chidambaram-Thiruchitrambalam MVKM Trust,A.NO.476,11.38595939,79.70701232,"318, South First Cross Street, Marriyappa Nagar, Annamalai Nagar Post, Chidambaram 608 002.",VILLUPURAM,A/N.Dr.K.S.S.Easwaran,9443171669,-,04144-238907,-
Asia,India,TAMILNADU,DHARMAPURI,Dharmapuri MVKM Trust,A.NO.69,12.1065271,78.1361409,"No.1 - J, Vasugounder St, Dharmapuri - 636701. ",HOSUR,"A/N.M.Pattabiraman,",9442260893,8925182721,-,-
Asia,India,TAMILNADU,DHARMAPURI,Marandahalli MVKM Trust,A.NO.243,12.3874801,77.9852853,"C/o.Dr.G.kannan, BDS,  Malar Dental Clinic,  Main Road, Marandahalli, Dharmapuri Dt - 636806",HOSUR,A/N.M.Savithiri,9360652602,-,-,-
Asia,India,TAMILNADU,DHARMAPURI,Papparapatti MVKM Trust,A.NO.258,12.2087989,78.055207,"C/o.A.Devarajan, Master In-Charge, K.P. Ramasamy Mudhali Street, Papparapatti Post  636 809. Pennagaram T.K., Dharmapuri Dist.",HOSUR,A/N.K.Narasiman,8124769413,9150630654,-,-
Asia,India,TAMILNADU,DHARMAPURI,Dharmapuri Bharathipuram MVKM Trust,A.NO.304,12.1065271,78.13623277,"66 Feet Road, (Near Tamil Nadu Warehousing Corporation Limited), Dharmapuri 636 705.",HOSUR,A/N.K.Mathulingam,9442633055,9442533745,9486584299,-
Asia,India,TAMILNADU,DHARMAPURI,Palacode MVKM Trust,A.NO.366,12.0838852,78.1248736,"No.507/655, Main Road, Palacode - 636808. Dharmapauri Dt.",HOSUR,A/N.P.Dharuman,9965592320,-,-,-
Asia,India,TAMILNADU,DHARMAPURI,Dharmapuri South MVKM Trust,A.NO.459,12.1153472,78.1528497,"5-B, 4th Street, Bharathipuram, Dharmapuri 636 705.",HOSUR,A/N.M.Kalaiselvi,9994541911,9150324760,-,-
Asia,India,TAMILNADU,DINDIGUL,Dindigul MVKM Trust,A.NO.9,10.397014,77.96824573,"No.2/428, Vethathiri Nagar, Collectorate (PO ), Dindigul - 624004 ",DINDIGUL,A/N. M.K. Dhamodharan,-,-,0451 - 2460461,-
Asia,India,TAMILNADU,DINDIGUL,Palani MVKM Trust,A.NO.51,10.4500374,77.5161356,"Uma Fancy Store, 8, Periyakadai Veedhi, Palani - 624601",DINDIGUL,"Prof.A.Muthukrishnan,",9443148246,9443787124,04545 - 245600,-
Asia,India,TAMILNADU,DINDIGUL,Oddanchatram MVKM Trust,A.NO.309,10.5246647,77.9271895,"997, Arulagam, Dharapuram Road, Oddanchatram  624 619.",DINDIGUL,A/N.B.Duraisami,9659321952,9965143366,-,-
Asia,India,TAMILNADU,DINDIGUL,Batlagundu MVKM Trust,A.NO.351,9.9211936,78.1193823,"5.6.34 B, Annai Illam, Bharathiyar St, Madurai Main Road, Batlagundu, Dindigul Dt - 624202.",DINDIGUL,A/N. K. Thangavelu,9842080380,-,-,-
Asia,India,TAMILNADU,DINDIGUL,Nilakkottai  MVKM Trust,A.NO.433,10.2112577,77.8677011,"No.12-6-5/C/2, Katcheri Street, Gandhi Nagar, Nilakkottai 624 208.",DINDIGUL,A/N.K.M.Subramanian,9842130583,9842076775,-,-
Asia,India,TAMILNADU,DINDIGUL,"Chinnalapatti MVKM Trust,",A.NO.454,10.2890442,77.9228416,"V.P.N. Street, Keelakotai, Chinnalapatti 624 301.",DINDIGUL,A/N.B.Indirabarani,9894051699,9994571028,-,-
Asia,India,TAMILNADU,ERODE,Erode MVKM Trust,A.NO.18,11.33282,77.7244626,"No.66, Periyar Nagar 9th Street, Erode - 638 001.",ERODE,A/N. SKM. Maeilanandhan,9486184860,9444930539,"0424-2267391, 9443361227",-
Asia,India,TAMILNADU,ERODE,Thuckanaickanpalayam MVKM ,A.NO.93,11.5070177,77.38699,"No.66, Mariamman Koil Street, T.N.Palayam, Erode - 638 506",ERODE,A/N.V.Shantha Devi,9487242063,9942267991,-,-
Asia,India,TAMILNADU,ERODE,Bhavani MVKM Trust,A.NO.98,11.7862533,77.8007853,"229D, Anna Nagar, Bhavani  638 301. Erode Dist.",ERODE,A/N.S.Rangasamy,9842830331,6380402635,6380423274,-
Asia,India,TAMILNADU,ERODE,Ammapet MVKM Trust,A.NO.185,11.6213431,77.7409162,"249, Mettur Main Road, Chithar, Kasari Mangalam (Post), Bhavani T.K, Erode Dt.  638 311.",ERODE,A/N.P.Ranjani,7373565635,9443948101,9688672561,-
Asia,India,TAMILNADU,ERODE,Anthiyur MVKM Trust,A.NO.230,11.57411095,77.58285823,"4, Indira Veedhi, Thavittupalayam, Anthiyur - 638501. ",ERODE,A/N.L.Munusamy,9842763236,9442962126,-,-
Asia,India,TAMILNADU,ERODE,Chennimalai MVKM Trust,A.NO.232,11.1627122,77.5963271,"C/o.A/N.M.P.Soundirarajan, Secretary, Selvam Fabrics, 2, Manimegalai St, Oothukuli Road, Chennimalai - 51.",ERODE,A/N.K.C.Chandira Sekaran,9843024123,9842731655,-,-
Asia,India,TAMILNADU,ERODE,Sivagiri MVKM Trust,A.NO.286,11.1176205,77.7846452,"No.6, Bharathi Street, Sivagiri  638 109. Erode Dt.",ERODE,A/N.A.Rajendran,9942443800,9865778900,-,-
Asia,India,TAMILNADU,ERODE,Gopichettipalayam MVKM Trust,A.NO.292,11.4673663,77.4357739,"No.9/49, LIC Colony, New Hospital St,  Gopichettipalayam, Erode - 638452. ",ERODE,A/N.K.P.Natarajan,9442550403,9789066595,-,-
Asia,India,TAMILNADU,ERODE,Dhandampalayam MVKM Trust,A.NO.319,11.09719051,77.73799789,"No.107/67, Main Road,  Dhandampalayam (PO),  Sivagiri - 638 109. Erode Dt.",ERODE,A/N.T.K.Vachiravelu,9443563261,8754632613,"9843222747, 9788904425",-
Asia,India,TAMILNADU,ERODE,Tiruchengode Vidhyaa Vikas MVKM Trust,A.NO.320,11.0924648,77.3123396,"No.4/51, Unjani Post, Kumaramangalam, Tiruchengode TK, Namakkal Dt - 637205. ",ERODE,A/N.S.Gunasekaran,9442279999,9095656899,-,-
Asia,India,TAMILNADU,ERODE,Perundurai MVKM Trust,A.NO.341,11.293821,77.6215142,"No.68, Krithigai Complex, Kanchikoil Road, Perundurai - 638052.",ERODE,A/N.K.Viswanathan,9488027639,9500576308,-,-
Asia,India,TAMILNADU,ERODE,Kodumudi MVKM Trust,A.NO.355 (Post only),11.0739022,77.8861655,"Near New Bus Stand, Kodumudi (Post) 638 151, Erode Dist.",ERODE,A/N.P.Sakthivel,9488135841,9443787950,7502103678,-
Asia,India,TAMILNADU,ERODE,Shree Gurukulam MVKM Trust,A.NO.378,11.4570383,77.4063625,"Moolavaikkal, Karattadipalayam (Post), Gobichettipalayam 638 453, Erode Dist.",ERODE,Dr.K.R.Rangaraj,9443186265,-,"04285-240997, 241997, 241697",-
Asia,India,TAMILNADU,ERODE,Vellode MVKM Trust,A.NO.400,11.3381465,77.7311167,"NO.465, Dharumar Nagar, Valarmathi Thirumana Mandapa Street, V.Vellode Post 638 112, Erode Dist.",ERODE,A/N.V.C.Kumaresan,9715445516,-,-,-
Asia,India,TAMILNADU,ERODE,Vallipuram Grama MVKM Trust,A.NO.429,11.12712158,77.80242227,"6/9, Kovil pudur, Va. Kurukkam Palayam, Sivagiri 638 109, Erode Dist.",ERODE,A/N.K.R.Selvakumar,9442260384,9841152388,-,-
Asia,India,TAMILNADU,HOSUR,Hosur MVKM Trust,A.NO.106,12.7039644,77.8145956,"No.30, Vethathiri Veedhi, Amman Nagar, Near V.J.Kalyana Mahal, Thally Road, Hosur 635109. Krishnagiri Dt.",HOSUR,A/N.P.Rangasamy,9342875181,9443316923,9487487362,-
Asia,India,TAMILNADU,HOSUR,Krishnagiri MVKM Trust,A.NO.211,12.5283577,78.2146607,"No.43/55, 1st Cross, Jakkappan Nagar, Krishnagiri - 635 001.",HOSUR,A/N.T.K.Shanmugam,9787708306,9843690051,"04343 - 232112, 225905 ",-
Asia,India,TAMILNADU,HOSUR,Kaveripattinam MVKM Trust,A.NO.218,12.4214652,78.2174435,"No.9/182, 1 st Cross Street, Thomson pettai, Kaveripattinam - 635112.",HOSUR,A/N.C.Kumar,9952373241,9952373241,-,-
Asia,India,TAMILNADU,KALLAKURUCHI,Kallakuruchi MVKM Trust,A.NO.194,11.73615498,78.96537282,"Flat No.78, Sakthi Nursing Home, Sundara Vinayagar Koil St, (Near Mahalakshmi Theater), Kallakurichi-606202. ",VILLUPURAM,A/N.S.Govindasamy,9443232809,8056891499,9994129405,-
Asia,India,TAMILNADU,KALLAKURUCHI,Chinna Salem MVKM Trust,A.NO.332,11.941,79.493,"No.14, Kadai St (West), Chinna Salem (PO), Kallakurichi TK, Villupuram DT",VILLUPURAM,A/N.V.Saravanan,9629315596,9442759916,04151-236653.,-
Asia,India,TAMILNADU,KALLAKURUCHI,Kallakuruchi MVKM Trust (West),A.NO.342,11.73628246,78.96093597,"17/35, Sivam Koil Street, Kallakuruchi - 606202.",VILLUPURAM,A/N.S.P.Prabakaran,9443306988,9442747008,-,-
Asia,India,TAMILNADU,KALLAKURUCHI,Ulundurpet MVKM Trust,A.NO.379,11.6771859,79.2730576,"No.18, Kandasamipuram East, Ulundurpet  606 107",VILLUPURAM,A/N.K.Balaganapathi,9865756619,-,-,-
Asia,India,TAMILNADU,KANCHEEPURAM,Kanchipuram MVKM Trust,A.NO.137,12.8341735,79.7036402,"54,Adhiyamaan Nagar, Kalainar Salai, Sevilimedu Post, Kanchipuram - 631 502.",KANCHEEPURAM,A/N.S.Vetrichelvi,9789681628,9382839903,044-27237169,-
Asia,India,TAMILNADU,KANCHEEPURAM,Ullagaram MVKM Trust,A.NO.204,12.9775419,80.1959771,"No.14, Sabapathy St, Narmatha Nagar, Ullagaram, Chennai  - 600091. ",KANCHEEPURAM,A/N.D.Shanthi,9444627940,9840139536,-,-
Asia,India,TAMILNADU,KANCHEEPURAM,Kunrathur  MVKM Trust,A.NO.240,12.997668,80.0972003,"C/o.A/N.S.Sekar, No.26, Muslim Street, Kunrathur, Chennai - 600069.",KANCHEEPURAM,A/N.G.Kuppusami,9283125331,9444025695,-,-
Asia,India,TAMILNADU,KANCHEEPURAM,Pazhavanthangal MVKM Trust,A.NO.255,13.0527653,80.2694467,"No.7, Venkatachalam street, Pazhavanthangal, Chennai - 600114. ",KANCHEEPURAM,A/N.N.Dayalan,9840148924,-,044-22347844,-
Asia,India,TAMILNADU,KANCHEEPURAM,Mangadu MVKM Trust,A.NO.315,13.0321616,80.1076117,"Plot No.4, 2nd Cross Sundaresan St., Sri Chakra Nagar, Mangadu, Chennai  602 101.",KANCHEEPURAM,A/N.AVR.Kavin Sandron,9940473055,-,-,-
Asia,India,TAMILNADU,KANCHEEPURAM,Adambakkam Balakrishnapuram MVKM Trust,A.NO.325,12.89467909,80.17554145,"C/o.A/N.R.Praveen Kumar, Managing Trustee, 1367, First Floor, MIG, TNHB Colony, Sithalapakkam, Chennai 600 126.",KANCHEEPURAM,A/N.N.Rajagopal,9677091921,8939384990,9962062264,-
Asia,India,TAMILNADU,KANCHEEPURAM,Medavakkam MVKM Trust,A.NO.349,12.9171427,80.1923489,"No.11, 1st Cross Street, Chitty Babu Nagar, Pallikaranai, Chennai - 600 100.",KANCHEEPURAM,A/N.V.Sivalingam,9841117527,9884236568,9600147736,-
Asia,India,TAMILNADU,KANCHEEPURAM,Hasthinapuram MVKM Trust,A.NO.397,12.9056464,80.1573604,"Plot No.10, Room No.25, Maruthi Nagar, Hasthinapuram, Chennai 600 064.",KANCHEEPURAM,A/N.T.E.Seshathri,9444412408,-,-,-
Asia,India,TAMILNADU,KANCHEEPURAM,Keelakkattalai MVKM Trust,A.NO.409,12.956592,80.1810029,"No.8, Kalaivani Street, Keelakkattalai, Chennai  600 117.",KANCHEEPURAM,A/N.D.Devaki,9003061633,-,-,-
Asia,India,TAMILNADU,KANCHEEPURAM,Kancheepuram Iyyampettai  MVKM Trust,A.NO.418,12.81842295,79.73682589,"C/o.A/N.R.Valli, Secretary, No.124, Govindaraju Street, Periyar Nagar, Kancheepuram 631 503.",KANCHEEPURAM,A/N.A.Gangadharan,9952691198,9543406194,9443325933,-
Asia,India,TAMILNADU,KANCHEEPURAM,Alandur MVKM Trust,A.NO.419,12.9974873,80.2006371,"Old No.40, New No.34, Madhavapuram East Street, Alandur, Chennai - 600 016.",KANCHEEPURAM,A/N.M.Thenmozhi,9094723326,9092906938,-,-
Asia,India,TAMILNADU,KANCHEEPURAM,Naickenpet MVKM Trust,A.NO.428,12.8070632,79.7683262,"No.83, Big Street, Naickenpet,  Kancheepuram  631 601.",KANCHEEPURAM,A/N.D.Thanigaiarasu,9843530959,9444879265,-,-
Asia,India,TAMILNADU,KANCHEEPURAM,Pammal Muthamizh Nagar MVKM Trust,A.NO.474,12.97340262,80.13868758,"No.9, Padmanaban Street,  Krishna Nagar, Pammal, Chennai 600 075.",KANCHEEPURAM,A/N.U.Amirtha,9025993319,9750070074,9710077258,-
Asia,India,TAMILNADU,KANCHEEPURAM,Karumbakkam MVKM Trust,A.NO.489,10.4712297,79.57537805,"Karumbakkam Arivuthirukoil Street, Kottaikadu Post, Cheyur T.K., Kancheepuram Dist.",KANCHEEPURAM,A/N.K.Selvamani,9445201219,9087200751,-,-
Asia,India,TAMILNADU,KANCHEEPURAM,Old Pallavaram MVKM Trust,A.NO.496,12.9605383,80.1603018,"Flat B/1, Block-2, Jains Green, 91, Dharga Road, Zamin Pallavaram, Chennai 600 043.",KANCHEEPURAM,A/N.M.V.Krishnamoorthy,9444050184,9445404366,-,-
Asia,India,TAMILNADU,KANCHEEPURAM,Chinna Kancheepuram Womens MVKM Trust,A.NO.498,12.82176395,79.70451117,"32B, Narayanapalayam Street, Chinna Kancheepuram 631 501.",KANCHEEPURAM,A/N.Parvathi Thanikaiarasu,9444929754,8015343874,"9943431101, 7418652252",-
Asia,India,TAMILNADU,KANYAKUMARI,Nagercoil MVKM Trust,A.NO.16,8.1838932,77.4332177,"405/127, C.B.H.Road, Melakalumkady, Vadasery, Nagercoil - 629 001",THIRUNELVELI,A/N.S.Vallinayagam Pillai,9443556601,9488082082,04652-272350,-
Asia,India,TAMILNADU,KANYAKUMARI,Marthandam Mvkm Trust,A.NO.363,8.3075307,77.2218365,"6-77, K.R.Medicals, Main Road, Marthandam - 629 165.",THIRUNELVELI,A/N.G.Jeyasingh,9443277888,9443157888,-,-
Asia,India,TAMILNADU,KANYAKUMARI,Villukuri MVKM Trust,A.NO.472,8.223185413,77.3459854,"4/154, Thendral Street, Pandarakadu, Villukuri Post 629 180. Kanniyakumari Dist.",THIRUNELVELI,A/N.S.Joseph Edvin,9489281244,8870538806,-,-
Asia,India,TAMILNADU,KANYAKUMARI,Kumari Vadaseri MVKM Trust,A.NO.482,8.196190893,77.43150654,"Arattu Road, Kesava perumal Colony, (Near SMRV Hr. Sec. School), Vadaseri, Nagercoil 629 001. Kanyakumari Dist.",THIRUNELVELI,A/N.L.Vasanthakumari,9942858806,9445627213,7598557554,-
Asia,India,TAMILNADU,KANYAKUMARI,Kottaram MVKM Trust,A.NO.513,8.119095778,77.52661226,"8/51, Mela Street, Kottaram 629 703.",THIRUNELVELI,A/N.N.Karthik,9600292167,9488407271,9787303811,binu19sa@gmail.com
Asia,India,TAMILNADU,KANYAKUMARI,Kulasekharam MVKM Trust,A.NO.516,8.347961228,77.30692857,"17/198, Vendalikadu Post 629 161, Kanniyakumari Dist.",THIRUNELVELI,A/N.P.Krishnan Kutty,9443992705,8675429488,-,-
Asia,India,TAMILNADU,KARUR,Karur MVKM Trust,A.NO.187,10.96274775,78.06514977,"No.142, LGB Nagar, Karur - 639002.",ERODE,A/N.K.Balasubramanian,9360133738,9843297297,"04324 - 248230,  9443287289 ",-
Asia,India,TAMILNADU,KARUR,Andipatti MVKM Trust,A.NO.391,10.0103658,77.47690272,"33, Thiruvalluvar Colony, Jakkanpatti, Andipatti Post, Theni Dist. Pin: 625 512",DINDIGUL,A/N.K.Ravi,9942304555,-,-,-
Asia,India,TAMILNADU,KARUR,Velayuthampalayam MVKM Trust,A.NO.439,11.3410364,77.71725582,"63, Erode Salai, Velayuthampalayam Post, Karur Dist 639 117.",ERODE,A/N.V.S.Baskaran,7708843333,9944888604,-,-
Asia,India,TAMILNADU,KARUR,Kulithalai  MVKM Trust,A.NO.441,10.9335904,78.4227716,"No.25-H, Theppakulam Street, Kulithalai 639 104, Karur Dist.",ERODE,A/N.R.Saravanakumar,9787722476,9843550791,-,-
Asia,India,TAMILNADU,KARUR,Nedungoor MVKM Trust,A.NO.446 (Post only),10.95,78.0800915,"5/50, Poomandampalayam, Nedungoor Post 639 111, Karur Dist.",ERODE,A/N.R.Nallasivam,9894695342,9786967925,-,-
Asia,India,TAMILNADU,MADURAI,Madurai MVKM Trust,A.NO.4,9.941267351,78.13092741,"24, Besant Road, Chokkikulam, Madurai - 625 002.",MADURAI,A/N.R.Kannan,9087971797,-,0452-2526461,-
Asia,India,TAMILNADU,MADURAI,Tirunagar MVKM Trust,A.NO.22,9.8845116,78.0523548,"C/o.A/N.Ram gopal, Secretary, No.C.45, Brindavan Street, Thirunagar, Madurai - 625006",MADURAI,A/N.M.N.Ragavan,9994499936,9842150442,-,-
Asia,India,TAMILNADU,MADURAI,Madurai Nagar MVKM Trust,A.NO.66,9.92483,78.12145,"139, G.R. Complex, North Marath Street, Simmakkal, Madurai 625 001.",MADURAI,A/N.K.R.G.Nagarajan,9843353737,9344499257,-,-
Asia,India,TAMILNADU,MADURAI,Paramakudi MVKM Trust,A.NO.95,9.544,78.591,"No.3/736, Mandhri Menon Street, Parmakudi - 623707. ",MADURAI,A/N.R.Ravindiran,9842212527,9842223926,-,-
Asia,India,TAMILNADU,MADURAI,Devakottai MVKM Trust,A.NO.215,9.9463215,78.8195429,"No.74, Thiyagikal Road, Devakottai - 630302. ",MADURAI,"A/N.Dr.P.L.Menakshisundram,",9443783159,-,04561-272336,-
Asia,India,TAMILNADU,MADURAI,Usilampatti MVKM Trust,A.NO.291,9.9614628,77.7913234,"Homeo Clinic, Nadan New St, Usilampatti, Madurai - 625532.",MADURAI,A/N.Dr.A.Kannan Prasanna,9894329602,-,04552 - 250228,-
Asia,India,TAMILNADU,MADURAI,Thirumangalam MVKM Trust,A.NO.328,9.8232884,77.9881401,"80/375, Usilai Road, Tirumangalam, Madurai - 625706.",MADURAI,A/N.K.R.Ravindran,9994488949,-,-,-
Asia,India,TAMILNADU,MADURAI,Kamuthi MVKM Trust,A.NO.361,9.4097291,78.3643119,"4, Chayakara Street, Kamuthi - 623603, Ramanathapuram Dt.",MADURAI,A/N.P.K.Periyasamy,9003399881,-,-,-
Asia,India,TAMILNADU,MADURAI,Vadipatti MVKM Trust,A.NO.362,10.0843179,77.9610158,"No.2-1-65, Mettuperumal Nagar, Vadipatti - 625218.",MADURAI,A/N.R.Manavalan,9976669158,-,-,-
Asia,India,TAMILNADU,MADURAI,K. Pudur MVKM Trust,A.NO.483,9.95254361,78.14733601,"Gnana Kudil, No.11, E.M.G. Nagar,  2nd Street, 2nd Cross, K.Pudur, Madurai 625 007.",MADURAI,A/N.S.Balan,9487145599,9486950099,-,-
Asia,India,TAMILNADU,MAILADUTHURAI,Mailaduthurai MVKM Trust,A.NO.74,11.0986902,79.6417893,"C/o.54, A, Periya Saliya St, Koorainadu, Mailaduthurai - 1.",KUMBAKONAM,"A/N.G.Venkatrajulu,",9442819562,9965524387,-,-
Asia,India,TAMILNADU,NAGAPATTINAM,Nagai MVKM Trust,A.NO.57,10.77376135,79.83754825,"1,Sivan South, Madavalagam St, Velippalayam, Nagapattinam - 1.",KUMBAKONAM,"A/N.S.Elamaran, M.A, B.Ed.,",9443873919,9443985508,04365 - 248866,-
Asia,India,TAMILNADU,NAGAPATTINAM,Sirkali MVKM Trust,A.NO.421,11.2380137,79.7346811,"No.14, Thiyagaraja Nagar, Sirkali Post - 609 110. Nagapattinam District.",KUMBAKONAM,A/N. A. Chellammal,8760214460,9994681596,-,-
Asia,India,TAMILNADU,NAMAKKAL,Namakkal MVKM Trust,A.NO.58,11.22243832,78.16462524,"No.11, Narasimar Sannadhi Street, Kottai, Namakkal - 637001.",SALEM,A/N.S.M.Ramu,9843429387,9788635479,-,-
Asia,India,TAMILNADU,NAMAKKAL,Sendamangalam MVKM Trust,A.NO.84,11.2194391,78.1677236,"Vethathiri Nagar, Jangalapuram, Senthamangalam - 637 409. Nammakkal Dist.",SALEM,A/N.K.Sundaram,9442701601,-,-,-
Asia,India,TAMILNADU,NAMAKKAL,Tiruchengode MVKM Trust,A.NO.124,11.3639364,77.8859968,"26/3, Vazhga Valamudan Illam, Malaisuthi Road, Valaraigate,  Karattupalayam, Sirumolani (Post), Tiruchengode - 637 209.",ERODE,A/N.S.Balasubramanian,9842856231,7373615156,9894913259,-
Asia,India,TAMILNADU,NAMAKKAL,Komarapalayam MVKM Trust,A.NO.160,11.43523721,77.69742203,"45/1, Maharishi Nagar, Ayyan Thottam, Komarapalayam 638 183. Namakkal Dist.",ERODE,A/N.K.R.Jayakumar,9842761111,9095163783,-,-
Asia,India,TAMILNADU,NAMAKKAL,Rasipuram MVKM Trust,A.NO.178,11.4545086,78.1906417,"M/s.Soundhars Vet Agencies, 1B, Kattur Kattu Kottai, 1B Kattur Road,  Rasipuram T.K., Namakkal Dist 637 408.",SALEM,A/N.M.Soundararajan,9791200724,9345541669,04287-224905,-
Asia,India,TAMILNADU,NAMAKKAL,Pallipalayam MVKM Trust,A.NO.318,11.3578374,77.7538955,"Vethathiri Nagar, Near Krishnaveni Kalyana Mandapam, Paper Mill Road, Pallipalayam 638 006.",ERODE,A/N.R.Srinivasan,9842060900,9843055075,-,-
Asia,India,TAMILNADU,NAMAKKAL,Sendamangalam Vethaloga Vidhyalaya MVKM Trust,A.NO.357,11.2801,78.234844,"Vethaloga Vidhyalaya Matriculation Higher Secondary School, Sendamangalam - 637409.",SALEM,A/N. M.K. Guru,9842770314,9842880314,04286-270314,-
Asia,India,TAMILNADU,NAMAKKAL,Vennandur  MVKM Trust,A.NO.407,11.1109717,78.0105028,"4/7B, Vettukadu, Vennandur, Namakkal Dist 637 505",SALEM,A/N.S.Karthikeyan,9942733319,9488683880,-,-
Asia,India,TAMILNADU,NILGIRIS,Gudalur MVKM Trust,A.NO.63,11.5158296,76.5372625,"No.10/65, Kalyani Jewellary 1st Floor, Ooty - Mysore Main Road, Gudalur, Nilagiri  643 212.",COIMBATORE,A/N.N.Thangamani,9443857060,9442006224,-,-
Asia,India,TAMILNADU,NILGIRIS,Uthagai MVKM Trust,A.NO.104,11.4040343,76.7019038,"Santhosh clinical laboratory, 67/1152, U.M.C. Market Upstairs, Uthagamandalam - 643001",COIMBATORE,A/N.M.Sathiyamurthy,9443907787,9443461866,-,-
Asia,India,TAMILNADU,NILGIRIS,Aruvankadu MVKM Trust,A.NO.110,11.37007656,76.76736674,"No.10/155.B,  Vinayakar Koil St, Aruvankadu  P.O. The Nilgiris - 643202.",COIMBATORE,A/N.J.Kanchana,9677492413,9994158404,9443522821,-
Asia,India,TAMILNADU,NILGIRIS,Kollapalli MVKM Trust,A.NO.162,11.5251883,76.3292754,"No.6/119, 2,  Kolapalli Main Road, Kollapalli, Pandalur.T.K - 643253.",COIMBATORE,A/N.Rajaratnam,9487073080,9442081457,7538277759,-
Asia,India,TAMILNADU,NILGIRIS,Jegathala MVKM Trust,A.NO.288,11.4916043,76.7336521,"No.4/233, Jegathala Villager & Post, The Nilgiris - 643 202.",COIMBATORE,A/N..B.Bellan,8903286862,7639768852,-,-
Asia,India,TAMILNADU,PERAMBALUR,Perambalur MVKM Trust,A.NO.135,11.23447655,78.88089583,"Arivuthirukoil, Vethathiri Nagar, Palakarai, Thuraimangalam Post, Perambalur - 621 220.",TRICHY,A/N.S.Chandrasekaran,9787775780,-,"04328-225446, 9585500303, 304, 301 ",-
Asia,India,TAMILNADU,PUTHUKOTTAI,Aranthangi MVKM Trust,A.NO.202,10.4245778,79.3122327,"11C, L.N. Puram-1, Aranthangi - 614 616.",TRICHY,A/N.A.Nehru,9894466219,-,-,-
Asia,India,TAMILNADU,PUTHUKOTTAI,Puthukottai MVKM Trust,A.NO.214,10.379663,78.8208454,"C/o.A/N.V.Veeramuthu, Secretary, Vazhga Valamudan, 4, Thillai Nagar, Pudukottai - 622004. ",TRICHY,A/N.V.R.A.Chidambaram,9444873349,9750103534,-,-
Asia,India,TAMILNADU,PUTHUKOTTAI,Manalmelkudi MVKM Trust,A.NO.231,10.1712695,78.9910186,"No.1346, Jagadeshwar Koil St, Kulachiraiyar Nagar, Manamelkudi, Pudukkottai - 20. ",TRICHY,A/N.R.Alaguraj,9865731397,9976782095,-,-
Asia,India,TAMILNADU,PUTHUKOTTAI,Pudukkottai Vellaru  MVKM Trust,A.NO.252,10.3870469,78.8076353,"No.21, Karpaga Nagar, Vattapatti Road, Rajagopalapuram Post, Pudukkottai - 622 003.",TRICHY,A/N. A. Muthukumaran,9942714878,9150169649,-,-
Asia,India,TAMILNADU,PUTHUKOTTAI,Pudukottai Subramaniyapuram MVKM Trust,A.NO.462,10.39810636,78.82622211,"No.19, Subramaniyapuram, NGO Colony Extn.,  Pudukkottai 622 005.",TRICHY,A/N.K.Thilagam,9965401753,9489170469,-,-
Asia,India,TAMILNADU,PUTHUKOTTAI,Thirumayam MVKM Trust,A.NO.501,10.24464815,78.74620938,"1/14, Big Street, Thirumalai Nagar, Thirumayam, Pudukottai Dist - 622 507.",TRICHY,A/N.S.Sivakami,9943374107,9842074079,9655472931,-
Asia,India,TAMILNADU,RAMANATHAPURAM,Ramanathapuram MVKM Trust,A.NO.102,9.370589,78.8334566,"175, Devipatinam Road, Kanikarai, Vellipattinam Post, Ramanathapuram - 623504.",MADURAI,A/N.R.Murugesan,9443465991,9443465991,9486819723,-
Asia,India,TAMILNADU,RAMANATHAPURAM,Ramanathapuram Velipattinam MVKM Trust,A.NO.274,9.9388976,78.1279609,"22, Avaiyar Street, Ramanathapuram - 623 501.",MADURAI,A/N.R.B.Ravi,9843669766,9843222906,-,-
Asia,India,TAMILNADU,RANIPET,Ranipetttai MVKM Trust,A.NO.139,12.9341127,79.3321115,"Jothi Vallalar Mandram, Sangam Street, Navalpur, Ranipet 632 402.",THIRUVANNAMALAI,A/N.M.Dharmarajan,9486437373,-,-,-
Asia,India,TAMILNADU,RANIPET,Arcot MVKM Trust,A.NO.278,12.9105318,79.3249221,"Aroct TOC, Devi Nagar, Sri Ramakrishna Metric Hr.Sec.School, Arcot - 632503.",THIRUVANNAMALAI,A/N.S.Janahiraman,9443336852,9994975744,-,-
Asia,India,TAMILNADU,RANIPET,Walajapettai MVKM Trust,A.NO.340,13.1282823,80.2429974,"Sri Shanmuga Saraswathi Illam, No.247 A, Bharathi Street, Belliyappa Nagar, Walajapettai - 632513.",THIRUVANNAMALAI,A/N.S.Suresh Babu,9444089983,9486315526,-,-
Asia,India,TAMILNADU,RANIPET,Kaveripakkam MVKM Trust,A.NO.370,11.9354653,79.8272506,"No.253, Bharathi Street, Belliappa Nagar, Walajapet (Post), Ranipet Dist 632 513.",THIRUVANNAMALAI,A/N.N.Srinivasan,9443866457,9443866457,-,-
Asia,India,TAMILNADU,SALEM,Salem Ammapet MVKM Trust,A.NO.44,11.64836833,78.17625135,"No.46.E, Vethathiri Maharishi Nagar, New Street Extn, Ammapettai, Salem - 636003.",SALEM,A/N.A.Vivekanandhan,9443241482,9442842043,2244244,-
Asia,India,TAMILNADU,SALEM,Puthuchampalli  MVKM Trust,A.NO.45,11.805204,77.8225923,"C/o.A/N.M.Pachaiyannan, MIC, No.38-151 EID, V.O.C Nagar, Mettur Dam RS - 636402.",SALEM,A/N.N.Saraswathy Nanchappan,9486931050,9790709588,04298 - 222283,-
Asia,India,TAMILNADU,SALEM,Elampillai MVKM Trust,A.NO.71,11.6,78.007,"No.9 - 1/20, Kakapalayam Main Road, Elampillai Post, Salem - 637 502.",SALEM,"A/N.M.K.V.Koteeswaran,",9842669857,9043355515,-,-
Asia,India,TAMILNADU,SALEM,Salem Seelanaickenpatti MVKM Trust,A.NO.80,11.6194887,78.1443285,"C/o.A/N.Shanmugam, MIC, No.156/156, Samiyappa Nagar, Seelanaickenpatti, Salem - 636201.",SALEM,A/N.RPS.Venugopal,9790614885,-,-,-
Asia,India,TAMILNADU,SALEM,Mettur Dam MVKM Trust,A.NO.87,11.4463521,77.6839469,"T.O.C. Vethathiri Nagar, State Bank Colony Quarters Backside, Mettur Dam 636 401.",SALEM,A/N.P.Marimuthu,9842798777,-,-,-
Asia,India,TAMILNADU,SALEM,Salem Kasakaranoor MVKM Trust,A.NO.99,11.6897632,78.1364889,"14/10A, Ragavan St, Bavani Hospital Road, Swarnapuri, Salem - 636 004.",SALEM,A/N.Dr.S.P.Kandasami,9442849988,9443242336,8825961281,-
Asia,India,TAMILNADU,SALEM,Edaippadi MVKM Trust,A.NO.155,11.5847632,77.8387867,"Kalai Arangam Theatre, 31-C, Davantheru, Edaipadi-637101. ",SALEM,A/N.N.Devarajan,9842722905,7373099905,"04283 - 222905, 9842709969",-
Asia,India,TAMILNADU,SALEM,Salem Dadagapatti MVKM Trust,A.NO.212,11.6330913,78.1521676,"6th Mariamman Koil Street,  (SBI Backside), Dadagapatti, Salem - 636006.",SALEM,Prof.A/N.T.P.R.Palanesamy,9790004494,-,0427 - 2465286,-
Asia,India,TAMILNADU,SALEM,Salem Kitchipalayam MVKM Trust,A.NO.213,11.6458508,78.16852901,"149A, I Floor, 3rd Cross V.O.C. Nagar, Kichipalayam, Salem - 636 015.",SALEM,A/N.V.Manoharan,9487997175,9488067122,0427-2267122,-
Asia,India,TAMILNADU,SALEM,Sankakiri MVKM Trust,A.NO.246,11.47758837,77.87552829,"Karumpayiram Swami Koil Street, V.N.Palayam, Sankakiri  637 301.",ERODE,A/N.N.P.N.Prakasan,9443252885,9442372527,-,-
Asia,India,TAMILNADU,SALEM,Athur MVKM Trust,A.NO.247,11.5962937,78.5989184,"C/o.A/N.S.Subramanian, Secretary, 468, Jothi Mill Street, Jothi Nagar, Athur 636 102. ",SALEM,A/N.P.Kannan,9486057420,9842740338,9443920703,-
Asia,India,TAMILNADU,SALEM,Tharamangalam  MVKM Trust,A.NO.256,11.7,77.98,"Samipattarai, 6th Ward, Vannara street, Tharamangalam, Salem - 636502. ",SALEM,A/N.A.Sarangalingam,9944233399,9092837730,-,-
Asia,India,TAMILNADU,SALEM,Attayampatti  MVKM Trust,A.NO.261,11.531389,78.046111,"31, K.V.A. Arthanari Street, Velanatham, Attayampatti (P.O), Salem - 637 501. ",SALEM,A/N. V.Balasubramaniyan,9443347121,9443076176,-,-
Asia,India,TAMILNADU,SALEM,Salem Karungalpatti MVKM Trust,A.NO.283,11.6345481,78.1535928,"A/N.G.Mallaswaran, Secretary, 41/13, 3rd North Muniyappan Koil Street, Karungalpatti, Salem - 636 006.",SALEM,A/N.A.Dhanakotti,9994113672,8754037270,9443041261,-
Asia,India,TAMILNADU,SALEM,Mecheri Amman Nagar MVKM Trust,A.NO.356,11.83266,77.9424531,"No.11/4-25, Petrol Bunk Opp, Mettur Main Road, Kaleepatti Post, Mecheri - 636453. Salem Dt.",SALEM,A/N.G.Nallathambi ,9486490800,9976381604,-,-
Asia,India,TAMILNADU,SALEM,Ayothiyapattnam MVKM Trust,A.NO.477,11.66935894,78.2369101,"No.140/2-1/11, K.M. Nagar, Ayothiyapattnam Post 636 103, Salem District.",SALEM,A/N.S.Mani,9443269666,9443824817,-,-
Asia,India,TAMILNADU,SIVAGANGAI,Sivagangai MVKM Trust,A.NO.20,9.8521106,78.4857024,"C/o.A/N.SP.Ramanathan, Secretary, Sriram Xerox & Computers, 361-G, Gandhi Road, Sivagangai - 630 561",MADURAI,A/N.A.C. Shanmuganathan,9965899303,9842440536,-,-
Asia,India,TAMILNADU,SIVAGANGAI,Karaikkudi MVKM Trust,A.NO.125,10.0731315,78.7801544,"No.2, Manakiri Palaniyappan Street, Puthusanthai Road, Karaikkudi - 630 001. ",MADURAI,A/N.R.Murugan,9443399665,9486671975,-,-
Asia,India,TAMILNADU,SIVAGANGAI,Tiruppattur MVKM Trust,A.NO.248,10.12317008,78.61956213,"Lakshmi Nursing Home, Madurai Road, Tiruppathur, Sivagangai - 630211. ",MADURAI,A/N.Dr.C.Sukumar,9443126732,9345297530,-,-
Asia,India,TAMILNADU,SIVAGANGAI,Sivagangai Maravamangalam MVKM Trust,A.NO.473,9.769305902,78.65283703,"Nadu Street, Maravamangalam Post 630 554, Kalaiyar Koil Taluk, Sivagangai Dist.",MADURAI,A/N.K.Murugan,9787831751,9965950072,9489488465,-
Asia,India,TAMILNADU,THANJAVUR,Kumbakonam MVKM Trust,A.NO.64,10.9412207,79.7419238,"No.47, Noor Nagar, Pidarikulam Road, Thiruvidaimarudoor Road, Kumbakonam-612 001. ",KUMBAKONAM,A/N.P.Dorai,9443145795,-,0435-2430601,-
Asia,India,TAMILNADU,THANJAVUR,Pattukottai MVKM Trust,A.NO.145,10.4293863,79.3095848,"47/F-55, R.R. Illam, Venkidachalam Nagar, Aranthangi Road, Pattukkottai 614 601.",KUMBAKONAM,A/N.M.Ramalingam,9444788358,9994975759,-,-
Asia,India,TAMILNADU,THANJAVUR,Thanjai MVKM Trust,A.NO.196,10.7747496,79.1265161,"Vethathiri Kudil, 14,Srinivasa Nagar, Co-Operative Colony Salai, Thanjavur - 613007.",KUMBAKONAM,A/N.K.Saravanan,9443586068,9843385133,-,-
Asia,India,TAMILNADU,THANJAVUR,Thanjai Nagara MVKM Trust,A.NO.244,10.7750825,79.1385422,"No.6, St.Saviour I.T.I. Complex, Trichy Main Road, Thanjavur  613 001.",KUMBAKONAM,A/N.A.Arokyasamy,9842434568,9943160606,"04362 - 231568, 234568",-
Asia,India,TAMILNADU,THANJAVUR,Peravoorani MVKM Trust,A.NO.257,10.2251867,79.1031242,"Arivuthirukoil, Puthu Road, Sathiyamoorthy Nagar, Peravoorani 614 804.",KUMBAKONAM,A/N.Rama.Veerasingam,9442247656,9443008151,-,-
Asia,India,TAMILNADU,THANJAVUR,Ammapet MVKM Trust,A.NO.282,11.6213431,77.7409162,"66/4, Kothandaramasamy  Koil St, Ammapet (P.O), Papanasam (T.K)., Thanjavur - 614401.",KUMBAKONAM,A/N.M.Baskaran,9944668872,9486408369,94432392412,-
Asia,India,TAMILNADU,THANJAVUR,Orathanadu MVKM Trust,A.NO.373,10.6286438,79.2530889,"Jagathambal Complex, 6, Samy Lab, Royar Street,  Orathanadu 614 625, Thanjavur Dist ",KUMBAKONAM,A/N.P.Ramasamy,9842252568,9443585989,-,-
Asia,India,TAMILNADU,THANJAVUR,Madukkur MVKM Trust,A.NO.395,10.5461977,79.3203356,"No.89, Vallalar Street, Madukkur 614 903.",KUMBAKONAM,A/N.S.S.B.Prakasam,9443360321,8072091575,-,-
Asia,India,TAMILNADU,THANJAVUR,Thanjai Valanaadu MVKM Trust,A.NO.440,10.958899,79.3760378,"No.4, Natarajapuram North, State Bank Colony Road, Medical College Post, Thanjavur 613 004.",KUMBAKONAM,A/N.S.N. Kittappa,9965602273,9442890178,9487031370,-
Asia,India,TAMILNADU,THANJAVUR,Vangarampettai MVKM Trust,A.NO.471,10.9251895,79.2708047,"6, Salma Complex, Kadai Veethi, Papanasam 614 205, Thanjavur Dist.",KUMBAKONAM,A/N.K.Ganesan,8903160712,9443524559,-,-
Asia,India,TAMILNADU,THENI,Cumbam MVKM Trust,A.NO.234,9.7344265,77.2807423,"No.516-C/10, Kumili Main Road, Cumbum - 625516. ",DINDIGUL,A/N.S.Santhiya,9790017866,9788678134,9942729602,-
Asia,India,TAMILNADU,THENI,Bodi Nayakanur MVKM Trust,A.NO.279,9.897590469,77.28025132,"Sri  Nivash,  No. 141, Subbramaniar kovil North Street, Bodi Nayakanur 625 513, Theni Dist.",DINDIGUL,A/N.S.Sivaraman,9842648698,8760564392,-,-
Asia,India,TAMILNADU,THENI,Theni MVKM Trust,A.NO.350,12.9715987,77.59465488,"Theni Arivuthirukovil, 4th South Street, Penniquick Nagar, Thitta Salai, Theni - 625 531.",DINDIGUL,A/N.S.Muniappan,9659960343,9487897747,-,-
Asia,India,TAMILNADU,THENI,Periyakulam MVKM Trust,A.NO.352,10.1220232,77.5378668,"25/4, Kacheri Road, Near Theradi, Thenkarai, Periyakulam 625 601. Theni Dist.",DINDIGUL,A/N. S.Chinnusamy,9994883103,9344880968,9952815941,-
Asia,India,TAMILNADU,THENI,Chinnamanur MVKM Trust,A.NO.455,9.856000288,77.38808355,"NATURRES NEST (Iyarkai Angadi - Organic Shop), 12B/1, Markeyankottai Road, Old Registrar Office Building, Chinnamanur 625 515, Theni District,.",DINDIGUL,A/N. Selvakumar,9444600850,9566125191,-,-
Asia,India,TAMILNADU,THIRUPATHUR,Tirupathur MVKM Trust,A.NO.115,12.5080698,78.5701749,"Vethathiri Nagar, Tamil Nadu Housing Board I, Tirupathur - 635601.",THIRUVANNAMALAI,A/N.S.Sivagnanam,9865295360,9363081160,-,-
Asia,India,TAMILNADU,THIRUPATHUR,Ambur MVKM Trust,A.NO.210,12.787257,78.7129248,"C/o.P.S.Jayavel, Secretary, No.9/3 B, Old Hospital Street, Krishnapuram, Ambur - 635802.",THIRUVANNAMALAI,A/N.K.Baskaran,9444636971,9443145480,-,-
Asia,India,TAMILNADU,THIRUVALLUR,Arakkonam Jothi Nagar MVKM Trust,A.NO.29,13.10709268,79.66047692,"Arakkonam Jothi Nagar Arivu Thirukkoil, 53/2, Bharathi Street (Near Thirukkoil), Arakkonam - 631 003. ",THIRUVALLUR,A/S.P.Elango,9943035954,9894507389,04177-23778. 9994832573,-
Asia,India,TAMILNADU,THIRUVALLUR,Thiruvottriyur MVKM Trust,A.NO.59,13.1561761,80.2997517,"C/o.A/N.Pushparaj, Programme Officer, No.52/71, Kailash Sector 5th Veethi, Chinnamettupalayam, Thiruvottriyur, Chennai - 600019.",THIRUVALLUR,A/N.M.Aasaithambi,9444124158,9444265990,"9444104735, 9710812836",-
Asia,India,TAMILNADU,THIRUVALLUR,Ambathur MVKM Trust,A.NO.150,13.1190942,80.1470326,"No.14/2 - C, Nainiammal Street, Krishnapuram, Ambathur, Chennai - 600053.",THIRUVALLUR,A/N.A.S.Gandhi,9884739875,9444797098,044-26585413,-
Asia,India,TAMILNADU,THIRUVALLUR,Avadi MVKM Trust,A.NO.205,13.1106305,80.1146751,"Dhanagiri"", No.11, 5th St,  J.B.Estate,  Avadi, Chennai  600 054. ",THIRUVALLUR,A/N.Sridhar,9443399045,7708413461,-,-
Asia,India,TAMILNADU,THIRUVALLUR,Arakkonam Town MVKM Trust,A.NO.254,13.08402007,79.66645257,"No.7/15, Vellaikkulam 4th street, Arakkonam - 631001",THIRUVALLUR,A/N.T.Sekar,9443641857,9443628324,-,-
Asia,India,TAMILNADU,THIRUVALLUR,Meleri MVKM Trust,A.NO.262 (Post only),13.0752392,79.6558242,"No.4/65 Bajanai Koil St, Meleri Village & Po, Arakonam Taluk, Vellore Dt - 632502.",THIRUVALLUR,A/N.B.Vivekanandhan,9380881432,9789431703,-,-
Asia,India,TAMILNADU,THIRUVALLUR,Chenkundram MVKM Trust,A.NO.264,13.0998554,80.291872,"6, Abdul Marakayar Street, Chenkundram, Chennai - 600052. ",THIRUVALLUR,A/N.R.Moorthy,9840042724,9841456072,-,-
Asia,India,TAMILNADU,THIRUVALLUR,Porur Sakthi Nagar MVKM Trust,A.NO.275,13.0289437,80.1630924,"Plot No.40, Ganesh Avenue ( Extn), Sakthinagar, Porur, Chennai - 600 116.",THIRUVALLUR,A/N.K.A.Kuppusamy,9789920656,9444589137,044-22522001,-
Asia,India,TAMILNADU,THIRUVALLUR,Manali New Town MVKM Trust,A.NO.311,13.2032738,80.2776126,"No.7A/11, Manali New Town, Near Vinayagar Koil, Chennai  600 103. ",THIRUVALLUR,A/N.E.Nalini,9941546376,-,-,-
Asia,India,TAMILNADU,THIRUVALLUR,Mathur MMDA MVKM Trust,A.NO.312,13.1696082,80.2497646,"C/o.N.Kirubhakaran, Secretary, No.2377, 3rd Main Road, Mathur, Chennai - 600 068.",THIRUVALLUR,A/N.A.R.Sridharan,9789010495,9941106793,9962836164,-
Asia,India,TAMILNADU,THIRUVALLUR,Trivellore MVKM Trust,A.NO.313,13.0361067,80.2336219,"Old No.4/4, New No.75, C.V. Naidu Salai, 2nd floor, Trivellore - 602 001.",THIRUVALLUR,A/N.K.Srinivasan,9786399866,9608083457,9791317611,-
Asia,India,TAMILNADU,THIRUVALLUR,Minjur MVKM Trust,A.NO.316,13.267701,80.264654,"C/o.A.Ramani, Secretary, No.4, Nehru Street, Pachaiamman Nagar,  Minjur - 601 203, Ponneri Taluk, Tiruvallur Dt.",THIRUVALLUR,A/N.RA.Venkatesan,9444282768,9840654106,-,-
Asia,India,TAMILNADU,THIRUVALLUR,Poonthamallee MVKM Trust,A.NO.317,13.05723978,80.10024886,"No.19, Maran Nagar Anex, Poonthamallee, Chennai - 600056.",THIRUVALLUR,A/N.G.Sembian,9444145519,-,044-26495244,-
Asia,India,TAMILNADU,THIRUVALLUR,Vanagaram MVKM Trust,A.NO.326,13.0461574,80.1854439,"No.1/261, Palaniappa Nagar 3rd Street, Vanagaram Post, Chennai - 600 095.",THIRUVALLUR,A/N.M.R.Subramanian,9840766917,-,-,-
Asia,India,TAMILNADU,THIRUVALLUR,Poonamallee HPS MVKM Trust,A.NO.338,13.04772,80.1251558,"No.62, New No. 7/4 A, 5th Cross st, Thirumal Nagar, Poonamallee, Chennai - 600056.",THIRUVALLUR,A/N.D.Elango,9840585559,9551155569,044-26492464,-
Asia,India,TAMILNADU,THIRUVALLUR,Madhavaram MVKM Trust,A.NO.359,13.1244602,80.0924795,"18, Anna Cross Street,  Erukancherry, Chennai 600 118.",THIRUVALLUR,A/N.S.Vijayendrar,9884128168,9884048919,-,-
Asia,India,TAMILNADU,THIRUVALLUR,Avadi Kasturibai Nagar MVKM Trust,A.NO.381,12.9501128,80.2532139,"No.10, Anbazhakan 2nd Street, Gandhi Nagar, Avadi, Chennai 600 054.",THIRUVALLUR,A/N.Ethirajulu,9445789736,9094360203,-,-
Asia,India,TAMILNADU,THIRUVALLUR,Korattur PPICF MVKM Trust,A.NO.386,13.1156777,80.1810617,"No.2, 42nd Street, Korattur, Chennai 600 080.",THIRUVALLUR,A/N.V.S.Saravanan,9445230139,9444904264,-,-
Asia,India,TAMILNADU,THIRUVALLUR,Mugapare Paneer Nagar  MVKM Trust,A.NO.387,13.08658398,80.18415226,"5, Balu Nagar,  Mogappair, Chennai 600 037.",THIRUVALLUR,A/N.M.Rajagopal,9444418241,9840861519,-,-
Asia,India,TAMILNADU,THIRUVALLUR,Ponneri  MVKM Trust,A.NO.426 (Post only),13.33508911,80.14331106,"Puthuvoyal Village & Post 601 206, Gumidipundi Taluk, Thiruvallur Dist.",THIRUVALLUR,A/N.A.Prabhakaran,9443193994,8778141780,"9940421082, 9865390357",-
Asia,India,TAMILNADU,THIRUVALLUR,ICF MVKM Trust,A.NO.457,13.0983999,80.2190478,"19/2, ICF East Colony, Chennai 600 038.",THIRUVALLUR,A/N.S.Kamaraj,9003141312,9150546681,9566002804,-
Asia,India,TAMILNADU,THIRUVALLUR,"Thiruvallur Ondikuppam MVKM Trust,",A.NO.511,13.1089348,79.92253961,"No.7, Arumugam Street, Ondikuppam, Thiruvallur 602 001.",THIRUVALLUR,A/N.M.A.Arulkumar,9787109487,9861201419,8012002009,arulkumaracu@gmail.com
Asia,India,TAMILNADU,THIRUVALLUR,Chennai Lakshmipuram MVKM Trust,A.NO.512,13.13012478,80.16014484,"55B, Thiruthanni Nagar, 1st Main Road, Puthur, Ambathur, Chennai 600 053.",THIRUVALLUR,A/N.M.Ravishankar,8124001990,7904334413,9445005576,ravishankar23503@gmail.com
Asia,India,TAMILNADU,THIRUVANNAMALAI,Thiruvannamalai MVKM Trust,A.NO.190,12.26205121,79.05848082,"Vethathiri Nagar, Kanchi Road,(Near Kubaraperrumal Koil), Thiruvannamalai T.K.  606 604.",THIRUVANNAMALAI,A/N.S.Dhamodharan,9443227181,9842341014,9443492347,-
Asia,India,TAMILNADU,THIRUVANNAMALAI,Polur MVKM Trust,A.NO.217,12.5083373,79.1293743,"Vazhga Valamudan Santhosh Illam, 14/A, Dr.Radakrishnan Street, Diversion Road, Polur, Thiruvannamalai - 606 803. ",THIRUVANNAMALAI,A/N.G.Palani,8667809300,9940884250,-,-
Asia,India,TAMILNADU,THIRUVANNAMALAI,Cheyyar MVKM Trust,A.NO.227,12.658,79.5424,"C/o.A/N.R.Ashok, Secretary, No.32/3,  Vetri Xerox, Head Post office Opp, Cheyyar-604407.",THIRUVANNAMALAI,A/N.K.Perumal,9443691344,9443168011,9047251377,-
Asia,India,TAMILNADU,THIRUVANNAMALAI,Arni Kosapalayam MVKM Trust,A.NO.242,12.67,79.28,"Thachoor Road, Anjaneyar Temple Complex, Arni - 632301. ",THIRUVANNAMALAI,A/N.Chan Bahsa,9944665477,9842329775,-,-
Asia,India,TAMILNADU,THIRUVANNAMALAI,Cheyyar Anna Nagar MVKM Trust,A.NO.333,12.6793237,79.5343503,"11/1, K.V.Raman Street, Anna Nagar, Cheyyar, Thiruvannamalai - 604407.",THIRUVANNAMALAI,A/N.N.R.Sankaralingam,9442160465,9486235646,-,-
Asia,India,TAMILNADU,THIRUVANNAMALAI,Kalambur Mvkm Trust,A.NO.334,12.6336656,79.21308194,"No.6, Mariyamman Koil Street, Kalambur - 606 903.",THIRUVANNAMALAI,"A/N.J.Saravanan,",9994533135,9790458570,9790626025,-
Asia,India,TAMILNADU,THIRUVANNAMALAI,Subanravpet Mvkm Trust,A.NO.335,12.6652219,79.2880998,"1152/3, Sri Saravana Modern Rice Mill Campus, Vellore Road, Sevoor 632 316, Arni T.K., Thiruvannamalai Dt. ",THIRUVANNAMALAI,A/N.S.Saravanaraj,9842329775,9345253929,-,-
Asia,India,TAMILNADU,THIRUVANNAMALAI,Chengam MVKM Trust,A.NO.364,12.3,78.8,"No.264 A, Rajaveedhi, Chengam - 606701. Thiruvannamalai District",THIRUVANNAMALAI,A/N.A.Krishnamoorthy ,9443885842,-,-,-
Asia,India,TAMILNADU,THIRUVANNAMALAI,Vandavasi MVKM Trust,A.NO.371,12.6652219,79.28819187,"No.20, Tha.Kishtappa Udaiyar Street, Vandavasi, Thiruvannamalai(DT) - 604408.",THIRUVANNAMALAI,A/N.S.Selvakumar,9360677722,-,-,-
Asia,India,TAMILNADU,THIRUVANNAMALAI,Thanipadi MVKM Trust,A.NO.396,12.1086378,78.8360988,"No.340, Forest Banglow Street, Thanipadi - 606 708. Thiruvannamalai District.",THIRUVANNAMALAI,A/N. A.Ragunath,9585224545,9444100046,9442177289,-
Asia,India,TAMILNADU,THIRUVANNAMALAI,Ambur Pallitheru MVKM Trust,A.NO.447,12.7903613,78.7166084,"T.O.C., Naiduhall Complex, Pallitheru Village, Umarapath Post 635 808, Ambur T.K., Vellore Dist.",THIRUVANNAMALAI,A/N.G.Venugopal,9629519073,9629519079,-,-
Asia,India,TAMILNADU,THIRUVANNAMALAI,Kalasapakkam MVKM Trust,A.NO.466,12.43751264,79.11022003,"Chinna Street, South Pallipattu Village & Post, Kalasapakkam 606 751.",THIRUVANNAMALAI,A/N.C.Ramamurthy ,9442804908,8056620762,-,-
Asia,India,TAMILNADU,THIRUVARUR,Tiruthuraipoondi MVKM Trust,A.NO.60,10.5251306,79.6361748,"569/1, Balraj Nagar, Mannai Salai, Tiruthuraipoondi - 614713.",KUMBAKONAM,A/N.S.A.T.S.Sudanthiramani,8675637437,9842340857,"04369 - 222314, 222262, 223751",-
Asia,India,TAMILNADU,THIRUVARUR,Nidamangalam MVKM Trust,A.NO.76,10.95015865,78.87578296,"4A, Keela Street, Nidamangalam - 614 404.",KUMBAKONAM,A/N.R.Krishnamoorthy,9952492722,7502931535,"9787092755, 7598411765",-
Asia,India,TAMILNADU,THIRUVARUR,Manargudi MVKM Trust,A.NO.100,10.6606199,79.453512,"Quality Furniture Palace, 114 - C, Periya Kadai St,  Kalki Building, Mannarkudi-614001.",KUMBAKONAM,A/N.R.Kailasam,9842370003,-,04367-253706,-
Asia,India,TAMILNADU,THIRUVARUR,Valangaimon MVKM Trust,A.NO.199,10.8892374,79.3950559,"No.32, Chetti Street, Valangaimon - 612804.",KUMBAKONAM,A/N.V.Rathinasabapathy,9894421065,9486934035,-,-
Asia,India,TAMILNADU,THIRUVARUR,Ullikottai MVKM Trust,A.NO.269,10.592771,79.4162448,"1/375, Main Road, Ullikottai 614 018. Mannargudi T.K., Thiruvarur Dist.",KUMBAKONAM,A/N.T.Balasaminathan,9443865677,9578157267,-,-
Asia,India,TAMILNADU,THIRUVARUR,Thiruvarur MVKM Trust,A.NO.298,10.7173564,79.5216644,"7A-2, Javulikara Street, Thiruvarur 610 001.",KUMBAKONAM,A/N.S.Muthu,9443585894,9566496915,-,-
Asia,India,TAMILNADU,THIRUVARUR,Vaduvur MVKM Trust,A.NO.322,10.7124436,79.3189354,"Arulagam, Arutperum Jothi Campus, Thatara Street, Vaduvur Via - 614019.",KUMBAKONAM,A/N.R.Sanjeevi,9444626671,9486319801,-,-
Asia,India,TAMILNADU,THIRUVARUR,Mannargudi Melaveedhi MVKM Trust,A.NO.323,10.6648689,79.4507152,"Melaveedhi Arivuthirukoil, Gopala Samuthiram Melaveedhi, Mannargudi & Post 614 001. Thiruvarur Dist.",KUMBAKONAM,A/N.Lathamaheswari,8489403959,6380957490,9750406401,-
Asia,India,TAMILNADU,THOOTHUKUDI,Kovilpatti MVKM Trust,A.NO.6,9.1804624,77.8732984,"7C-1, Arunachalampettai Street, Kovilpatti - 628 501, Thoothukudi Dist.",VIRUDHUNAGAR,A/N.Dr.S.Tamilselvi,9486890020,9443721864,-,-
Asia,India,TAMILNADU,THOOTHUKUDI,Muthu Nagar MVKM Trust,A.NO.174,8.7039972,78.1222336,"C/o. A/N. S. Perumal,  5/248, E-11,Thangamani Nagar,1st Street,  Muthaiyapuram Post,Thoothukudi - 628005.",VIRUDHUNAGAR,A/N.C.Naren Dharmaraj,9566406638,9994136765,"9443155728, 9842342873",-
Asia,India,TAMILNADU,THOOTHUKUDI,Thoothukudi  MVKM Trust,A.NO.177,8.7849243,78.1165309,"No.5/239, C-1, NGO Colony 3rd Extn, Ganesh nagar, Thoothukudi - 628008",VIRUDHUNAGAR,A/N.S.Rathinam,9443120466,9486453540,-,-
Asia,India,TAMILNADU,THOOTHUKUDI,Kovilpatti Alaguvel Nagar MVKM Trust,A.NO.303,9.1754455,77.8667271,"No.386, Main Road, Sri Raja Meera Gold 1 st Floor, Near Town Bus Stand, Kovilpatti - 628501. ",VIRUDHUNAGAR,A/N.V.R.Natarajan,9442248864,-,04632-227746,-
Asia,India,TAMILNADU,THOOTHUKUDI,Udankudi MVKM Trust,A.NO.380,8.428118548,78.02600584,"Door No.1A-18B, Puthumanai Puthu Street, Udankudi 628 203.",VIRUDHUNAGAR,A/N.S.Sathiyamoorthy,9443469201,9942938399,-,-
Asia,India,TAMILNADU,THOOTHUKUDI,Ettayapuram  MVKM Trust,A.NO.436,9.1470884,77.9995589,"5/61A, Pound Street, Ettayapuram 628 902. Thoothukudi Dist.",VIRUDHUNAGAR,A/N.J.Anusuya,9786939496,9787951577,-,-
Asia,India,TAMILNADU,TIRUNELVELI,Shencottah MVKM Trust,A.NO.23,9.036936003,77.29726183,"No.1/31, Murthi Vinayagarkoil Street, Neduvayal, Elathur Via 627 803, Shencottah Taluk, Nellai District.",THIRUNELVELI,A/N.N.Thiruvenkadam,8903487346,-,-,-
Asia,India,TAMILNADU,TIRUNELVELI,Sankarankoil MVKM Trust,A.NO.26,9.181150087,77.53696667,"Arivu Thirukoil, Ezhil Nagar East, 43/4, Thiruvudaiyan Salai 2nd Street, Sankarankoil 627 756.",THIRUNELVELI,A/N.R.Muthukirhsnan,9443544110,9442064055,-,-
Asia,India,TAMILNADU,TIRUNELVELI,Nellai MVKM Trust,A.NO.38,8.696403447,77.75364734,"9th North Street, 70, P.A. Pillai Nagar, Thiyagaraja Nagar, Tirunelveli - 627 011.",THIRUNELVELI,A/N.A.Nagarajan,9442625179,9442545781,0462-2532977,-
Asia,India,TAMILNADU,TIRUNELVELI,Palayankottai MVKM Trust,A.NO.117,8.7199105,77.7406261,"16-1, Kulasekara Alwar Street, Palayankottai, Tirunelveli - 627 002.",THIRUNELVELI,A/N.G.A.Venugopal,9443496906,9443496906,"0462-2560240, 9790541201, 9894542833",-
Asia,India,TAMILNADU,TIRUNELVELI,Thirunelveli MVKM Trust,A.NO.118,8.7207054,77.6553883,"No.94, Cheran Magadevi Road, Pettai, Thirunelveli - 627004",THIRUNELVELI,A/N.P.R Chandiran,9443507349,-,0462 - 2330093,-
Asia,India,TAMILNADU,TIRUNELVELI,Pothigai  MVKM Trust,A.NO.119,8.7271548,77.5179058,"14/15, Muthaiya Street, Sadaiyappapuram, Mukkudal - 1.",THIRUNELVELI,A/N.G.S.R.Boomibalagan,9345779118,9343717561,04634-274555,-
Asia,India,TAMILNADU,TIRUNELVELI,Courtallam MVKM Trust,A.NO.198,8.7330148,77.5301671,"Arun Illam, 47/31-A, Kamaraj Nagar, Pavoorchathiram, Tirunelveli - 627 808.",THIRUNELVELI,A/N. A.Annaamalayor,9443496949,-,-,-
Asia,India,TAMILNADU,TIRUNELVELI,Vallioor MVKM Trust,A.NO.287,8.3771142,77.6097164,"No.18,T.B.Road, Kamaraj Nagar, Vallioor - 627117.",THIRUNELVELI,A/N.A.S.Gnanasekar,9443160655,9442323203,-,-
Asia,India,TAMILNADU,TIRUNELVELI,Perumalpuram MVKM Trust,A.NO.308,8.7109497,77.7388258,"6/7, 2nd St, Perumalpuram, Tirunelveli - 627007.",THIRUNELVELI,A/N.A.Ramasamy,9366720589,-,-,-
Asia,India,TAMILNADU,TIRUNELVELI,Palayankottai Jawahar Nagar Vethalogaa  MVKM Trust,A.NO.406,8.701446076,77.73030777,"A157, N.G.O. ""A"" Colony, Tirunelveli 627 007.",THIRUNELVELI,A/N.P.Lakshmanan,9994175496,9994971294,9944167840,-
Asia,India,TAMILNADU,TIRUNELVELI,Sambavarvadakarai MVKM Trust,A.NO.412,9.4465782,77.5535243,"6-10-28, South Agraharam, Sambavarvadakarai Post, Tenkasi T.K. 627 856.",THIRUNELVELI,A/N.R.Esaki,9442331631,9994098792,04633 - 262004,-
Asia,India,TAMILNADU,TIRUNELVELI,Nellai Shreenivassa Nagar MVKM Trust,A.NO.424,8.6994513,77.7493104,"A-14/2, Thendran Nagar, Maharaja Nagar Post 527 011, Tirunelveli Dist. ",THIRUNELVELI,A/N.A.Jagadeesan,9944135485,9488668388,-,-
Asia,India,TAMILNADU,TIRUNELVELI,Alangulam MVKM Trust,A.NO.432,8.8695365,77.4839173,"No.85, Kamaraj Nagar, Alankulam - 627 851, Tirunelveli Dist.",THIRUNELVELI,A/N.R.Athithan,9944395675,9788128002,-,-
Asia,India,TAMILNADU,TIRUNELVELI,Nellai City MVKM Trust,A.NO.464,8.730529446,77.71840035,"5/2B, Parachiamman Koil Street, Vannarpettai, Tirunelveli 627 003.",THIRUNELVELI,A/N.T.Powl Raj,9842132137,9244558066,-,-
Asia,India,TAMILNADU,TIRUNELVELI,Marungoor  MVKM Trust,A.NO.506,8.169519405,77.50158438,"9/78, South Street, Marungoor 629 402. ",THIRUNELVELI,A/N.L.Nallaperumal,9245720305,7418648568,-,-
Asia,India,TAMILNADU,TIRUPUR,Dharapuram MVKM Trust,A.NO.11,10.73386788,77.52149574,"77, Anna Nagar, Dharapuram - 638 656",TIRUPUR,A/N.C.K.Chellamuthu,9842701655,-,04258-220110,-
Asia,India,TAMILNADU,TIRUPUR,Palladam MVKM Trust,A.NO.130,11.00249768,77.29816345,"Arivuthirukoil, Vinayagar Mandapam backside, Tirupur Road, Rayarpalayampudur, Palladam 641 664.",TIRUPUR,A/N.P.Saminathan,9043440550,9843360220,-,-
Asia,India,TAMILNADU,TIRUPUR,Tiruppur MVKM Trust,A.NO.132,11.0934405,77.335314,"No.26, Jothipuram, Alankadu, Karuvampalayam, Tiruppur - 641604. ",TIRUPUR,A/N.V.M.Kandasamy,8903621706,9677488688,"0421-4528330, 4355588, 9677455655",-
Asia,India,TAMILNADU,TIRUPUR,Kangeyam MVKM Trust,A.NO.172,11.0053238,77.5609843,"493/3, Arivuthirukoil, Udaiyar Colony, Covai Road, Kangeyam 638 701.",TIRUPUR,A/N.P.Palanisamy,9443312885,9442247477,04257 - 224006,-
Asia,India,TAMILNADU,TIRUPUR,Udumalai MVKM Trust,A.NO.197,10.59733959,77.24894438,"Lakshmi Nagar Bus Stop, Tiruppur Road, Eripalayam, Udumalapet 642 126.",TIRUPUR,A/N.A.Rajaram,9443216586,-,-,-
Asia,India,TAMILNADU,TIRUPUR,Dharapuram MVKM Trust,A.NO.220,10.73680545,77.52154484,"Viji illam, No. 2,  N.G.G.O. Colony, Pollachi Road, Dharapuram - 638656.",TIRUPUR,A/N.P.Rathinambal,9442988979,-,04258 - 223689,-
Asia,India,TAMILNADU,TIRUPUR,Avinashi  MVKM Trust,A.NO.233,11.17234541,77.27064658,"10/214, Mamarathottam, Kacheri Veethi, Avinashi 641 654.",TIRUPUR,A/N.P.Rajkumar,9443240177,9842726154,9842252259,-
Asia,India,TAMILNADU,TIRUPUR,Koduvai MVKM Trust,A.NO.289,10.94335304,77.43759796,"No.3/222/5, Maharishi Nagar, Nachiyarpalayam Road, Koduvai 638 660, Thirupur Dt.",TIRUPUR,A/N.K.Arulkumar,9842220222,9976468900,-,-
Asia,India,TAMILNADU,TIRUPUR,Tirupur Amarjothi Nagar MVKM Trust,A.NO.485,11.10303719,77.36631894,"21, Amarjothi Garden Ext., Kangeyam Road, Tirupur 641 604.",TIRUPUR,A/N.S.V.Easwaran,9994942602,-,0421-4355588,-
Asia,India,TAMILNADU,TIRUPUR,Tirupur Pandiyan Nagar MVKM Trust,A.NO.486,11.16458439,77.34948182,"8/1467-B, R.S.Puram 1st Veethi, P.N. Road,  Pandiyan Nagar, Tirupur 641 602.",TIRUPUR,A/N.A.Muthukumar,9003948642,9443761308,0421-6957777,-
Asia,India,TAMILNADU,TIRUPUR,Tirupur 15 Velampalayam MVKM Trust,A.NO.487,11.14391897,77.30479901,"Valluvar Thottam, Swarnapuri Avenue, 15 Velampalayam 641 652. Tirupur Dist.",TIRUPUR,A/N. K.M.Natarajan,9150505024,9150505025,9487140644,-
Asia,India,TAMILNADU,TIRUPUR,Tirupur Samundipuram MVKM Trust,A.NO.488,11.10134379,77.34812171,"1, Poonthottam, Murungampalayam West, Avinashi Road, Tirupur 641 603.",TIRUPUR,T/S.S.Nataraj,9842225875,9361129295,-,-
Asia,India,TAMILNADU,TIRUPUR,Kunnathur MVKM Trust,A.NO.491,11.28226963,77.34164847,"Malayapalayam Road, Perumal Koil Near, Kunnathur 638 103.",TIRUPUR,A/N.O.R.Palaniswamy,9842763570,9524485047,-,-
Asia,India,TAMILNADU,TIRUPUR,Tirupur Karuvampalayam MVKM Trust,A.NO.492,11.09899756,77.3404976,"No.26, Jothipuram, Alankadu, Karuvampalayam, Tiruppur 641 604.",TIRUPUR,A/N.S.Murugasamy,9865731699,9842272448,-,-
Asia,India,TAMILNADU,TIRUPUR,Uthukuli  MVKM Trust,A.NO.493,11.17543963,77.44851644,"Kathithamalai Pathai, Uthukuli 638 751.",TIRUPUR,A/N.S.Appusamy,9443944850,9443454788,-,-
Asia,India,TAMILNADU,TIRUPUR,Vavipalayam MVKM Trust,A.NO.494,11.16067029,77.38377184,"Opp. to Agricultural Co-operative Society, Neruperichal Post 641 602. Vavipalayam, Tirupur Dist.",TIRUPUR,A/N.T.R.Mohann,9843038241,9786600525,9442470234,-
Asia,India,TAMILNADU,TIRUPUR,Perumanallur MVKM Trust,A.NO.499,11.2053175,77.3542582,"C/o.A/N.R.Saravanan, Secretary, 183, S.S. Nagar, 3rd Veedhi, Perumanallur 641 666.",TIRUPUR,Dr.A/N.V.Govindarajan,9894758149,9677936130,-,-
Asia,India,TAMILNADU,TIRUPUR,Muthur MVKM Trust,A.NO.515,11.21738491,78.25228392,"91D, Perumalputhur, Muthur, Muthur Panchayat 638 105, Thiruppur Dist.",TIRUPUR,A/N.S.Kuppusamy,9842955498,9842692029,-,-
Asia,India,TAMILNADU,TRICHY,Trichirappalli MVKM Trust,A.NO.75,10.8306293,78.6960045,"1st Street (West), V.N.Nagar, Chinthamani, Trichy 620 002.",TRICHY,A/N.R.S.Jambu Lingam,9443531522,9443125509,0431-2707050,-
Asia,India,TAMILNADU,TRICHY,Manachanallur MVKM Trust,A.NO.121,10.907778,78.702222,"No.19, Ankalamman Koil Street, Manachanallur T.K, Tiruchy 621 005.",TRICHY,A/N.N.Thiagarajan,9965737969,9843989871,9842490961,-
Asia,India,TAMILNADU,TRICHY,Bhel MVKM Trust,A.NO.127,10.804558,78.7396413,"Vethathiri Nagar, Balaji Nagar Bus Stop, Kattur Post, Trichy 620 019. ",TRICHY,A/N.S.Balasubramaniam,9003575407,8220041202,-,-
Asia,India,TAMILNADU,TRICHY,Musiri MVKM Trust,A.NO.141,10.983455,78.5618799,"5, Cauvery Nagar, Bye Pass - T.Pet Road, Musiri  621 211, Tiruchy Dist.",TRICHY,A/N.M.Pathmavathi,9788066261,9750411745,9486753097,-
Asia,India,TAMILNADU,TRICHY,Manaparai  MVKM Trust,A.NO.195,10.5086096,78.6304128,"262, Indira Nagar, Manapparai 621 306.",TRICHY,A/N.A.Varadharajan,9543435535,9442242607,       04332-260001,-
Asia,India,TAMILNADU,TRICHY,Thuraiyur MVKM Trust,A.NO.267,11.2953768,78.4971438,"No.1284K, Chithiraipatti Village, Madurapuri Post, Musiri Road, Thuraiyur 621 010, Tiruchy Dist.",TRICHY,A/N.K.Sivanandhamurthy,9585194282,9994397967,9443444865,-
Asia,India,TAMILNADU,TRICHY,Srirangam MVKM Trust,A.NO.277,10.8658734,78.6488324,"No.3A/1, Railway station Road, Srirangam - 620006. ",TRICHY,A/N.Veenai.S.Sivakumar,8903300448,-,"0431-2433823, 2431275",-
Asia,India,TAMILNADU,TRICHY,Samayapuram MVKM Trust,A.NO.369,10.9229564,78.7405357,"No.15, Marriamman High School Road, Samayapuram Post, Tiruchy Dt - 621 112.",TRICHY,A/N.R.Kalaiselvi,9865717394,9442314604,-,-
Asia,India,TAMILNADU,TRICHY,Tiruchirappalli Ponmalaipatti  MVKM Trust,A.NO.451,10.7708054,78.7180027,"No.50, Udayar Main Road, Ponnmalaipatti, Tiruchi 620 004.",TRICHY,A/N.R.Sekar,9443840246,9442894629,7200933042,-
Asia,India,TAMILNADU,TRICHY,Tiruchirappalli Rockcity MVKM Trust,A.NO.453,10.8083793,78.64705735,"No.86, Chinna Chetty Street, Vazhga Valamudan Illam, Trichy 620 008.",TRICHY,A/N.V.Sureshkumar,9443591010,9788038395,9442868323,-
Asia,India,TAMILNADU,TRICHY,Tiruchirappalli K.K.Nagar MVKM Trust,A.NO.458,10.76399245,78.67679851,"No.6, Cholan Salai, Iyyappa Nagar, Tiruchi 620 021.",TRICHY,A/N.R.Subramanian,9942185516,8056528622,-,-
Asia,India,TAMILNADU,TRICHY,Trichi Anna Nagar MVKM Trust,A.NO.500,10.75972772,78.7043033,"M9, Phase-I, Anna Nagar, Tiruchi - 620 026.",TRICHY,A/N. S.Kalidasan,9443711891,9443661646,986546561,-
Asia,India,TAMILNADU,VELLORE,Gudiyattam MVKM Trust,A.NO.12,12.7470314,78.3330157,"1/16, Amannag Kuppam Rice Mill, Pajanai Koil Street, Gudiyattam (R.S), Gudiyattam  635 803",THIRUVANNAMALAI,A/N. A. Shanmugam,9442514580,9443635011,-,-
Asia,India,TAMILNADU,VELLORE,Vellore MVKM Trust,A.NO.24,12.94697263,79.13826788,"No.32, 6th West Cross Road, Gandhi Nagar, Vellore - 632006.",THIRUVANNAMALAI,A/N.P.Parameswari,9865620781,9787736002,9042327122,-
Asia,India,TAMILNADU,VELLORE,Sathuvachary MVKM Trust,A.NO.30,12.94221106,79.19203764,"No.22, Kurinchi Nagar, Sathuvachari, Vellore - 632009.",THIRUVANNAMALAI,"A/N. A. Venkatesan, ",9790099369,9790099366,-,-
Asia,India,TAMILNADU,VELLORE,Alangayam MVKM Trust,A.NO.105,12.6256394,78.75253195,"Sri.Venkateswara Fancy  Hall, Cloth Merchant, 154 - Gandhi Road, Alangayam - 635701.",THIRUVANNAMALAI,A/N.S.S.K.Babu,9360671067,-,265649,-
Asia,India,TAMILNADU,VELLORE,Vellore Sankaranpalayam MVKM  Trust,A.NO.226,12.8932703,79.1293028,"2/17, Kambar Street, Ezhil Nagar, Thorappadi Post, Vellore 632 002.",THIRUVANNAMALAI,A/N.R.Aruljothi,9443437830,-,-,-
Asia,India,TAMILNADU,VELLORE,Sathiya Nagar MVKM Trust,A.NO.250,12.955243,79.1412823,"452, O.C. Perumal Nagar, Gandhi Nagar Post, Vellore 632 006.",THIRUVANNAMALAI,A/N. K. Sankaranandhan,9345318692,9944510430,0416-2249060,-
Asia,India,TAMILNADU,VELLORE,Sholinghur MVKM Trust,A.NO.259,13.1158121,79.4224221,"C/o.A/N.N.Chidambaram, No.59, Senghunthar Big Street, Solingar & P.O - 631102.",THIRUVANNAMALAI,A/N.V.Krishnan,9443965069,9843706695,9843228629,-
Asia,India,TAMILNADU,VELLORE,Vellore Sakthi Nagar MVKM Trust,A.NO.266,12.943333,79.165278,"Opp. A.L-7, Bharathi Nagar 1st Street, Phase III, Vallalar Sathuvachari, Vellore 632 009.",THIRUVANNAMALAI,A/N.K.Chandran,9443098990,9500330700,9994746986,-
Asia,India,TAMILNADU,VELLORE,Katpadi MVKM Trust,A.NO.294,10.4712297,79.5752867,"Saravanabalaj Constraction, No.31.V.A.F.Complex (2 Floor),  Cithur main road, Katpadi, Vellore - 632007",THIRUVANNAMALAI,A/N.S.Manokaran,9443800057,-,-,-
Asia,India,TAMILNADU,VELLORE,Rasimalai MVKM Trust,A.NO.461,12.9115027,79.1336413,"No.98, Avalkara Street, Kosappettai, Vellore 632 001.",THIRUVANNAMALAI,A/N.R.Srinivasan,9894421254,9443210152,-,-
Asia,India,TAMILNADU,VELLORE,Jothipuram Paranji MVKM Trust,A.NO.503,13.09434632,79.52496977,"Plot No.911/5, Jothipuram, (Near Kalaimagal School), Arakonam Taluk, Vellore Dist 632 510.",THIRUVALLUR,A/N.G.Santhanam,8124086924,9655841103,-,-
Asia,India,TAMILNADU,VILLUPPURAM,Villupuram MVKM Trust,A.NO.136,11.94376483,79.48303772,"No.11, Advocate Nagar, Vandimedu, Villupuram - 605 602.",VILLUPURAM,A/N.V.Vivekanandan,9842097749,9443537921,"04146-250749, 9486282160",-
Asia,India,TAMILNADU,VILLUPPURAM,Gingee  MVKM Trust,A.NO.170,12.2524408,79.4113072,"No.1D, Vasudevan Street, Periyagaram, Gingee 604 202. ",VILLUPURAM,A/N.K.Balu,9486515239,9488526713,9486150017,-
Asia,India,TAMILNADU,VILLUPPURAM,Tirukovilur MVKM Trust,A.NO.273,11.9687124,79.2086621,"Sri Gnanantha School Campus, Mela veedhi, Thirukovilur - 605757.",VILLUPURAM,A/N.Andal Sekhar,9542752667,-,-,-
Asia,India,TAMILNADU,VILLUPPURAM,Tindivanam MVKM Trust,A.NO.276,12.249181,79.218248,"No.139, Prakasapuram, Mannar Samy Koil, Tindivanam - 604002.",VILLUPURAM,A/N.R.Asaithambi,9443422408,-,-,-
Asia,India,TAMILNADU,VILLUPPURAM,Moongilthuraipattu MVKM Trust,A.NO.327,12.9867957,80.260835,"3/6, Pillayar Koil St, Kamaraj Nagar, Moongilthuraipattu - 605702. ",VILLUPURAM,A/N.M.Jagadeesan,9943115711,9942445998,"9976530013, 9442867977",-
Asia,India,TAMILNADU,VILLUPPURAM,Nallanpillaipetral MVKM Trust,A.NO.430 (Post only),11.9539016,79.487898,"5/45, Bank Street, Nallampillai Petrol Post 604 152, Chenjee T.K., Villupuram Dist.",VILLUPURAM,A/N.G.Arulalan,8838703842,9500449598,9444848220,-
Asia,India,TAMILNADU,VILLUPPURAM,Villupuram Salamedu NGGO Colony MVKM Trust,A.NO.450,10.9802672,76.98887911,"No.80, Imayam Veedhi, N.G.G.O. Colony, Salamedu, Villupuram 605 602.",VILLUPURAM,A/N.P.Natarajan,9597814495,9486389510,-,-
Asia,India,TAMILNADU,VIRUTHUNAGAR,Rajapalayam MVKM Trust,A.NO.21,9.44704666,77.55256806,"25/D5, Kuppusami Raja Street, Rajapalayam - 626117",VIRUDHUNAGAR,A/S.P.D.Kasiwisvanatha Raja,9894013317,9443419190,-,-
Asia,India,TAMILNADU,VIRUTHUNAGAR,Aruppukottai MVKM Trust,A.NO.39,9.50711351,78.09062876,"Sappai Ramasamy Street, South Street, Aruppukottai 626 101.",VIRUDHUNAGAR,A/N.R.Jothimani,9486569340,6383657013,-,-
Asia,India,TAMILNADU,VIRUTHUNAGAR,Srivilliputhur MVKM Trust,A.NO.55,9.507948,77.6299182,"50, P.P. Mela Mada St, Srivilliputhur - 626125.",VIRUDHUNAGAR,A/N.SR.Sarvajit ,9842960950,9976892235,-,-
Asia,India,TAMILNADU,VIRUTHUNAGAR,Virudunagar MVKM Trust,A.NO.191,9.574156,77.960239,"5/736, Nethaji Street, NGO Colony West, Madurai Road, Virudunagar 626 001.",VIRUDHUNAGAR,A/N.K.Ramanathan,9751448248,9487599807,9092427487,-
Asia,India,TAMILNADU,VIRUTHUNAGAR,Sathur MVKM Trust,A.NO.206,9.3644204,77.9110321,"11/25, Murugam Koil North Mada St, Sathur - 626203. ",VIRUDHUNAGAR,A/N.M.Rajasudalaimuthu,9442060592,-,04562 - 260077,-
Asia,India,TAMILNADU,VIRUTHUNAGAR,Mamsapuram MVKM Trust,A.NO.367,9.499483434,77.58698132,"6, Chinnasamy Pillai Street, Mamsapuram 626 110, Srivilliputhur T.K., Virudhu Nagar Dt.",VIRUDHUNAGAR,A/N.S.Pechikkalai,9486361351,-,-,-
Asia,India,TAMILNADU,VIRUTHUNAGAR,Sivakasi V.M. MVKM Trust,A.NO.431,9.583333,77.95,"No.953, E/A1-Gnanagiri Road, National Colony, Backside of Suruthi Vidhyodhaya School, Sivakasi 626 189,Virudhu Nagar Dist.",VIRUDHUNAGAR,A/N.R.Chandramohan,9443125703,9443324173,9994796599,-
Asia,India,TELANGANA,HYDERABAD,Hyderabad SKY Trust,A.NO.181,17.35229353,78.55558509,"Flat no:103,Second floor, Madhuban Residency, R T C colony,road no-1, L B Nagar, Hyderabad, Telangana State, India. (Land Mark:First left lane ,near Abhinanda Grand opp/- Kamineni hospital)",TELANGANA,Prof. M. Kalpana,9177393225,9848144487,-,an.a181@vethathiri.edu.in
Asia,India,TELANGANA,SECUNDERABAD,Secunderabad  SKY Trust,A.NO.443,17.4255825,78.4352242,"Plot No.14, Road No.2, 8-6-52/42, Venkataramana Colony, Vanesthilipuram Hyderabad 500 070.",TELANGANA,A/N.S.Sivanageswara Rao,9441232930,9440524386,-,sekhinamsivanageswararao@gmail.com
Asia,India,WEST BENGAL,KOLKATA,Kolkata SKY Trust,A.NO.314,22.480823,88.284102,"E - 18/1, Sarsuna Housing, Phase - I, Ketapole, Kolkata - 700061.",KOLKATTA,Mrs.Saraswathy Jayaram,9433791217,9433399904,8691400192,-
Asia,Japan,JAPAN,Omihachiman shi,SKY Tokyo,unknown,136.1141742,35.1190696,"Shiga - 523-0815, Omihachiman shi, Wakaba cho3Chome 1796-9,",,-,-,-,-,-
Asia,Kuwait,KUWAIT,ABBASIYA,Abbasiya SKY Meditation Centre - Kuwait,unknown,47.48197204,29.31166,Kuwait,,-,-,-,-,-
Asia,Kuwait,KUWAIT,FAHAHEEL,Fahaheel SKY Meditation Centre - Kuwait,unknown,48.1334643,29.083128,Kuwait,,-,-,-,-,-
Asia,Kuwait,KUWAIT,KUWAIT CITY,SKY Kuwait,unknown,47.481766,29.31166,Kuwait,,-,-,-,-,-
Asia,Kuwait,KUWAIT,MANGAF,Mangaf SKY Meditation Center - Kuwait,unknown,47.48197204,29.31166,Kuwait,,-,-,-,-,-
Asia,Kuwait,KUWAIT,SALMIYA,Salmiya SKY Meditation Centre - Kuwait,unknown,47.48186902,29.31166,Kuwait,,-,-,-,-,-
Asia,Malaysia,MALAYSIA,BATU CAVES,"SKY Human Excellence Batu Caves (Batu Caves, KL)",unknown,101.6729053,3.2337064,"C/O Munieswarar Temple, Kenneison Brothers Jalan Railway 68100 Batu Caves, Malaysia",,-,-,-,-,-
Asia,Malaysia,MALAYSIA,DICKSON,SKY Meditation Centre Port Dickson (Port Dickson),unknown,101.8304534,2.5163293,"No.2590, Taman P.D Utama 71000 Port, Dickson, Malaysia.",,-,-,-,-,-
Asia,Malaysia,MALAYSIA,IPOH,Vethathiri Manavalakalai Sangam,unknown,101.0617635,4.6025717,"o.44, Jalan NG Wang Hup Taman Pertama, IPOH.",,-,-,-,-,-
Asia,Malaysia,MALAYSIA,JOHOR,Bukit Indah SKY Meditation Sub centre,unknown,103.6502879,1.479663,"No 27 Jalan Indah, 10/1 Taman Bukit indah. Malaysia",,-,-,-,-,-
Asia,Malaysia,MALAYSIA,JOHOR,Danga utama SKY Meditation Sub centre,unknown,103.6882663,1.4714314,"No:17 - 02, 3rd floor, Jalan Permata 4 Purat Perdangangau, Danga utama, 81300, Johor Baru, Malaysia",,-,-,-,-,-
Asia,Malaysia,MALAYSIA,JOHOR,Persatuan Meditasi SKY Malaysia,unknown,103.3118824,2.0106712,"No.24, Jalan 13, Taman Seri Jaya, 86000 Kluang, Johor, Malaysia.",,-,-,-,-,-
Asia,Malaysia,MALAYSIA,JOHOR,SKY Kulai,unknown,103.6225985,1.6233533,"1853, Jalan Jambu 25,Taman Muhibbah, Saleng, 81400 Senai, Kulai, Johor, Malaysia",,-,-,-,-,-
Asia,Malaysia,MALAYSIA,JOHOR,"SKY Meditation Centre, J.B.",unknown,103.7515276,1.4855222,"No.7-20, Jalan Dato Jaafar 1, Taman Dato, Onn Impian Business Park 80350, Johor.",,-,-,-,-,-
Asia,Malaysia,MALAYSIA,JOHOR,Vethathiri Maharishi Meditation Society,unknown,103.3218363,2.0050357,"No.4, 1st Floor, Jalan Hang Tuah 4/1, Taman Muhibbah, 86000, Kluang, Johor, Malaysia",,-,-,-,-,-
Asia,Malaysia,MALAYSIA,KLANG,"SKY Meditation Centre, Klang",unknown,101.4634686,3.0030681,"No.35, Lorong Dato Dagang Soc Sentosa, Klang.",,-,-,-,-,-
Asia,Malaysia,MALAYSIA,KUALA LUMPUR,"Ayappan Centre (Batu Caves) (Gombak - Batu Caves, KL)",unknown,101.6897555,3.219588,"No.37, Jalan 53/10, Taman Koperasi Polis 2, Batu Caves, KL, Malaysia",,-,-,-,-,-
Asia,Malaysia,MALAYSIA,KUALA LUMPUR,Brickfields SKY Centre,unknown,101.6932116,3.1338589,"Kalamandapam (Small Hall), Jalan Scot, Brickfields, Kuala Lumpur, Malaysia.",,-,-,-,-,-
Asia,Malaysia,MALAYSIA,KUALA LUMPUR,SKY Centre - Malaysia,unknown,101.7444374,3.1130174,"No.11A, Jalan Perdana, 6/4, Taman Pandan Perdana, Cheras - 55300, Kuala Lumpur, Malaysia.",,-,-,-,-,-
Asia,Malaysia,MALAYSIA,KULIM,Kulim SKY Meditation Sub Centre,unknown,101.7444374,3.1130174,"Persatuan, Telugu Sangam Kulim, 1st Floor (Opp to mini Stadium) Keladi, Kulim Kedah, Malaysia",,-,-,-,-,-
Asia,Malaysia,MALAYSIA,PERAK,R.M. Yoga Meditation Centre - IPOH,unknown,101.0901991,4.5921126,"No.68, Jalan Tun Abdul Razak 30100, IPOH, Perak, Malaysia.",,-,-,-,-,-
Asia,Malaysia,MALAYSIA,PERAK,SKY Meditation Centre - Buntong (IPOH),unknown,101.042109,4.5924766,"Vallalar Anbu nilayam, No:3, Laluan Buntong Jaya 19, RPT Sesa Rishah Cbuntong 5 Buntong, Ipoh 3100, Perak, Malaysia",,-,-,-,-,-
Asia,Malaysia,MALAYSIA,PERAK,Yogi Vethathiri Maharishi Meditation and Spiritual Association of Malaysia,unknown,101.1536009,4.6658387,"No.11-A Laluan Sungai Choh - 7, Taman Berjaya Tanjong Rambutan, IPOH, Perak, Malaysia.",,-,-,-,-,-
Asia,Malaysia,MALAYSIA,SELANGOR,"Aanmiegam SKY Meditation Centre (Puchong, Selangor)",unknown,101.640232,3.059192,"K-02-06, Jalan PPK2, Kinrara Town Centre, Taman Kinrara Sek 3, 47100 Puchong, Selangor, Malaysia",,-,-,-,-,-
Asia,Malaysia,MALAYSIA,SELANGOR,Anggerik SKY Meditation Centre,unknown,101.5684389,3.4303783,"No.32, Jln. Anggerik 1B, Sek BB4, Bandar Bukit Beruntung, 48300 Rawang, Selangor, Malaysia",,-,-,-,-,-
Asia,Malaysia,MALAYSIA,SELANGOR,Banting SKY Centre,unknown,101.5301488,2.8225436,"No.22 Jalan Emas 26, Bandar Sungai Emas, Banting, Selngor - 42700, Malaysia",,-,-,-,-,-
Asia,Malaysia,MALAYSIA,SELANGOR,"Pertubuhan Pengamal Meditasi Vethathiri Dan Yoga Semenyih, Selangor",unknown,101.8605752,2.9257631,"No.34, Jalan 5/12, Bandar Rinching - 43500 Semenyih, Selangor, Malaysia.",,-,-,-,-,-
Asia,Malaysia,MALAYSIA,SELANGOR,Rawang SKY Meditation Sub Centre,unknown,101.5580293,3.4043167,"C6/1, Jalan Rawang Mutiara 2, Mutiara Bussiness Park, Rawang, Selangor, Malaysia",,-,-,-,-,-
Asia,Malaysia,MALAYSIA,SELANGOR,SKY Living Science Centre Malaysia,unknown,101.5724828,3.4004824,"20, Jalan Daisi 3, Bukit Sentosa, 48300 Rawang, Selangor, Malaysia",,-,-,-,-,-
Asia,Malaysia,MALAYSIA,SELANGOR,SKY Puchong Centre,unknown,101.618802,3.0327152,"Puchong, Selangor, Malaysia",,-,-,-,-,-
Asia,Malaysia,MALAYSIA,SEREMBAN,Pertubuhan Penganut Vethathiri Sky Manavalakalai Seremban Malaysia,unknown,101.9201151,2.7152026,"C-8-3, Jalan Dataran Sentral 3, Dataran Sentral, Tingkat, 70200 Seremaban, Negeri Sembilan Darul Khusus, Malaysia",,-,-,-,-,-
Asia,Nepal,NEPAL,KATHMANDU,SKY Centre - Nepal,unknown,85.2774207,27.6630019,"Kirtipur, Kathmandu, Nepal",,-,-,-,-,-
Europe,Netherlands,NETHERLANDS,AMSTERDAM,Netherlands SKY Centre,unknown,5.291266,52.132633,Netherlands,,-,-,-,-,-
Europe,Norway,NORWAY,OSLO,SKY OSLO,unknown,10.8673567,59.9580697,"Norges Hindu Kultur Senter, 1st floor, (Oslo Sivasubramaniyar Temple Building), Martinsstrandlis vei 10, 0956 OSLO, Norway",,-,-,-,-,-
Europe,Norway,NORWAY,STAVANGER,SKY Stavanger,unknown,8.468946,60.472024,"Springarstien 61, 4021 Stavanger, Norway.",,-,-,-,-,-
Asia,Oman,OMAN,MUSCAT,SKY Muscat,unknown,58.3828717,23.5880307,"Muscat, Sulatanate of Oman",,-,-,-,-,-
Asia,Oman,OMAN,MUSCAT,SKY Sohar,unknown,56.7133258,24.3500672,"Sohar, Sultanate of Oman",,-,-,-,-,-
Asia,Qatar,QATAR,AL KHOR,Khor SKY Meditation Centre,unknown,51.5329197,25.7154451,"Al Khor Community, Qatar",,-,-,-,-,-
Asia,Qatar,QATAR,DOHA,Qatar SKY Centre,unknown,51.5678608,25.2324001,"Indian Club, Al Fadaill St, Doha Qatar",,-,-,-,-,-
Asia,Singapore,SINGAPORE,SINGAPORE,Arasa Kesari Sivan Temple,unknown,103.75483,1.40609,"No.25, Sungai Kadut Ave, Singapore - 729 679. Nearest MRT: Kranji",,-,-,-,-,-
Asia,Singapore,SINGAPORE,SINGAPORE,Arulmigu Velmurugan Gnana Muneeswarar Temple,unknown,1.3521,103.8198,"No.50, Rivervale Crescent (Senkang), Singapore - 545 029. Nearest LRT: Bakau",,-,-,-,-,-
Asia,Singapore,SINGAPORE,SINGAPORE,Bukit Batok Civil Service Club,unknown,103.8200157,1.352083,"No.91, Bukit Batok West Ave 2, Singapore.",,-,-,-,-,-
Asia,Singapore,SINGAPORE,SINGAPORE,Derma Muneeswaran Temple,unknown,1.3521,103.8198,"Serangoon North Ave 1, Singapore.",,-,-,-,-,-
Asia,Singapore,SINGAPORE,SINGAPORE,Hwi Yoh Community Club,unknown,103.8201056,1.352083,"Serangoon North Ave 3, Singapore",,-,-,-,-,-
Asia,Singapore,SINGAPORE,SINGAPORE,Jurong Green Community Centre,unknown,103.737082,1.339876,"No.90, Boon Lay, Singapore - 649 520",,-,-,-,-,-
Asia,Singapore,SINGAPORE,SINGAPORE,Simplified Kundalini Yoga Society,unknown,103.854459,1.3186014,"No.101, Balestier Road, Singapore - 329 678.",,-,-,-,-,-
Asia,Singapore,SINGAPORE,SINGAPORE,Singapore Tamil Teachers,unknown,1.3521,103.8198,Singapore.,,-,-,-,-,-
Asia,Singapore,SINGAPORE,SINGAPORE,SKY Meditation Centre - Singapore (Amma Centre),unknown,103.8201056,1.352083,"3 Hindoo Road, Opp. to Broadway Hotel, Serangoon Road, Singapore - 209 106.",,-,-,-,-,-
Asia,Singapore,SINGAPORE,SINGAPORE,Sri Muneeswaran Temple,unknown,103.7983157,1.3023957,"No.3, Common Wealth Drive, Singapore - 149 594. Nearest MRT: Common Wealth -",,-,-,-,-,-
Asia,Singapore,SINGAPORE,SINGAPORE,Sri Ruthra Kaliamman Temple,unknown,1.3521,103.8198,"No.100 Depot Road, Singapore.",,-,-,-,-,-
Asia,Singapore,SINGAPORE,SINGAPORE,Supreme Kundalini Yoga Society,unknown,103.8199259,1.352083,"No.2, Kampong Kapor Road,(Singai Tamil Sangam) Singapore - 208 674.",,-,-,-,-,-
Asia,Singapore,SINGAPORE,SINGAPORE,Vethathiri Maharishi Simplified Kundalini Yoga,unknown,103.8678744,1.3301048,"53A, Woodsville Close, Potong Pasir, Singapore - 357 788.",,-,-,-,-,-
Asia,Srilanka,SRILANKA,BATTICALOA,Batticoloa SKY Sub Centre,unknown,81.7122953,7.7048747,"Pillayar Kovil Road, Kalladi, Batticoloa.",,-,-,-,-,-
Asia,Srilanka,SRILANKA,COLOMBO,36th Lane SKY Sub Centre,unknown,79.8604924,6.8690777,"36th Lane, Srilanka",,-,-,-,-,-
Asia,Srilanka,SRILANKA,COLOMBO,Modera SKY Sub Centre,unknown,79.8622253,6.9623593,"74, Delasalle Street, Modera, Colombo - 15.",,-,-,-,-,-
Asia,Srilanka,SRILANKA,COLOMBO,New Chetty Street SKY Sub Centre,unknown,79.8596967,6.9456034,"93, New Chetty Street, Kotahena, Colombo - 13.",,-,-,-,-,-
Asia,Srilanka,SRILANKA,COLOMBO,"Sri Lanka SKY Trust - Wellawatte, Colombo",unknown,79.8611942,6.8656825,"No.53/1A, Ramakrishna Road, Colombo - 6.",,-,-,-,-,-
Asia,Srilanka,SRILANKA,COLOMBO,Viveka SKY Sub Centre,unknown,79.8592257,6.9424706,"Vivekananda Hall, Colombo - 13. Kotahena, Colombo - 13.",,-,-,-,-,-
Asia,Srilanka,SRILANKA,COLOMBO,Wasala Road SKY Sub Centre,unknown,79.8615798,6.9508053,"33/8, Janatha MW Place, Kotahena, Colombo - 13.",,-,-,-,-,-
Asia,Srilanka,SRILANKA,HATTON,Hatton SKY Meditation Centre,unknown,-87.415301,34.5628707,"4/21, 1/1, Pansala Road, Hatton.",,-,-,-,-,-
Asia,Srilanka,SRILANKA,JAFFNA,Temple Road SKY Sub Centre,unknown,80.02572875,9.6614981,"14/4, 1st Lane, Temple Road, Jaffna.",,-,-,-,-,-
Asia,Srilanka,SRILANKA,JAFFNA,Thirunelvy SKY Sub Centre,unknown,80.02563762,9.6614981,"12, Siva School Lane, Thirunelvy Road, Jaffna.",,-,-,-,-,-
Asia,Srilanka,SRILANKA,JAFFNA,Vannarpannai SKY Meditation Centre,unknown,80.0255465,9.6614981,"3/8, Kesaavil 1st Lane, Vannaarpannai, Jaffna.",,-,-,-,-,-
Asia,Srilanka,SRILANKA,KODIKAMAM,Vellampokkatti SKY Sub Centre,unknown,80.2276774,9.6759447,"Vellampokkaddy, Kodikamam.",,-,-,-,-,-
Asia,Srilanka,SRILANKA,NAWALAPITIYA,Nawalapitiya SKY Sub Centre,unknown,80.5160608,7.0447008,"8V, Theater Road, Nawalapitiya.",,-,-,-,-,-
Asia,Srilanka,SRILANKA,VAVUNIYA,Vavuniya SKY Meditation Centre,unknown,80.3420488,8.7530552,"Kaliyamman Thevasthana Thiyana Mandapam, Mannar Road, Vavuniya.",,-,-,-,-,-
Asia,Srilanka,SRILANKA,WATTALA,Wattala SKY Sub Centre,unknown,79.8816366,6.9830295,"96B, Hekkitha Road, Wattala.",,-,-,-,-,-
Europe,SWITZERLAND,ZURICH,BAHNHALDENSTRASSE,SKY Zurich,unknown,8.5466331,47.418987,"K.R.Center Bahnhaldenstrasse 5,8052 Zrich",,-,-,-,-,-
Asia,Thailand,THAILAND,BANGKOK,Bangkok SKY Meditation Centre,unknown,100.5687356,13.7322264,"Room No.456/ 20th Floor, Ideo Condo, Soi- 115, Sukhumvit Road, Near Pho Chao BTS Station, Bangkok, Thailand",,-,-,-,-,-
Europe,UK,UK,LONDON - HARROW,UK SKY Meditation Centre Harrow,unknown,-0.3512096,51.5865673,74 Pinner View Harrow HA1 4QF United Kingdom,,-,-,-,-,-
Europe,UK,UK,LONDON - ILFORD,EAST LONDON - Ilford SKY Centre,unknown,0.0805194,51.5633396,"Vinayager Temple, 299-303 Ley Street, Ilford IG1 4BN.",,-,-,-,-,-
Europe,UK,UK,LONDON - MIDDLESEX,SKY Trust UK,unknown,-0.331853,51.5823645,"Victoria Hall, Sheepcote Road, Harrow, Middlesex HA1 2JE, United Kingdom.",,-,-,-,-,-
North America,USA,CALIFORNIA,BERKELEY,SKY Meditation Centre - Bay Area,unknown,-122.273042,37.8715226,Berkeley CA,,-,-,-,-,-
North America,USA,CALIFORNIA,CUPERTINO,Cupertino SKY Sub Center (SKYBayArea),unknown,-122.0322,37.323,Cupertino CA 95014,,-,-,-,-,-
North America,USA,CALIFORNIA,FREMONT,Fremont Meditation Centre,unknown,-121.9524857,37.5197328,"Fremont Hindu Temple - Saraswathi, 3676 Delaware Dr, Fremont, CA, USA 94538.",,-,-,-,-,-
North America,USA,CALIFORNIA,LOS ANGELES,LOS ANGELS SKY Meditation Centre (SOCAL SKY IRVINE),unknown,-117.85077,33.69293,"Mandir, 1732 Reynolds Ave Irvine, CA 92614.",,-,-,-,-,-
North America,USA,CALIFORNIA,MILPITAS,Milpitas SKY Sub Center (SKYBayArea),unknown,-121.9182437,37.4463348,1221 California Circle Milpitas CA 95035,,-,-,-,-,-
North America,USA,CALIFORNIA,PLEASANTON,Pleasanton SKY Sub Center (SKYBayArea),unknown,-117.77137,33.70105,Pleasanton CA 94566,,-,-,-,-,-
North America,USA,CALIFORNIA,SAN RAMON,San Ramon Meditation Centre,unknown,-121.9822796,37.7864377,"Sri Datta Sai Mandir, 1901 San Ramon Valley Blvd, San Ramon, CA-94583 USA.",,-,-,-,-,-
North America,USA,CALIFORNIA,SUNNYVALE,Sunnyvale SKY Sub Center (SKYBayArea),unknown,-122.0781663,37.4062237,SunnyVale CA 94043,,-,-,-,-,-
North America,USA,COLORADO,CENTENNIAL,Denver SKY Meditation Centre - Colorado (USA - West),unknown,-104.807304,39.607436,"5979 S Helena Ct, Centennial, CO 80016.",,-,-,-,-,-
North America,USA,COLORADO,SACRAMENTO,Sacramento Meditation Centre,unknown,-121.4944,33.70105,-,,-,-,-,-,-
North America,USA,FLORIDA,MIRAMAR,South Florida SKY Meditation Centre,unknown,-80.3573171,25.9594714,15671 SW 53rd St Miramar FL 33027,,-,-,-,-,-
North America,USA,GEORGIA,CUMMING,Atlanta SKY Meditation Center,unknown,-84.1820245,34.1139903,"2215 Manor View Cumming, GA, 30041",,-,-,-,-,-
North America,USA,ILLINOIS,VERNON HILLS,Chicago SKY Meditation Center,unknown,-87.9643767,42.2352329,"502 Arlington Ct, Vernon Hills, IL, 60061",,-,-,-,-,-
North America,USA,MARYLAND,ELLICOT CITY,Ellicott City SKY Center,unknown,-76.7983067,39.2673283,"Ellicot City, MD, 2141",,-,-,-,-,-
North America,USA,MASSACHUSETTS,NORWOOD,Norwood SKY Center,unknown,-71.2042619,42.1772198,"Noorwood, MA, 2062",,-,-,-,-,-
North America,USA,MICHIGAN,DETROIT,Detroit Meditation Sub Centre,unknown,-83.2827093,42.3446054,Detroit MI 48127,,-,-,-,-,-
North America,USA,MISSOURI,BALLWIN,"SKY Meditation Center, St.Louis",unknown,-90.5352356,38.557323,"Ballwin, MO, 63021",,-,-,-,-,-
North America,USA,NEW JERSEY,CRANBURY,Cranbury SKY Sub Center (SKY NewJersey),unknown,-74.515312,40.313122,Cranbury NJ 8512,,-,-,-,-,-
North America,USA,NEW JERSEY,EDISON,North Edison SKY Sub Center (SKY NewJersey),unknown,-74.412094,40.518715,Edison NJ 8820,,-,-,-,-,-
North America,USA,NEW JERSEY,EDISON,South Edison SKY Sub Center (SKY New Jersey),unknown,-74.412094,40.518715,Edison NJ 8837,,-,-,-,-,-
North America,USA,NEW JERSEY,FRANKLIN PARK,Franklin Park SKY Center (SKY NewJersey),unknown,-74.532129,40.441296,"Y.B.Chois Tae Kwon Do, 3001 Highway 27, Franklin Park, NJ 08823.",,-,-,-,-,-
North America,USA,NEW JERSEY,FREEHOLD,Freehold SKY Sub Center (SKY NewJersey),unknown,-74.3001,40.2137,Freehold NJ 7728,,-,-,-,-,-
North America,USA,NEW JERSEY,JERSEY CITY,Jersey City Meditation Center,unknown,-74.063598,40.7368501,"18 Skillman avenue, Jersey City, NJ, 07306",,-,-,-,-,-
North America,USA,NEW JERSEY,MANMOUTH,SKY Meditation Center - New Jersey,unknown,-74.5179704,40.4047777,"10 Oak tree Road, Monmouth Junction, Newjersy - 08852.",,-,-,-,-,-
North America,USA,NEW YORK,NEW YORK,New York SKY Center (SKY New York),unknown,-73.9932872,40.755322,New York NY 10018,,-,-,-,-,-
North America,USA,NORTH CAROLINA,MORRISVILLE,North Carolina SKY Center,unknown,-77.6223268,37.6483438,406 Trolley Car Way Morrisville NC 27560,,-,-,-,-,-
North America,USA,TEXAS,BELLAIRE,Houston SKY Center,unknown,-95.453638,29.691585,Bellaire TX,,-,-,-,-,-
North America,USA,TEXAS,McKINNEY,McKinney SKY Meditation Center,unknown,-96.6389,33.1983,10921 Calvert Pl McKinney TX 75071,,-,-,-,-,-
North America,USA,TEXAS,PLANO,Plano SKY Meditation Centre,unknown,-96.7598756,33.0921785,8308 Sand Ridge Dr Plano TX 75025,,-,-,-,-,-
North America,USA,VIRGINIA,FAIRFAX,Fairfax SKY Center,unknown,-77.3064,38.8462,Fairfax VA 22030,,-,-,-,-,-
North America,USA,VIRGINIA,RICHMOND,Richmond SKY Center,unknown,-77.436,37.5407,Richmond VA 23173,,-,-,-,-,-
North America,USA,WASHINGTON,BELLEVUE,Bellevue SKY Center (SKYSeattle),unknown,-122.1119821,47.6133715,213 174th Pl NE Bellevue WA 98008,,-,-,-,-,-
North America,USA,WASHINGTON,SAMMAMISH,Seattle SKY Society - Sammamish Centre,unknown,-122.0366425,47.6145674,"555 227th CT NE, Sammamish, 98074.",,-,-,-,-,-
