Continent,Country,State,City,Name,CenterNumber,long,lat,Address,Zone,ContactPersonName,Mobile_1,Mobile_2,Landline,Email,Email_2
Asia,India,Puducherry,Puducherry,Vethapuram MVKM Trust,A.NO.5,79.8188341,11.93968,"No.18, 8th cross Street, Brindhavanam, Pondy - 605 013",Puducherry,A/N. V. Janagiraman,"9443658123,",9894189750,-,skyvethapuram@gmail.com,
Asia,India,Karnataka,Bengaluru,Bangalore Malleswaram SKY Trust,A.NO.19,77.5657443,13.00179997,"Villa-73, Phase-1, Golden Homes (Liberty Acres), Indlabele Village, Sarjapur-Attibele Road, Attibele, Bangalore - 562 107",Karnataka,Prof. Sathya Murthy.C,9342540403,9449022221,23345728,-,
Asia,India,Andhra Pradesh,Eluru ,Eluru SKY Meditation Trust,A.NO.43,81.07267037,16.70477776,"Sankaralaya St, No.2-86, Srinivasa Nagar, Satrampadu, Eluru mandal, West Godavari - 534007",Andhra Pradesh,A/N. B.Venu gopal,9441086983,-,08812 - 234372,venu_gb2001@yahoo.com,
Asia,India,Karnataka,Bengaluru,Bangalore Krishnarajapuram SKY Trust,A.NO.70,77.6869039,12.99679849,"“SRI PRASONA”, No.229/1, Nandagokula St, Akash Nagar, 3rd cross, K.R.Puram, Bangalore-560 016. ",Karnataka,Dr.T.S.Kani,9449824197,9880740840,-,-,
Asia,India,Karnataka,Bengaluru,Bangalore Vishala Karnataka SKY Trust,A.NO.109,77.7065754,12.7226843,"Temple of Consciousness, Anekal Arivina Sri Mandira, Kavalahosahalli Village, Sidihosakote Post, Opp. Alliance Bussiness School, Anekal Taluk, Bangalore 562 106.",Karnataka,Prof.K.Ravindran,9480426595,9900626477,8147827600,-,
Asia,India,Karnataka,Bengaluru,Bangalore R.T. Nagar SKY Trust,A.NO.111,77.5855752,13.0229777,"No.62/1, 1st Cross , 2nd main, Ganga Nagar, Bangalore - 560032.",Karnataka,A/N.Dr.Devadas,9738526399,-,23633463,-,
Asia,India,Andhra Pradesh,Vijayawada,Vijayawada Omkara Dhyana Mandiram SKY Trust,A.NO.112,80.6480153,16.5061743,"No.11-30-36, Seshaiah St, Prardhana Sangham Upstairs, Vijayawada - 520001.",Andhra Pradesh,A/N.Andalam Ramanath,9848125679,-,"421466, 2422609",abrahampjcst@gmail.com,
Asia,India,Kerala,Ernakulam,Jyothis SKY Trust,A.NO.123,76.30147717,10.01267996,"Mangattu House, MRRA - 25, Mangattu Road, Mamagalam, Palarivattom, Cochin, Kerala - 682 025. ",Kerala,A/N. K. R. Satheesh,9446324878,8289956114,9847032158,krsatheesh.2010@gmail.com,
Asia,India,Telangana,Hyderabad,Hyderabad SKY Trust,A.NO.181,78.55558509,17.35229353,"Flat no:103,Second floor, Madhuban Residency, R T C colony,road no-1, L B Nagar, Hyderabad, Telangana State, India. (Land Mark:First left lane ,near Abhinanda Grand opp/- Kamineni hospital)",Telangana,Prof. M. Kalpana,9177393225,9848144487,-,an.a181@vethathiri.edu.in,
Asia,India,Karnataka,Bengaluru,Bangalore Shivaji Nagar SKY Trust,A.NO.188,77.6205058,13.0017896,"No.17/2, Lazar Road, Ist Cross, Fraser Road, Bangalore North, Bangalore - 560005",Karnataka,A/N.T.B.J.Kumar,9886138376,-,-,-,
Asia,India,Maharashtra,Chembur (East),Mumbai Chembur SKY Trust,A.NO.207,72.89208066,19.05019857,"No.306, 3rd Floor, Hari Kunj Apts, Sindhi Society, Chembur, Mumbai - 400071. ",Mumbai,A/N.Hemalatha Chandrasekaran,9322277766,0-9322266633,022-32964897,srihemchand@hotmail.com,
Asia,India,Karnataka,Bengaluru,Bangalore Srirampuram SKY Trust,A.NO.219,77.55733623,12.9909285,"No.2, Prakash Nagar Main Road, Prakash Nagar, Bangalore - 560021.",Karnataka,A/N.Arulmozhi Vinayagam,9845084248,9886411849,-,-,
Asia,India,Kerala,Cumbummettu,Kumily SKY Trust,A.NO.221,76.9297354,9.8138076,"C/o.A/N.P.S.Abraham, Secretary,Vadakkekollyil House, Plackyil (H), Cumbummettu P.O., Idukky (Dist), Kerala - 685 551.",Kerala,A/N.D.Suresh Babu,9349762696,9447824740,-,"skykumalytrust@gmail.com, ",hshanishlal@gmail.com
Asia,India,Kerala,Cherthala,Poornnam SKY Trust,A.NO.224,76.3388484,9.4980667,"A/N.K.G.R.Panicker, C/o, 4/41, Parklane Road, Cherthala North Village, Cherthala, Alleppey District, Kerala - 688524.",Kerala,A/N.K.G.R.Panicker,9447052303,-,-,kgrpanicker@gmail.com,
Asia,India,Puducherry,Puducherry,Pondicherry Lawspet MVKM Trust,A.NO.253,79.81297123,11.95599482,"No.42, Main Road, Kamaraj Nagar, Samipillaithottam Lawspet,  Pondicherry - 605008",Puducherry,A/N.S.Murugaiyan,9443442187,9442066551,,yogapondicherry@gmail.com,
Asia,India,Kerala,Kozhikode,"Calicut SKY Trust,",A.NO.281,75.73558457,11.54258101,"C/o.A/N.K.Ramachandran, MIC, “Padmasree”, Eravattor (P.O), Perambra (Via), Calicut (Dt), Kerala - 673525.",Kerala,A/N.Dr.T.N.Vijaya Kumar,9496285070,"9447423220 (M.T), 9349100905 (S)","0496-2610070, 0496-2668500","ramachandrankskyyoga@gmail.com,", tnvsreesailam@gmail.com
Asia,India,Karnataka,Bengaluru,"Bangalore Vimanapura SKY Trust,",A.NO.295,77.6775261,12.9748321,"582/1A, 6th Cross, 1st Main Road,, L.B.Shastri Nagar, Vimanapuram PO, Bangalore - 560017.",Karnataka,A/N.P.I.Dhanaraj,9740980990,-,-,-,
Asia,India,Karnataka,Bengaluru,Bangalore Panchasheela Nagara SKY Trust,A.NO.307,77.52056941,12.97439903,"No.302, 7th Cross 1 st Stage, Panchasheela Nagara, Moodalapalya, Bangalore-560072",Karnataka,A/N.P.Dhanapathi,9448471694,-,-,-,
Asia,India,West Bengal,Kolkata,Kolkata SKY Trust,A.NO.314,88.284102,22.480823,"E - 18/1, Sarsuna Housing, Phase - I, Ketapole, Kolkata - 700061.",Kolkata,Mrs.srimathy,8240455862,9433399904,8691400192,srimathy.mani@gmail.com,smtsky2008@gmail.com
Asia,India,Andhra Pradesh,Kovvur,Gowthami Yoga Sravanthi SKY Trust,A.NO.329,81.7333,17.0167,"No.13-11-14/4, Bapuji Nagar, Lawyers Colony, Kovvur - 534 350, West Godavari Dt, Andhra.",Andhra Pradesh,A/N. D.V. Sitarama raju,9985231058,9248463717,9440583088,marripudikamesh199@@gmail.com,
Asia,India,Karnataka,Mysuru,Mysore Brindavan SKY Trust,A.NO.344,76.63513715,12.30181617,"#241, Kantharaj Urs Road, Treasury Layout, Kergalli, Mysore - 570026.",Karnataka,A/N.N.Devaraj,9449621430,8212415007,-,-,
Asia,India,Karnataka,Bengaluru,"Bangalore Machohally SKY Trust,",A.NO.376,77.4542804,12.9907903,"No.4, Machohally Vishwaneedam, Mangadi Main Road, Bangalore 560 091.",Karnataka,A/N.R.Kantharaju,9342751732,-,080-28535719,-,
Asia,India,Haryana,Gurgaon,Gurgaon SKY Trust,A.NO.389,77.0967965,28.4217917,"B 140, GAIL Housing Society, Plot No.GH-9, Sector 56, Gurugram - 122011, Haryana",Delhi,A/N.S.Malathy,9971392649,0-9971122896,0-9871888230,malathy.vetha@gmail.com,ilango.vetha@gmail.com
Asia,India,Andhra Pradesh,Guntur,Guntur R.Agraharam SKY Trust,A.NO.392,80.4389107,16.2905215,"D.No.24-5-17, R.Agraharam, Guntur 522 008, Andhra Pradesh.",Andhra Pradesh,"A/N.Chekka Bramaramba, W/o.A/N.Chekka Venkata Chennaiah",9505549653,9343793549,-,akoteswari@yahoo.com,
Asia,India,Andhra Pradesh,Vijayawada,Vijayawada Vagu Veeranjaneya SKY Trust,A.NO.398,80.64810899,16.5061743,"Plot No.55, Syndicate Bank Colony, KL Rao Park Road, Chitti Nagar,Kothapet, Vijayawada - 520009",Andhra Pradesh,A/N.P.Vanaja Murthy,7396543422,"0-9849319273,",0866 - 2568803,abrahampjcst@gmail.com,vanajarajkumari@gmail.com;
Asia,India,Andhra Pradesh,Eluru ,Eluru Gowri Sankar SKY Trust,A.NO.399,81.1083148,16.7138185,"No.20B-4-90, Narni Veeresalingam Streeet, Kothapeta - Powerpeta, Gandhi Nagar, Eluru 534 002.",Andhra Pradesh,A/N.Nemala Gowri Sankar,9848135262,-,-,an.a399@vethathiri.edu.in,
Asia,India,Karnataka,Bengaluru,Channapatna SKY Trust,A.NO.414,77.4759713,12.9870326,"No.5, Anushree Ashra, Vele-Kodigehalli Village & Post, Bangalore 560091",Karnataka,A/N.G.Kuppan,9342020456,9036862235,-,-,
Asia,India,Andhra Pradesh,Tirupati,Tirupati Subba Reddy Nagar SKY Trust,A.NO.417,79.4191795,13.6287557,"7-4/B, Subba Reddy Nagar, Akkaram Pathi Road, Tirupathi 517 501 ",Andhra Pradesh,A/N.G.Mohan Reddy,9966008643,-,-,ramachandrankskyyoga@gmail.com,an.a417@vethathiri.edu.in
Asia,India,Andhra Pradesh,Tirupati,Tirupati Peddakapu Layout SKY Trust,A.NO.438,79.41927193,13.6287557,"D.No.13-6-600/44(8), Peddakapu Layout, Tirupati, Chittoor Dist, Andhra Pradesh 517 507.",Andhra Pradesh,A/N.P.Munirathnam Reddy,6304756329,7981302620,-,ramachandrankskyyoga@gmail.com,
Asia,India,Kerala,Alappuzha,Alappuzha SKY Trust,A.NO.442,76.31967792,9.653514509,"“ARATTU VAZHI”, OPPOSITE TO SANJOSE HOSPITAL, ALAPPUZHA NORTH",Kerala,A/N.K.V.Haridas,9497109353,9895010181,-,skytrustalpy@gmail.com,dominicarsky@gmail.com
Asia,India,Telangana,Secunderabad,Secunderabad SKY Trust,A.NO.443,78.4352242,17.4255825,"Plot No.14, Road No.2, 8-6-52/42, Venkataramana Colony, Vanesthilipuram Hyderabad 500 070.",Telangana,A/N.S.Sivanageswara Rao,9441232930,9440524386,-,sekhinamsivanageswararao@gmail.com,
Asia,India,Andhra Pradesh,Guntur,Guntur Acharya Nagarjuna SKY Trust,A.NO.444,79.74017432,15.9128998,"D.No.5-94-31, 6/13A Brodiepet, Guntur 522 002.",Andhra Pradesh,"A/N.Dr.A.Koteswwaramma, W/o.A.Chennakesava Reddy",9866873477,-,0863 - 2233517,sekhinamsivanageswararao@gmail.com,akoteswari@yahoo.com
Asia,India,Kerala,Thiruvananthapuram,Thiruvananthapuram SKY Trust,A.NO.448,76.9423828,8.4890682,"Krishnarilasam, T.C.28/1452, Greekantheswaram, Thiruvananthapuram 695 023",Kerala,"A/N.A.V.Geethakumari,",9400288501,0-7907199248,-,skytrust18@gmail.com,padmagireesh.05@gmail.com
Asia,India,Andhra Pradesh,Rajahmundry,Rajahmundry SKY Trust,A.NO.449,79.74008091,15.9128998,"D.No.07-23-01, Aswini Hospityals, Opp. to Hindu Samajam, Rajahmundry - 533 101. East Godavari Dist.,",Andhra Pradesh,A/N. Dr. B. Santha Devi,8832462502,9052165394,,santthhabandi@gmail.com,mapsraj@gmail.com
Asia,India,Kerala,Iritty,Iritty-Kannur SKY Trust,A.NO.452,75.3703662,11.8744775,"Kunnoth, Kiliyanthara Post, Kannur District, Kerala 670 706.",Kerala,"A/N.P.P.Johnson alias Kalavoor Johnson,",9447853499,-,0490-24230537,skytrustiritty@rediffmail.com,ffsj_kalavoor@rediffmail.com
Asia,India,Kerala,Kayamkulam,"Kayamkulam SKY Trust,",A.NO.456,76.515156,9.1843659,"C/o.P.E.Hariharan, Secretary, ""HARISHREE"", Puthiyidom, Kayamkulam, Kerala 690 502.",Kerala,A/N.V.S.Gopalakrishnan,"8281857001, 0-9400642535","9446635501, 8281857001",0479-2448842,kayamkulamskytrust@gmail.com,baabukv@gmail.com
Asia,India,Kerala,Kottayam,Pallickathodu SKY Trust,A.NO.460,76.5221531,9.5915668,"WARD.8,HOUSE NO.3, AFFILIATION No. 460 PERUMKOOVATHIL, ANICAD-PO, PALLICKATHODE PANCHAYATH, KOTTAYAM-686503",Kerala,A/N.P.S.Ramachandran Nair,9447729521,0-9446548999,-,ramachandrankskyyoga@gmail.com,baabukv@gmail.com
Asia,India,Kerala,Cherthala,Cherthala SKY Trust,A.NO.463,76.28096623,9.988553117,"Door No.28/947, Pulluruthikarayil (H), Providance Junction, Cherthala (Post), Kerala 688 524.",Kerala,A/N.P.J.Abraham,9495421422,-,-,cherthalaskytrust@gmail.com,abrahampullooruthikariyil@gmail.com
Asia,India,Kerala,Kannur,Kannur SKY Trust,A.NO.465,75.45525796,11.81369041,"Manikkoth, Kadambur Post, Kannur, Kerala - 670 663.",Kerala,A/N.M.S.Anand,9446170220,9446445021,-,mskadamboor@gmail.com,
Asia,India,Puducherry,Puducherry,Pondicherry Thirubuvanai MVKM Trust,A.NO.467,79.6507597,11.9236663,"No.6, V.T.C. Street, Jaibeem Nagar, Thirubuvanai, Pondicherry-605107",Puducherry,A/N.M. Gnanasekaran,9843241440,9786534820,-,pondicherry.thirubuvanai@gmail.com,
Asia,India,Puducherry,Puducherry,Pondicherry Bahoor MVKM Trust,A.NO.468,79.7441651,11.8044555,"A/N. A.Irudhayamary, No. 103, South Street, Bahoor, Pondicherry- 607 402",Puducherry,A/N. A.Irudhayamary,9787720403,9363366123,0413 - 2633403,pahssbahour@gmail.com,
Asia,India,Puducherry,Puducherry,Pondicherry Embalam MVKM Trust,A.NO.469,79.71329911,11.87118957,"No. 57, Villiyanur Main Road, Embalam, Pondicherry - 605 106 ",Puducherry,N. Balamurugan,9751681737,9843899167,-,pondicherry.embalam@gmail.com,
Asia,India,Puducherry,Puducherry,Pondicherry Villiyanur MVKM Trust,A.NO.470,79.8115741,11.9174015,"Plot No: 5, Bharathi Street, Thillai Nagar, Villiyanur, Puducherry-605 110     ",Puducherry,A/N. R. Tirounavoucarassou ,9894217551,9787559004,-,pondicherry.villianur@gmail.com,
Asia,India,Karnataka,Bengaluru,Bangalore Chandapura SKY Trust,A.NO.475,77.6335088,13.0173525,"No.475, Ramaiah Layout, Opp. MTB Bricks, Chandapura, Attibele Hobli, Anekal (TK), Bangalore -560 099.",Karnataka,A/N.M.Shanthamma,9740463415,-,-,chandapuraskytrust@gmail.com,
Asia,India,Kerala,Palakkad,Palakkad SKY Trust,A.NO.478,76.662929,10.7865687,"""SREEPADAM"", Durga Junction, Puthur, Palakkad 678 001. Kerala",Kerala,A/N.R.Swaminathan,9846626278,9947150252,-,palakkadskytrust@gmail.com,swamisudha@yahoo.co.in
Asia,India,Kerala,Eruva,Eruva SKY Trust,A.NO.479,76.4967458,9.1939662,"C/o.A/N.G.Gopinathan, Secretary, ""Aswathy"", Eruva East, Eruva-Post, Kayamkulam 690 572, Alappuzha Dist, Kerala State",Kerala,A/N.D.Parameswaran Nair,9447193013,8281090852,9400731131,eruvaskytrust@gmail.com,gopinathansky@gmail.com
Asia,India,Karnataka,Bengaluru,Bangalore Peenya SKY Trust,A.NO.480,77.4885727,13.0002867,"No.64, Maruthi Nagar, Andrahalli Main Road, Bangalore - 560 091",Karnataka,A/N.K.B.Bhagyamma,9845603550,8904302770,-,-,
Asia,India,Andhra Pradesh,Vijayawada,Amaravathi Sulabhathbara Kundalini Yoga SKY Trust,A.NO.484,80.6039717,16.52534262,"F.F.9, Pavan Swarana Sai Towers, Beside: Cithara Hall, Vidyadharapuaram, Vijayawada - 12",Andhra Pradesh,A/N.M.Kameswara Rao,8074760499,9849955658,9848744567,marripudikamesh199@gmail.com,
Asia,India,Kerala,Thrissur,Thrissur SKY Trust,A.NO.490,76.25217592,10.66541233,"""SOUPARNIKA"", Pangattukulangara Post, Wadakanchery, Thrissur, Kerala 680 623",Kerala,A/N.V.R.Ramesh,9496353468,-,04884-267892,thrissurskytrust@gmail.com,ramshvr37@gmail.com
Asia,India,Kerala,Ambalapuzha,Ambalapuzha SKY Trust,A.NO.495,76.36057933,9.38642826,"""SREYAS"", Palkudy Lane, Ambalapuzha, Alappuzha (Dist), Kerala 688 561.",Kerala,"A/N.B.Rajeev, A/N.A.Sreekantan Nair",9447505552,9495087033,-,sreekantannair160@gmail.com,
Asia,India,Karnataka,Bengaluru,Bengaluru Sivanandanagar SKY Trust,A.NO.497,77.5263897,12.9701318,"32, 5th Cross, Sivanandanagar, (Karnataka High School Road), Nagara Bhavi Main Road, Moodalpalya, Bangaluru 560 072.",Karnataka,A/N.D.Gowri,9742846256,9036138509,-,-,
Asia,India,Andhra Pradesh,Srikakulam,Srikakulam SKY Trust,A.NO.502,83.89679042,18.28567883,"MIG No:2 (Upstairs)), APHB Colony, Opp to Zilla Parishad, Srikakulam, Andhra",Andhra Pradesh,A/N. A.V.V.B.N. Acharyulu,9177675494,-,-,achari261957@gmail.com,
Asia,India,Andhra Pradesh,Kotala ,Kotala SKY Trust,A.NO.505,79.28162818,13.5944283,"6-33, Kotala (Via & Post) 517 102, Chandragiri (Mandal), Chittoor Dist",Andhra Pradesh,A/N. S. Sudha,9704838606,8374836388,-,sreekantannair160@gmail.com,
Asia,India,New Delhi,New Delhi,Delhi NCR Simplified Kundalini Yoga Trust,A.NO.509,77.17800114,28.55870019,"Room No.103, First Floor, Grith Kalyan Kendra, Samraj Sadan, Sector - 4, R.K.Puram, New Delhi 110 022.",Delhi,A/N.M.Parameswaran,9871888230,-,-,skyyoga.delhi@gmail.com,
Asia,India,Andhra Pradesh,Eluru ,Eluru Vethathiri Maharishi SKY Trust,A.NO.510,81.1227439,16.71491637,"H.No: 1-207 B, Anoallamma Thota, Kodelu Road, Jayaprakash Nagar, Betesth Church Street, Eluru, West Godavari Dist. Andhra Pradesh, Pin 534001",Andhra Pradesh,A/N.P. Venkateswara Rao,6300409522,-,-,venkateswararao9858@gmail.com,an.a399@vethathiri.edu.in
Asia,India,Tamilnadu,Ariyalur,Jayankondam MVKM Trust,A.NO.2,79.3612652,11.2143483,"Iyyanar Koil Campus, Iyyanar Koil Street, Chidambaram Road, Jayankondam 621 802",Kumbakonam,A/N. S. Elangovan,9443953954,8778703597,-,jkmmvkmtrust@gmail.com,
Asia,India,Tamilnadu,Madurai,Madurai MVKM Trust,A.NO.4,78.13092741,9.941267351,"24, Besant Road, Chokkikulam, Madurai - 625 002.",Madurai,A/N. K.R.Ramalingam,9025639760,9087971797,0452-2526461,mduatk@gmail.com,
Asia,India,Tamilnadu,Thoothukudi,Kovilpatti MVKM Trust,A.NO.6,77.8732984,9.1804624,"7C-1, Arunachalampettai Street, Kovilpatti - 628 501, Thoothukudi Dist.",Virudhunagar,A/N.Dr.S.Tamilselvi,9965008212,9884012740,9443721864,stsece@nec.edu.in,
Asia,India,Tamilnadu,Chennai,Tambaram Sanatorium MVKM Trust,A.NO.7,80.13091298,12.946583,"N.No.254 (O.No207) Thambu Chetty St, Chennai - 600 001.",Kancheepuram,A/N. A.R. Viswanathan,9944365999,-,-,skysanatorium@gmail.com,
Asia,India,Tamilnadu,Dindigul,Dindigul MVKM Trust,A.NO.9,77.96824573,10.397014,"No.2/428, Vethathiri Nagar, Collectorate (PO ), Dindigul - 624004 ",Dindigul,A/N. M.K. Dhamodharan,9443047577,9442200970,0451 - 2460461,tctdgl95@gmail.com,
Asia,India,Tamilnadu,Dharapuram,Dharapuram MVKM Trust,A.NO.11,77.52149574,10.73386788,"77, Anna Nagar, Dharapuram - 638 656",Tiruppur,A/N.C.K.Chellamuthu,9842701655,-,04258-220110,vm163vethathiri@gmail.com,
Asia,India,Tamilnadu,Vellore ,Gudiyattam MVKM Trust,A.NO.12,78.3330157,12.7470314,"1/16, Amannag Kuppam Rice Mill, Pajanai Koil Street, Gudiyattam (R.S), Gudiyattam 635 803",Thiruvannamalai,A/N. A. Shanmugam,9442514580,9443635011,-,jayalakshminps@gmail.com,"wcscvellore@gmail.com, "
Asia,India,Tamilnadu,Kanyakumari,Nagercoil MVKM Trust,A.NO.16,77.4332177,8.1838932,"405/127, C.B.H.Road, Melakalumkady, Vadasery, Nagercoil - 629 001",Thirunelveli,A/N.S.Vallinayagam Pillai,9443556601,9488082082,04652-272350,nanjilskytrust@vethathiri.ac.in ,aspillai232@gmail.com 
Asia,India,Tamilnadu,Erode,Erode MVKM Trust,A.NO.18,77.7244626,11.33282," No.66, Periyar Nagar 9th Street, Erode - 638 001.",Erode,A/N.Vengatesh,9443361227,"9444930539, 9486184860","0424-2267391, ",er.a18@vethathiri.ac.in,
Asia,India,Tamilnadu,Sivagangai ,Sivagangai MVKM Trust,A.NO.20,78.4857024,9.8521106,"C/o.A/N.SP.Ramanathan, Secretary, Sriram Xerox & Computers, 361-G, Gandhi Road, Sivagangai - 630 561",Madurai,A/N.A.C. Shanmuganathan,9965899303,9787390430,-,sriramsivagangai@gmail.com,
Asia,India,Tamilnadu,Virudhunagar,Rajapalayam MVKM Trust,A.NO.21,77.55256806,9.44704666,"25/D5, Kuppusami Raja Street, Rajapalayam - 626117",Virudhunagar,A/S.P.D.Kasiwisvanatha Raja,9894013317,9942764629,8110902823,ponnssh@yahoo.com,
Asia,India,Tamilnadu,Madurai,Tirunagar MVKM Trust,A.NO.22,78.0523548,9.8845116,"C/o.A/N.Ram gopal, Secretary, No.C.45, Brindavan Street, Thirunagar, Madurai - 625006",Madurai,A/N. Thirunavukarasu,8883026349,9842150442,-,mnraghaven@gmail.com-,
Asia,India,Tamilnadu,Thirunelveli,Shencottah MVKM Trust,A.NO.23,77.29726183,9.036936003,"No.1/31, Murthi Vinayagarkoil Street, Neduvayal, Elathur Via 627 803, Shencottah Taluk, Nellai District.",Thirunelveli,A/N.N.Thiruvenkadam,8903487346,9442235526,-,ntvnathan@yahoo.com,muruganmska@gmail.com 
Asia,India,Tamilnadu,Vellore ,Vellore MVKM Trust,A.NO.24,79.13826788,12.94697263,"No.32, 6th West Cross Road, Gandhi Nagar, Vellore - 632006.",Thiruvannamalai,A/N.P.Parameswari,9865620781,9787736002,9042327122,velloremvkmtrust2016@gmail.com,
Asia,India,Tamilnadu,Chengalpattu,Guduvanchery MVKM Trust,A.NO.25,80.06071964,12.8448776,"No.103, G.S.T.Road, Guduvanchery - 603202.",Kancheepuram,A/N.R.Piramukutti,9444190005,-,"27465958, 27461892",piramukutty.gdvmvkm@gmail.com,
Asia,India,Tamilnadu,Thirunelveli,Sankarankoil MVKM Trust,A.NO.26,77.53696667,9.181150087,"Arivu Thirukoil, Ezhil Nagar East, 43/4, Thiruvudaiyan Salai 2nd Street, Sankarankoil 627 756.",Thirunelveli,A/N.R.Muthukirhsnan,9443544110,9442064055,9486915496,ramsonsnkl@gmail.com ,ikamaraj63@gmail.com 
Asia,India,Tamilnadu,Chennai,Mylapore MVKM Trust,A.NO.28,80.26996924,13.03227992,"No.12, South Mada Street, Mylapore, Chennai - 600004.",Chennai,A/N. M.P. Ponnuswamy,8939543914,9962542859,9345629440,vethathrimylai@gmail.com,
Asia,India,Tamilnadu,Ranipet,Arakkonam Jothi Nagar MVKM Trust,A.NO.29,79.66047692,13.10709268,"Arakkonam Jothi Nagar Arivu Thirukkoil, 53/2, Bharathi Street (Near Fire Station), Arakkonam Jothi Nagar, Arakkonam - 631 003.",Thiruvallur,A/N. A.S. GURUNATHAN,9894507389,9894428831,04177-23778. 8778721570,ajjmvkma29@gmail.com,"gurunathanas@gmail.com,pkumaran3297@gmail.com"
Asia,India,Tamilnadu,Vellore ,Sathuvachary MVKM Trust,A.NO.30,79.19203764,12.94221106,"No.22, Kurinchi Nagar, Sathuvachari, Vellore - 632009.",Thiruvannamalai,"A/N. A. Venkatesan, ",9790099369,9790099366,-,mtsdiva83@gmail.com,
Asia,India,Tamilnadu,Chennai,Chennai KK.Nagar MVKM Trust,A.NO.31,80.20089991,13.03958062,"No.16/491, 24th St, 5th Sector, K.K.Nagar, Chennai - 600078.",Chennai,"A/N.S.Arumugam,",7550289400,-,044-23664094,ramakrish_mir@yahoo.in,
Asia,India,Tamilnadu,Chennai,Rangarajapuram MVKM Trust,A.NO.32,80.2227289,13.0475137,"129/54, Rangarajapuram Main Road, Kodambakkam, Chennai 600 024.",Chennai,A/N.S.Nagarajan,9445005362,9443244320,9382615060,jayaraman1948@yahoo.com,
Asia,India,Tamilnadu,Coimbatore,Kovai MVKM Trust,A.NO.34,76.96467847,11.01863765,"121, ""MAY FLOWER"" Complex II Floor, 10th Street, Gandhipuram, Coimbatore - 641 012.",Coimbatore,A/N.A.Arumugam,9486355577,9443521711,0422-2494242. 9500556532,kovaitrustsky@gmail.com; ,
Asia,India,Tamilnadu,Thirunelveli,Nellai MVKM Trust,A.NO.38,77.75364734,8.696403447,"9th North Street, 70, P.A. Pillai Nagar, Thiyagaraja Nagar, Tirunelveli - 627 011.",Thirunelveli,A/N.A.Nagarajan,9442178858,9486272458,9442545781,nellaimanavalakalai@gmail.com ,deiva781@gmail.com 
Asia,India,Tamilnadu,Virudhunagar,Aruppukottai MVKM Trust,A.NO.39,78.09062876,9.50711351,"Sappai Ramasamy Street, South Street, Aruppukottai 626 101.",Virudhunagar,A/N.R.Jothimani,9486569340,6383657013,-,rjothimani36@gmail.com,
Asia,India,Tamilnadu,Chennai,Chrompet MVKM Trust,A.NO.41,80.14029734,12.9451395,"No.23/11, Hasthinapuram Main Rd, Nehru Nagar, Chrompet, Chennai-600 044.",Kancheepuram,A/N.G.Arunachalam,6369846402,9841408046,22233991,chromepetmvkmtrusta41@gmail.com,garuna1945@gmail.com
Asia,India,Tamilnadu,Salem,Salem Ammapet MVKM Trust,A.NO.44,78.17625135,11.64836833,"No.46.E, Vethathiri Maharishi Nagar, New Street Extn, Ammapettai, Salem - 636003.",Salem,A/N.A.Vivekanandhan,9443241482,9442842043,2244244,sa.a44@vethathiri.ac.in,
Asia,India,Tamilnadu,Salem,Puthuchampalli MVKM Trust,A.NO.45,77.8225923,11.805204,"C/o.A/N.M.Pachaiyannan, MIC, No.38-151 EID, V.O.C Nagar, Mettur Dam RS - 636402.",Salem,A/N.N.Saraswathy Nanchappan,9486931050,9790709588,04298 - 222283,sa.a45@vethathiri.ac.in,
Asia,India,Tamilnadu,Coimbatore,North Kovai MVKM Trust,A.NO.46,76.95460497,11.01559855,"Kandasamy & Co., Campus, No.266, Mettupalayam Road, Coimbatore - 641 043.",Coimbatore,A/N. Senthamarai Jayakumar,9486355107,9443756252,"9442526880, 9488875970",northkovaiwisetrust@gmail.com,
Asia,India,Tamilnadu,Cuddalore,"Viruthachalam MVKM Trust,",A.NO.48,79.24211994,11.40276443,"Pazhampathai Street, Pennadam Post, Titakudi T.K., Cuddalore Dist 606 105.",Viluppuram,A/N.T.Mayilvaganan,9442520287,7598173314,-,tmv24452@gmail.com,shankaran33@gmail.com
Asia,India,Tamilnadu,Coimbatore,Periya Naicken Palayam MVKM,A.NO.49,76.91788881,11.15564547,"No.57, Arivuthirukoil Veedhi, Ananda Nagar, S.R.V.K.(Po), Coimbatore - 641 020.",Coimbatore,A/N.Dr.V.Ponnuswamy,9080485959,9442187901,"0422 - 2694152, 8220496778, 9442575805",pnpalayam2017@gmail.com,pn_palayam@yahoo.com
Asia,India,Tamilnadu,Dindigul,Palani MVKM Trust,A.NO.51,77.5161356,10.4500374," No,26 Melarathai Veedhi,Palani.624601",Dindigul,Prof.A.Muthukrishnan,9443148246,9443055117,04545 - 245600,tct.palani01@gmail.com,
Asia,India,Tamilnadu,Virudhunagar,Srivilliputhur MVKM Trust,A.NO.55,77.6299182,9.507948,"50, P.P. Mela Mada St, Srivilliputhur - 626125.",Virudhunagar,A/N.SR.Sarvajit ,9842960950,9976892235,-,srivilliputhurmvkm@gmail.com,
Asia,India,Tamilnadu,Nagapattinam,Nagai MVKM Trust,A.NO.57,79.83754825,10.77376135,"1,Sivan South, Madavalagam St, Velippalayam, Nagapattinam - 1.",Kumbakonam,"A/N.S.Elamaran, M.A, B.Ed.,",9443873919,9443873919,04365 - 248866,nagaimvkmtrust57@gmail.com,
Asia,India,Tamilnadu,Namakkal,Namakkal MVKM Trust,A.NO.58,78.16462524,11.22243832,"No.11, Narasimar Sannadhi Street, Kottai, Namakkal - 637001.",Salem,A/N.S.M.Ramu,9843429387,9788635479,-,sa.a58@vethathiri.ac.in,
Asia,India,Tamilnadu,Chennai,Thiruvottriyur MVKM Trust,A.NO.59,80.2997517,13.1561761,"C/o.A/N.Pushparaj, Programme Officer, No.52/71, Kailash Sector 5th Veethi, Chinnamettupalayam, Thiruvottriyur, Chennai - 600019.",Thiruvallur,A/N.M.AASAITHAMBI,7338758292,9444265990,8248009673 9444100000,ttpmvkmtrust@gmail.com,pushparaj158@gmail.com
Asia,India,Tamilnadu,Thiruvarur,Tiruthuraipoondi MVKM Trust,A.NO.60,79.6361748,10.5251306,"569/1, Balraj Nagar, Mannai Salai, Tiruthuraipoondi - 614713.",Kumbakonam,A/N.S.A.T.S.Sudanthiramani,8675637437,9842340857,"04369 - 222314, 222262, 223751",ttpmvkmtrust@gmail.com,
Asia,India,Tamilnadu,Nilgiris,Gudalur MVKM Trust,A.NO.63,76.5372625,11.5158296,"No.10/65, Kalyani Jewellary 1st Floor, Ooty - Mysore Main Road, Gudalur, Nilagiri 643 212.",Coimbatore,A/N.N.Thangamani,9443857060,9442006224,-,gudalurmvkmedu@gmail.com,
Asia,India,Tamilnadu,Kumbakonam,Kumbakonam MVKM Trust,A.NO.64,79.7419238,10.9412207,"No.47, Noor Nagar, Pidarikulam Road, Thiruvidaimarudoor Road, Kumbakonam-612 001. ",Kumbakonam,A/N.P.Dorai,9443145795,9443142928,0435-2430601,kum.mvkmtrust@gmail.com,
Asia,India,Puducherry,Karaikal,Karaikal MVKM Trust,A.NO.65,79.8464804,10.9075513,"Arivuthirukoil, 5th Cross Street, Extension, MMG Nagar, Karaikkal - 609 602.",Kumbakonam,A/N.K.N.Shanmuganatham,9443057061,7598198009,04368 - 222880,karaikkalmvkmtrust@gmail.com,
Asia,India,Tamilnadu,Madurai,Madurai Nagar MVKM Trust,A.NO.66,78.12145,9.92483,"139, G.R. Complex, North Marath Street, Simmakkal, Madurai 625 001.",Madurai,A/N.M.Surulikumarn,9443661743,9047867416,-,madurainagarmanavalakalai@gmail.com,
Asia,India,Tamilnadu,Dharmapuri,Dharmapuri MVKM Trust,A.NO.69,78.1361409,12.1065271,"No.1 - J, Vasugounder St, Dharmapuri - 636701. ",Hosur,"A/N.M.Pattabiraman,",9442260893,8925182721,-,sa.a69@vethathiri.ac.in,thandavel1980@gmail.com
Asia,India,Tamilnadu,Salem,Elampillai MVKM Trust,A.NO.71,78.007,11.6,"No.9 - 1/20, Kakapalayam Main Road, Elampillai Post, Salem - 637 502.",Salem,"A/N.M.K.V.Koteeswaran,",9842669857,9043355515,-,sa.a71@vethathiri.ac.in,
Asia,India,Tamilnadu,Mailaduthurai,Mailaduthurai MVKM Trust,A.NO.74,79.6417893,11.0986902,"C/o.54, A, Periya Saliya St, Koorainadu, Mailaduthurai - 1.",Kumbakonam,"A/N.G.Venkatrajulu,",9442819562,9965524387,-,mydmvkmtrust@gmail.com,sharpsudharsan@gmail.com
Asia,India,Tamilnadu,Trichy,Trichirappalli MVKM Trust,A.NO.75,78.6960045,10.8306293,"1st Street (West), V.N.Nagar, Chinthamani, Trichy 620 002.",Trichy,"A/N.R.S.Jambu Lingam, sinivasan, Manikam",9443531522,9443125509,"9952266685, 0431-2707050",trichy.skyyoga@vethathiri.ac.in,kumarchinnasamy06@gmail.com
Asia,India,Tamilnadu,Thiruvarur,Nidamangalam MVKM Trust,A.NO.76,78.87578296,10.95015865,"4A, Keela Street, Nidamangalam - 614 404.",Kumbakonam,A/N.R.Krishnamoorthy,9952492722,9952492722,"9787092755, 7598411765",needamangalammvkmtrust@gmail.com,
Asia,India,Tamilnadu,Chengalpattu,Kalpakkam MVKM Trust,A.NO.79,80.12757421,12.55944086,"802, 8th Floor, Thamirabarani, DAE Township, Anupuram - 603 127",Kancheepuram,A/N. A.Vetrivel,9442327881,9444103846,-,sa.a258@vethathiri.ac.in,
Asia,India,Tamilnadu,Salem,Salem Seelanaickenpatti MVKM Trust,A.NO.80,78.1443285,11.6194887,"C/o.A/N.Shanmugam, MIC, No.156/156, Samiyappa Nagar, Seelanaickenpatti, Salem - 636201.",Salem,A/N.RPS.Venugopal,9790614885,-,-,sa.a88@vethathiri.ac.in,
Asia,India,Tamilnadu,Chennai,Anna Nagar MVKM Trust,A.NO.82,80.2029689,13.0854894,"E-10, Sneham Apartments, 3 Park Road, Padi (Anna Nagar West Ext), Chennai - 600 050. ",Chennai,A/N.N.Jayaraman,9444122284,9445236242,044-26160537,sa.a366@vethathiri.ac.in,
Asia,India,Tamilnadu,Namakkal,Sendamangalam MVKM Trust,A.NO.84,78.1677236,11.2194391,"Vethathiri Nagar, Jangalapuram, Senthamangalam - 637 409. Nammakkal Dist.",Salem,A/N.K.Sundaram,9442701601,-,-,sa.a84@vethathiri.ac.in,
Asia,India,Tamilnadu,Salem,Mettur Dam MVKM Trust,A.NO.87,77.6839469,11.4463521,"T.O.C. Vethathiri Nagar, State Bank Colony Quarters Backside, Mettur Dam 636 401.",Salem,A/N.P.Marimuthu,9842798777,-,-,sa.a87@vethathiri.ac.in,
Asia,India,Tamilnadu,Coimbatore,Mettupalayam MVKM Trust,A.NO.91,76.94119083,11.33161878,"C/o.A/N.M.Balasubramanian, MIC, 152 D, K.K.Nagar, Karamadai Road, Mettupalayam, Coimbatore - 641301.",Coimbatore,A/N.V.Balasubramanian,9842237475,-,04254-228845,mvkm.mtp@gmail.com,
Asia,India,Tamilnadu,Coimbatore,Karamadai MVKM Trust,A.NO.92,76.96122344,11.24046826,"T.O.C. 2/308, Thirumoolar Street, Aravindar colony, Karamadai, Coimbatore - 641 104.",Coimbatore,A/N.U.Natarajan,9894845020,9443505890,-,kaymvkm@gmail.com,
Asia,India,Tamilnadu,Erode,Thuckanaickanpalayam MVKM ,A.NO.93,77.38699,11.5070177,"No.66, Mariamman Koil Street, T.N.Palayam, Erode - 638 506",Erode,Bharathi ,90036 48057,9942267991,-,barathibharathi05@gmail.com,
Asia,India,Tamilnadu,Coimbatore,P.N.Pudur MVKM Trust,A.NO.94,76.91602419,11.02231185,"C/o.A/N.Dr.L.Devarajan, Secretary, Anandha Nagar Main Veethi, Anandha Nagar, P.N.Pudur (Post), Coimbatore - 641 041.",Coimbatore,A/N.N.P.Srinivasan,9842781564,9751125976,"9486036405, 9842752564",pnpudurtrust@gmail.com,
Asia,India,Tamilnadu,Madurai,Paramakudi MVKM Trust,A.NO.95,78.591,9.544,"No.3/736, Mandhri Menon Street, Parmakudi - 623707. ",Madurai,A/N.R.Ravindiran,9842212527,8778757217,-,pmkmvkmandram@gmail.com,
Asia,India,Tamilnadu,Chennai,Perambur MVKM Trust,A.NO.97,80.0864421,12.8927617,"66/3, Gnanambal Illam, Melpatti Ponnappa St, Perambur, Chennai - 600039. ",Chennai,A/N.Vadivanandhar,9840204141,9940030649,9444053736,-,
Asia,India,Tamilnadu,Erode,Bhavani MVKM Trust,A.NO.98,77.8007853,11.7862533,"229D, Anna Nagar, Bhavani 638 301. Erode Dist.",Erode, Subasini ,74189 57701,6380402635,6380423274,subhajanani2011@gmail.com,
Asia,India,Tamilnadu,Salem,Salem Kasakaranoor MVKM Trust,A.NO.99,78.1364889,11.6897632,"14/10A, Ragavan St, Bavani Hospital Road, Swarnapuri, Salem - 636 004.",Salem,A/N.Dr.S.P.Kandasami,9442849988,9443242336,8825961281,sa.a99@vethathiri.ac.in,
Asia,India,Tamilnadu,Thiruvarur,Manargudi MVKM Trust,A.NO.100,79.453512,10.6606199,"Quality Furniture Palace, 114 - C, Periya Kadai St, Kalki Building, Mannarkudi-614001.",Kumbakonam,A/N.R.Kailasam,9842370003,9487029765,04367-253706,mng.mvkmtrust@gmail.com,
Asia,India,Tamilnadu,Ramanathapuram,Ramanathapuram MVKM Trust,A.NO.102,78.8334566,9.370589,"175, Devipatinam Road, Kanikarai, Vellipattinam Post, Ramanathapuram - 623504.",Madurai,A/N.R.Murugesan,9443465991,9489275105,,rmdwater@gmail.com,abisara80@gmail.com
Asia,India,Tamilnadu,Nilgiris,Uthagai MVKM Trust,A.NO.104,76.7019038,11.4040343,"Santhosh clinical laboratory, 67/1152, U.M.C. Market Upstairs, Uthagamandalam - 643001",Coimbatore,A/N.M.Sathiyamurthy,9443907787,9443461866,-,arivuthirucoilooty@gmail.com,
Asia,India,Tamilnadu,Vellore ,Alangayam MVKM Trust,A.NO.105,78.75253195,12.6256394,"Sri.Venkateswara Fancy Hall, Cloth Merchant, 154 - Gandhi Road, Alangayam - 635701.",Thiruvannamalai,A/N.S.S.K.Babu,9360671067,-,265649,logathenmozhi@gmail.com,
Asia,India,Tamilnadu,Hosur,Hosur MVKM Trust,A.NO.106,77.8145956,12.7039644,"No.30, Vethathiri Veedhi, Amman Nagar, Near V.J.Kalyana Mahal, Thally Road, Hosur 635109. Krishnagiri Dt.",Hosur,A/N.P.Rangasamy,9342875181,9443316923,9487487362,sa.a106@vethathiri.ac.in,rangasamy.p @gmail.com
Asia,India,Tamilnadu,Chennai,Chennai Secretariat MVKM Trust,A.NO.107,80.13034898,12.97257854,"No.17, Sathiyamoorthy Street, V.O.C. Nagar, Pammal, Chennai 600 075.",Chennai,A/N.G.Rukmani,7871300972,-,-,sa.a106@vethathiri.ac.in,rangasamy.p@gmail.com
Asia,India,Tamilnadu,Nilgiris,Aruvankadu MVKM Trust,A.NO.110,76.76736674,11.37007656,"No.10/155.B, Vinayakar Koil St, Aruvankadu P.O. The Nilgiris - 643202.",Coimbatore,A/N.J.Kanchana,9677492413,9994158404,9443522821,avkmvkm@gmail.com,sharpsudharsan@gmail.com
Asia,India,Tamilnadu,Chennai,Villivakkam MVKM Trust,A.NO.114,80.20972864,13.10795267,"No.29/2, Vellalar Street, Villivakkam, Chennai - 600 049.",Chennai,A/N.P.Sekhar,9444451255,9941292499,9952021074,sekar.wcsc@gmail.com,sa.a218@vethathiri.ac.in
Asia,India,Tamilnadu,Tirupathur,Tirupathur MVKM Trust,A.NO.115,78.5701749,12.5080698,"Vethathiri Nagar, Tamil Nadu Housing Board I, Tirupathur - 635601.",Thiruvannamalai,A/N.S.Sivagnanam,9865295360,9363081160,-,vethathirijayam2020@gmail.com,
Asia,India,Tamilnadu,Thirunelveli,Palayankottai MVKM Trust,A.NO.117,77.7406261,8.7199105,"16-1, Kulasekara Alwar Street, Palayankottai, Tirunelveli - 627 002.",Thirunelveli,A/N.G.A.Venugopal,9443496906,9994660451,"0462-2560240, 9486779329",palayamkottaimvkm@gmail.com,
Asia,India,Tamilnadu,Thirunelveli,Thirunelveli MVKM Trust,A.NO.118,77.6553883,8.7207054,"No.94, Cheran Magadevi Road, Pettai, Thirunelveli - 627004",Thirunelveli,A/N.P.R Chandiran,8903986161,9442537349,9489305400,tirunelvelimvkm118@gmail.com ,thanigaivelm3@gmail.com
Asia,India,Tamilnadu,Thirunelveli,Pothigai MVKM Trust,A.NO.119,77.5179058,8.7271548,"14/15, Muthaiya Street, Sadaiyappapuram, Mukkudal - 1.",Thirunelveli,A/N.G.S.R.Boomibalagan,9443717561,9944391600,9790205408,pothigaimvkm@gmail.com ,subbulakshmir72@gmail.com 
Asia,India,Tamilnadu,Trichy,Manachanallur MVKM Trust,A.NO.121,78.702222,10.907778,"No.19, Ankalamman Koil Street, Manachanallur T.K, Tiruchy 621 005. Maruthi Vision Study center, Maruthi Nagar, NO 1 Toalgate, Trichy",Trichy,A/N Ratha A/N.N.Thiagarajan,9976124637,9894176516,9944379040,maruthistudy.skyyoga@vethathiri.ac.in,Manachanallur.skyyoga@vethathiri.ac.in 
Asia,India,Tamilnadu,Chennai,MKB Nagar MVKM Trust,A.NO.122,80.26299616,13.12537169,"C/o.V.Palani, Secretary, M14/12, Mathiya Nizhar Salai, Chennai 600 039.",Chennai,A/N.N.Hariraman,9444547484,-,-,-,
Asia,India,Tamilnadu,Namakkal,Tiruchengode MVKM Trust,A.NO.124,77.8859968,11.3639364,"26/3, Vazhga Valamudan Illam, Malaisuthi Road, Valaraigate, Karattupalayam, Sirumolani (Post), Tiruchengode - 637 209.",Erode,"A/N.S.Gunasekaran, ",9442279999,7373615156,9894913259,karthikmat1990@gmail.com,
Asia,India,Tamilnadu,Sivagangai ,Karaikkudi MVKM Trust,A.NO.125,78.7801544,10.0731315,"No.2, Manakiri Palaniyappan Street, Puthusanthai Road, Karaikkudi - 630 001. ",Madurai,A/N.T.Marimuthu,9865175103,9486671975,-,karaikudimvkm@gmail.com,
Asia,India,Tamilnadu,Trichy,Bhel MVKM Trust,A.NO.127,78.7396413,10.804558,"Vethathiri Nagar, Balaji Nagar Bus Stop, Kattur Post, Trichy 620 019. ",Trichy,"A/N Jayaprakash, krishnasamy, Hari","9442521250, 9442573876",9489044624,0431-4314973803,bhel.skyyoga@vethathiri.ac.in,
Asia,India,Tamilnadu,Chennai,Adambakkam MVKM Trust,A.NO.129,80.20014874,12.99353148,"C/o.A/N.R.Baskaran, Secretary, No.6/34, East Vellalar 1st St, Universal Eng Complex, Adambakkam, Chennai - 600088. ",Kancheepuram,A/N.T.M.Laxmipathy,9381399555,-,044-22530066,adambakkamtrust129@gmail.com,
Asia,India,Tamilnadu,Tiruppur,Palladam MVKM Trust,A.NO.130,77.29816345,11.00249768,"Arivuthirukoil, Vinayagar Mandapam backside, Tirupur Road, Rayarpalayampudur, Palladam 641 664.",Tiruppur,A/N.P.Saminathan,9043440550,9843360220,-,palladamtrust@gmail.com,
Asia,India,Tamilnadu,Tiruppur,Tiruppur MVKM Trust,A.NO.132,77.335314,11.0934405,"No.26, Jothipuram, Alankadu, Karuvampalayam, Tiruppur - 641604. ",Tiruppur,A/N.V.M.Kandasamy,8903621706,9677488688,"0421-4528330, 4355588, 9677455655",tkpmvktrust@gmail.com,
Asia,India,Tamilnadu,Coimbatore,Pollachi MVKM Trust,A.NO.133,76.99982044,10.66327594,"Dr.Sankunni Memorial Hospital Complex, East Gate, 17/36, Palakkad Road, Pollachi - 642 001. ",Coimbatore,A/N.K.Kumaraguru,9790277755,9942909090,"04259 - 224619, 9443510941",vethathirimaharisi123@gmail.com,
Asia,India,Tamilnadu,Perambalur,Perambalur MVKM Trust,A.NO.135,78.88089583,11.23447655,"Arivuthirukoil, Vethathiri Nagar, Palakarai, Thuraimangalam Post, Perambalur - 621 220.",Trichy,"A/N.S.Chandrasekaran, Nisha, sundar","9787775780, 8072649287.",9585500303,"04328-225446, 9585500303, 304, 301 ",perambalur.skyyoga@vethathiri.ac.in,
Asia,India,Tamilnadu,Viluppuram,Villupuram MVKM Trust,A.NO.136,79.48303772,11.94376483,"No.11, Advocate Nagar, Vandimedu, Villupuram - 605 602.",Viluppuram,A/N.V.Vivekanandan,9842097749,9443537921,"04146-250749, 9486282160",villupurammvkmtrust@gmail.com,vpm.vivek123@gmail.com
Asia,India,Tamilnadu,Kancheepuram,Kanchipuram MVKM Trust,A.NO.137,79.7036402,12.8341735,"54,Adhiyamaan Nagar, Kalainar Salai, Sevilimedu Post, Kanchipuram - 631 502.",Kancheepuram,A/N.S.Vetrichelvi,9789681628,9382839903,044-27237169,<kanchiarivuthirukovil@gmail.com,
Asia,India,Tamilnadu,Ranipet,Ranipetttai MVKM Trust,A.NO.139,79.3321115,12.9341127,"Jothi Vallalar Mandram, Sangam Street, Navalpur, Ranipet 632 402.",Thiruvannamalai,A/N.M.Dharmarajan,9486437373,-,-,sdeenadayalan777@gmail.com,
Asia,India,Tamilnadu,Trichy,Musiri MVKM Trust,A.NO.141,78.5618799,10.983455,"5, Cauvery Nagar, Bye Pass - T.Pet Road, Musiri 621 211, Tiruchy Dist.",Trichy,A/N.M.Pathmavathi,9788066261,9750411745,9486753097,musiri.skyyoga@vethathiri.ac.in,
Asia,India,Tamilnadu,Chidambaram,Chidambaram MVKM Trust,A.NO.144,80.1282852,13.1237533,"8, Melaveethi, (Near Kanchi Thotti Bus Stand), Chidambaram - 608001.",Viluppuram,A/N.N.R.Ravichandran,9363131000,9345171227,-,arivuthirukovilcdm@gmail.com,malathi.palanivelu@gmail.com
Asia,India,Tamilnadu,Thanjavur,Pattukottai MVKM Trust,A.NO.145,79.3095848,10.4293863,"47/F-55, R.R. Illam, Venkidachalam Nagar, Aranthangi Road, Pattukkottai 614 601.",Kumbakonam,A/N.M.Ramalingam,9444788358,9444788358,-,pktmvkmtrust@gmail.com,
Asia,India,Tamilnadu,Coimbatore,Somanur MVKM Trust,A.NO.147,77.19079863,11.08718892,"10/8, Mill Road, Somanur - 641668.",Coimbatore,A/N.R.Subramaniyam,9842902133,9578033889,-,somanurtrust147@gmail.com,
Asia,India,Tamilnadu,Chennai,Ambathur MVKM Trust,A.NO.150,80.1470326,13.1190942,"No.14/2 - C, Nainiammal Street, Krishnapuram, Ambathur, Chennai - 600053.",Thiruvallur,A/N.E.SEKAR,9884739875,9444797098,044-26585413,ambatturmvkm53@gmail.com,sekar.ekambaram@gmail.com
Asia,India,Tamilnadu,Chennai,D.M.S.MVKM Trust,A.NO.151,80.2455126,13.166812,"No.2673, LIG II, MMDA, Mathur, Manali, Chennai - 600068.",Chennai,A/N.K.Nagaraj,9841803882,-,044-25010142,raj27051964@gmail.com,
Asia,India,Tamilnadu,Coimbatore,Peelamedu MVKM Trust,A.NO.154,77.0034907,11.04152414,"C/o. A/N.R.Devilakshmi, Secretary, 239/94, LIG II, ""ARAVIND NIVAS"", Gandhi Managar, Peelamedu (Post), Coimbatore - 641 004.",Coimbatore,A/N.P.Saravanan,9789128293,9894821565,-,annbu54@gmail.com,
Asia,India,Tamilnadu,Salem,Edaippadi MVKM Trust,A.NO.155,77.8387867,11.5847632,"Kalai Arangam Theatre, 31-C, Davantheru, Edaipadi-637101. ",Salem,A/N.N.Devarajan,9842722905,7373099905,"04283 - 222905, 9842709969",sa.a155@vethathiri.ac.in,
Asia,India,Tamilnadu,Cuddalore,Neyveli MVKM Trust,A.NO.159,79.48680617,11.61136795,"D-4, Moon Street, Block-19, Neyveli - 607 803.",Viluppuram,A/N.K.P.Udayakumar,9442250921,9488788640,-,skyneyveli@gmail.com,neyvelimvkm2021@gmail.com
Asia,India,Tamilnadu,Namakkal,Komarapalayam MVKM Trust,A.NO.160,77.69742203,11.43523721,"45/1, Maharishi Nagar, Ayyan Thottam, Komarapalayam 638 183. Namakkal Dist.",Erode,Mohanamala,99424 74933,9842761111,-,malathi161176@gmail.com,
Asia,India,Tamilnadu,Nilgiris,Kollapalli MVKM Trust,A.NO.162,76.3292754,11.5251883,"No.6/119, 2, Kolapalli Main Road, Kollapalli, Pandalur.T.K - 643253.",Coimbatore,A/N.Rajaratnam,9487073080,9442081457,7538277759,arulbiomed123@gmail.com,
Asia,India,Tamilnadu,Viluppuram,Gingee MVKM Trust,A.NO.170,79.4113072,12.2524408,"No.1D, Vasudevan Street, Periyagaram, Gingee 604 202. ",Viluppuram,A/N.K.Balu,9486515239,9488526713,9486150017,ashokgomathi1981@gmail.com,gdurai29@gmail.com
Asia,India,Tamilnadu,Kangeyam,Kangeyam MVKM Trust,A.NO.172,77.5609843,11.0053238,"493/3, Arivuthirukoil, Udaiyar Colony, Covai Road, Kangeyam 638 701.",Tiruppur,A/N.P.Palanisamy,9443312885,9442247477,04257 - 224006,vethathirikangayam@gmail.com ,
Asia,India,Tamilnadu,Thoothukudi,Muthu Nagar MVKM Trust,A.NO.174,78.1222336,8.7039972,"C/o. A/N. S. Perumal, 5/248, E-11,Thangamani Nagar,1st Street, Muthaiyapuram Post,Thoothukudi - 628005.",Virudhunagar,A/N.RADHA KRISHNAN,9566406638,8778737715,9944002438,muthunagarmvkm@gmail.com,
Asia,India,Tamilnadu,Thoothukudi,Thoothukudi MVKM Trust,A.NO.177,78.1165309,8.7849243,"No.5/239, C-1, NGO Colony 3rd Extn, Ganesh nagar, Thoothukudi - 628008",Virudhunagar,S. Marriappan,9486453540,9444566849,9443120466,toc.tuticorinmvkm@gmail.com,marriappansethu@gmail.com
Asia,India,Tamilnadu,Namakkal,Rasipuram MVKM Trust,A.NO.178,78.1906417,11.4545086,"M/s.Soundhars Vet Agencies, 1B, Kattur Kattu Kottai, 1B Kattur Road, Rasipuram T.K., Namakkal Dist 637 408.",Salem,A/N.M.Soundararajan,9791200724,9345541669,04287-224905,sa.a178@vethathiri.ac.in,
Asia,India,Tamilnadu,Erode,Ammapet MVKM Trust,A.NO.185,77.7409162,11.6213431,"GG Complex, Main Road,vethathiri kudil ,Ammapettai-638311",Erode,Kanagaraj ,99650 81074,9443948101,9688672561,kanagaraj.v2@gmail.com,
Asia,India,Tamilnadu,Karur,Karur MVKM Trust,A.NO.187,78.06514977,10.96274775,"No.142, LGB Nagar, Karur - 639002.",Erode,A/N.K.Balasubramanian,9360133738,9843297297,"04324 - 248230, 9443287289 ",arivuthirukoilkarur@gmail.com,
Asia,India,Tamilnadu,Chennai,Saidapettai MVKM Trust,A.NO.189,80.2231266,13.0212991,"Door No.21/12, Ethiraj-Amirtha Valli Illam, Mosque Street, West Saidapet, Chennai - 600 015.",Chennai,A/N.T.E.Srinivasan,9790847120,-,-,-,
Asia,India,Tamilnadu,Thiruvannamalai,Thiruvannamalai MVKM Trust,A.NO.190,79.05848082,12.26205121,"Vethathiri Nagar, Kanchi Road,(Near Kubaraperrumal Koil), Thiruvannamalai T.K. 606 604.",Thiruvannamalai,A/N.S.Dhamodharan,9443227181,9842341014,9443492347,tv.a190@vethathiri.ac.in,
Asia,India,Tamilnadu,Virudhunagar,Virudunagar MVKM Trust,A.NO.191,77.960239,9.574156,"5/736, Nethaji Street, NGO Colony West, Madurai Road, Virudunagar 626 001.",Virudhunagar,"A/N.K.Ramanathan,    N. Maheswari ",9751448248,9585418720,9092427487,mvkmviruthunagar@gmail.com,srihari200035@gmail.com
Asia,India,Tamilnadu,Chennai,Chepaukkam MVKM Trust,A.NO.192,80.2805753,13.0639677,"C/o.S.Palaniyammal, Office of the Chief Engineer PWD, Plan Formulation Office, Chepaukkam, Chennai 600 005.",Chennai,A/N.Er.R.Jeyaprakasam,9962752722,9444453391,9865235689,-,
Asia,India,Tamilnadu,Chennai,Jawahar Nagar MVKM Trust,A.NO.193,80.22702245,13.1248748,"Neltex Hall, B - 90, 1st Main Road, Jawahar Nagar, Chennai - 600082. ",Chennai,A/N.K. Selvamuthiah,9840705118,9444246694,044-26702433,-,
Asia,India,Tamilnadu,Kallakuruchi,Kallakuruchi MVKM Trust,A.NO.194,78.96537282,11.73615498,"Flat No.78, Sakthi Nursing Home, Sundara Vinayagar Koil St, (Near Mahalakshmi Theater), Kallakurichi-606202. ",Viluppuram,A/N.Venkatasubramaniyan,9789226027,8056891499,9994129405,udhay_natesan@yahoo.com,venkatsudar67@gmail.com
Asia,India,Tamilnadu,Trichy,Manaparai MVKM Trust,A.NO.195,78.6304128,10.5086096,"262, Indira Nagar, Manapparai 621 306.",Trichy,A/N.A.Varadharajan,9543435535,9942193640,04332-260001,Manachanallur.skyyoga@vethathiri.ac.in ,
Asia,India,Tamilnadu,Thanjavur,Thanjai MVKM Trust,A.NO.196,79.1265161,10.7747496,"Vethathiri Kudil, 14,Srinivasa Nagar, Co-Operative Colony Salai, Thanjavur - 613007.",Kumbakonam,A/N.K.Saravanan,9443586068,9843385133,-,thanjaimvkmtrust@gmail.com,
Asia,India,Tamilnadu,Udumalai,Udumalai MVKM Trust,A.NO.197,77.24894438,10.59733959,"Lakshmi Nagar Bus Stop, Tiruppur Road, Eripalayam, Udumalapet 642 126.",Tiruppur,A/N.A.Rajaram,9443216586,-,-,sky.udt@gmail.com,
Asia,India,Tamilnadu,Thirunelveli,Courtallam MVKM Trust,A.NO.198,77.5301671,8.7330148,"Arun Illam, 47/31-A, Kamaraj Nagar, Pavoorchathiram, Tirunelveli - 627 808.",Thirunelveli,A/N. A.Annaamalayor,9443496949,9597406769,-,cmvkm1@gmail.com ,annaamalayor@gmail.com 
Asia,India,Tamilnadu,Thiruvarur,Valangaimon MVKM Trust,A.NO.199,79.3950559,10.8892374,"No.32, Chetti Street, Valangaimon - 612804.",Kumbakonam,A/N.V.Rathinasabapathy,9894421065,8608799161,-,valangaimaanmvkmtrust@gmail.com,
Asia,India,Tamilnadu,Chennai,Velachery MVKM Trust,A.NO.200,80.2239905,12.9817507,"Sai Akil - 4/3, Dr.Seethapathi Nagar, Fourth Cross Street, Velachery, Chennai 600 042.",Chennai,A/N.S.Gnanasambandan,9444412471,-,044-22433593,sgsambandam@ahoo.com,
Asia,India,Tamilnadu,Puthukottai,Aranthangi MVKM Trust,A.NO.202,79.3122327,10.4245778,"11C, L.N. Puram-1, Aranthangi - 614 616.",Trichy,"A/N.A.Nehru, suresh",9894466219,9894466219,",9942502224",aranthangi.skyyoga@vethathiri.ac.in,
Asia,India,Tamilnadu,Chennai,Ullagaram MVKM Trust,A.NO.204,80.1959771,12.9775419,"No.14, Sabapathy St, Narmatha Nagar, Ullagaram, Chennai - 600091. ",Kancheepuram,A/N.D.Shanthi,9444627940,9840139536,-,umkm2003@gmail.com,
Asia,India,Tamilnadu,Chennai,Avadi MVKM Trust,A.NO.205,80.1146751,13.1106305,"Dhanagiri"", No.11, 5th St, J.B.Estate, Avadi, Chennai 600 054. ",Thiruvallur,A/N.SRIDHAR,9443399045,7708413461,-,avadimvkm@gmail.com,
Asia,India,Tamilnadu,Virudhunagar,Sathur MVKM Trust,A.NO.206,77.9110321,9.3644204,"11/25, Murugam Koil North Mada St, Sathur - 626203. ",Virudhunagar,A/N.M.Rajasudalaimuthu,9442060592,-,04562 - 260077,satturmvkm@gmail.com;,
Asia,India,Tamilnadu,Chennai,Chennai Kuyapet MVKM Trust,A.NO.209,80.25483561,13.09746208,"No.52, Kandasami Koil Street, Kuyapet, Chennai - 600012.",Chennai,A/N.Srini.Elangovan,9381881102,9444275746,"044-26620903, 9841901035",sgsambandam@ahoo.com,
Asia,India,Tamilnadu,Vellore ,Ambur MVKM Trust,A.NO.210,78.7129248,12.787257,"C/o.P.S.Jayavel, Secretary, No.9/3 B, Old Hospital Street, Krishnapuram, Ambur - 635802.",Thiruvannamalai,A/N.K.Baskaran,9444636971,9443145480,-,seenielangovan@gmail.com,sivavalamudan@gmail.com
Asia,India,Tamilnadu,Hosur,Krishnagiri MVKM Trust,A.NO.211,78.2146607,12.5283577,"No.43/55, 1st Cross, Jakkappan Nagar, Krishnagiri - 635 001.",Hosur,A/N.T.K.Shanmugam,9787708306,9843690051,"04343 - 232112, 225905 ",sa.a211@vethathiri.ac.in,sharpsudharsan@gmail.com
Asia,India,Tamilnadu,Salem,Salem Dadagapatti MVKM Trust,A.NO.212,78.1521676,11.6330913,"6th Mariamman Koil Street, (SBI Backside), Dadagapatti, Salem - 636006.",Salem,Prof.A/N.T.P.R.Palanesamy,9790004494,-,0427 - 2465286,Sa.a 212@vethathiri.ac.in,
Asia,India,Tamilnadu,Salem,Salem Kitchipalayam MVKM Trust,A.NO.213,78.16852901,11.6458508,"149A, I Floor, 3rd Cross V.O.C. Nagar, Kichipalayam, Salem - 636 015.",Salem,A/N.V.Manoharan,9487997175,9488067122,0427-2267122,sa.a213@vethathiri.ac.in,
Asia,India,Tamilnadu,Puthukottai,Puthukottai MVKM Trust,A.NO.214,78.8208454,10.379663,"C/o.A/N.V.Veeramuthu, Secretary, Vazhga Valamudan, 4, Thillai Nagar, Pudukottai - 622004. ",Trichy,A/N.V.R.A.Chidambaram,9444873349,9750103534,-,sa.a218@vethathiri.ac.in,kumarchinnasamy06@gmail.co
Asia,India,Tamilnadu,Madurai,Devakottai MVKM Trust,A.NO.215,78.8195429,9.9463215,"No.74, Thiyagikal Road, Devakottai - 630302. ",Madurai,A/N.Srithar,9786848415,9787291477,,sa.a243@vethathiri.ac.in,
Asia,India,Tamilnadu,Coimbatore,Sirumugai MVKM Trust,A.NO.216,77.00902289,11.3226504,"C/o. 42/25.I, Jeevan Nagar, Sirumugai, Mettupalayam, Coimbatore - 641302.",Coimbatore,A/N.N.C.Samraj,9750550308,9942280008,-,thilagamramalingam1@gmail.com,
Asia,India,Tamilnadu,Thiruvannamalai,Polur MVKM Trust,A.NO.217,79.1293743,12.5083373,"Vazhga Valamudan Santhosh Illam, 14/A, Dr.Radakrishnan Street, Diversion Road, Polur, Thiruvannamalai - 606 803. ",Thiruvannamalai,A/N.G.Palani,8667809300,9940884250,-,ravis4546@gmail.com,
Asia,India,Tamilnadu,Hosur,Kaveripattinam MVKM Trust,A.NO.218,78.2174435,12.4214652,"No.9/182, 1 st Cross Street, Thomson pettai, Kaveripattinam - 635112.",Hosur,A/N.C.Kumar,9952373241,9952373241,-,sa.a218@vethathiri.ac.in,kumarchinnasamy06@gmail.co
Asia,India,Tamilnadu,Dharapuram,Dharapuram MVKM Trust,A.NO.220,77.52154484,10.73680545,"Viji illam, No. 2, N.G.G.O. Colony, Pollachi Road, Dharapuram - 638656.",Tiruppur,A/N.P.Rathinambal,9442988979,-,04258 - 223689,sa.a459@vethathiri.ac.in,
Asia,India,Tamilnadu,Kancheepuram,Thirukazhukundram MVKM Trust,A.NO.222,80.05622954,12.60910266,"No.21, Kammalar Veedhi, Thirukkazhukkundram, Kanchipuram - 603109.",Kancheepuram,A/N.S.Kanniyappan,9944018672,9865444974,9994122360,kanniappan14@gmail.com,
Asia,India,Tamilnadu,Vellore ,Vellore Sankaranpalayam MVKM Trust,A.NO.226,79.1293028,12.8932703,"2/17, Kambar Street, Ezhil Nagar, Thorappadi Post, Vellore 632 002.",Thiruvannamalai,A/N.R.Aruljothi,9443437830,-,-,snpalayam.mvkmtrust@gmail.com,
Asia,India,Tamilnadu,Thiruvannamalai,Cheyyar MVKM Trust,A.NO.227,79.5424,12.658,"C/o.A/N.R.Ashok, Secretary, No.32/3, Vetri Xerox, Head Post office Opp, Cheyyar-604407.",Thiruvannamalai,A/N.K.Perumal,9443691344,9443168011,9047251377,ashok_77@yahoo.co.in,
Asia,India,Tamilnadu,Erode,Anthiyur MVKM Trust,A.NO.230,77.58285823,11.57411095,"23/8,siva sakthi nagar, anthiyur -638501",Erode,shanmugam,99763 42566,9442962126,-,er.shanmugam@gmail.com,
Asia,India,Tamilnadu,Puthukottai,Manalmelkudi MVKM Trust,A.NO.231,78.9910186,10.1712695,"No.1346, Jagadeshwar Koil St, Kulachiraiyar Nagar, Manamelkudi, Pudukkottai - 20. ",Trichy,A/N.R.Alaguraj,9865731397,9976782095,-,manamelkudi.skyyoga@vethathiri.ac.in,
Asia,India,Tamilnadu,Erode,Chennimalai MVKM Trust,A.NO.232,77.5963271,11.1627122,"52, mariamman kovil street , chennimalai-638051",Erode,Leelavathi, 98433 27456,9842731655,-,er.a232@vethathiri.edu.in,
Asia,India,Tamilnadu,Tiruppur,Avinashi MVKM Trust,A.NO.233,77.27064658,11.17234541,"10/214, Mamarathottam, Kacheri Veethi, Avinashi 641 654.",Tiruppur,A/N.P.Rajkumar,9443240177,9842726154,9842252259,wcscavi@gmail.com,
Asia,India,Tamilnadu,Theni,Cumbam MVKM Trust,A.NO.234,77.2807423,9.7344265,"No.516-C/10, Kumili Main Road, Cumbum - 625516. ",Dindigul,APR..S.Santhiya,9790017866,9442114411,9942729602,tct.cumbum05@gmail.com,
Asia,India,Tamilnadu,Chennai,Chetpet MVKM Trust,A.NO.236,80.2423951,13.0724408,"No.3/1, (7), Ranganathapuram St, Chetpet, Chennai - 600031.",Chennai,A/N.D.Avinashilingam,9444218837,-,044-28361075,-,
Asia,India,Tamilnadu,Chennai,Chennai Adambakkam Lake View MVKM Trust,A.NO.237,80.21402357,12.96590532,"Chennai Maanagar Arivuthirkkoil, 358, Vallal Kari Street, Srinivasa Nagar, Kaiveli, East Madipakkam, Chennai 600 091. ",Chennai,A/N.Dr.S.Sekhar,9444165220,9445216732,044-48607732,calmtrustyyoga@gmail.com,
Asia,India,Tamilnadu,Chennai,Madipakkam Thilagar Avenue MVKM Trust,A.NO.239,80.1999234,12.967373,"C/o.A/N.K.Ekambaram, Secretary, P.No.152. A, 6th Cross St, Thilagar Avenue, Balaiah Garden, Madipakkam, Chennai - 600091.",Kancheepuram,A/N.E.Rajeshwari,9841928482,-,044-22422236,madipakkammvkmtrust@yahoo.in,
Asia,India,Tamilnadu,Chennai,Kunrathur MVKM Trust,A.NO.240,80.0972003,12.997668,"C/o.A/N.S.Sekar, No.26, Muslim Street, Kunrathur, Chennai - 600069.",Kancheepuram,A/N.G.Kuppusami,9283125331,9444025695,-,kunrathurmvkm@gmail.com,
Asia,India,Tamilnadu,Thiruvannamalai,Arni Kosapalayam MVKM Trust,A.NO.242,79.28,12.67,"Thachoor Road, Anjaneyar Temple Complex, Arni - 632301. ",Thiruvannamalai,A/N.Chan Bahsa,9944665477,9842329775,-,arnimvkm@gmail.com,arnimandram@gmail.com
Asia,India,Tamilnadu,Dharmapuri,Marandahalli MVKM Trust,A.NO.243,77.9852853,12.3874801,"C/o.Dr.G.kannan, BDS, Malar Dental Clinic, Main Road, Marandahalli, Dharmapuri Dt - 636806",Hosur,A/N.M.Savithiri,9360652602,-,-,sa.a243@vethathiri.ac.in,
Asia,India,Tamilnadu,Thanjavur,Thanjai Nagara MVKM Trust,A.NO.244,79.1385422,10.7750825,"No.6, St.Saviour I.T.I. Complex, Trichy Main Road, Thanjavur 613 001.",Kumbakonam,A/N.A.Arokyasamy,9842434568,9943160606,"04362 - 231568, 234568",tnjnagarammvkmtrust@gmail.com,
Asia,India,Tamilnadu,Salem,Sankakiri MVKM Trust,A.NO.246,77.87552829,11.47758837,"upstairs to bangaru jewellers, opp to girls high school ,new idapadi road,sankakiri-637301",Erode, Bhuvaneshwari,9443252885,9442372527,-,bhuvanasaravanan73@gmail.com,
Asia,India,Tamilnadu,Salem,Athur MVKM Trust,A.NO.247,78.5989184,11.5962937,"C/o.A/N.S.Subramanian, Secretary, 468, Jothi Mill Street, Jothi Nagar, Athur 636 102. ",Salem,A/N.P.Kannan,9486057420,9842740338,9443920703,sa.a247@vethathiri.ac.in,
Asia,India,Tamilnadu,Sivagangai ,Tiruppattur MVKM Trust,A.NO.248,78.61956213,10.12317008,"Lakshmi Nursing Home, Madurai Road, Tiruppathur, Sivagangai - 630211. ",Madurai,A/N.Subbiah,9443919937,9443126732,-,majesticsubbiah@gmail.com,
Asia,India,Tamilnadu,Vellore ,Sathiya Nagar MVKM Trust,A.NO.250,79.1412823,12.955243,"452, O.C. Perumal Nagar, Gandhi Nagar Post, Vellore 632 006.",Thiruvannamalai,A/N. K. Sankaranandhan,9345318692,9944510430,0416-2249060,sankaranandam52@gmail.com,
Asia,India,Tamilnadu,Puthukottai,Pudukkottai Vellaru MVKM Trust,A.NO.252,78.8076353,10.3870469,"No.21, Karpaga Nagar, Vattapatti Road, Rajagopalapuram Post, Pudukkottai - 622 003.",Trichy,"A/N chellapan, emarani",9442622046,6382778283,-,vellaru.skyyoga@vethathiri.ac.in,
Asia,India,Tamilnadu,Ranipet,Arakkonam Town MVKM Trust,A.NO.254,79.66645257,13.08402007,"No.7/15, Vellaikkulam 4th street, Arakkonam - 631001",Thiruvallur,A/N.T.SEKAR,9443641857,9443628324,-,thandavarayansekar@gmail.com,
Asia,India,Tamilnadu,Chennai,Pazhavanthangal MVKM Trust,A.NO.255,80.2694467,13.0527653,"No.7, Venkatachalam street, Pazhavanthangal, Chennai - 600114. ",Kancheepuram,A/N.N.Dayalan,9840148924,-,044-22347844,dhayaalan2011@gmail.com,
Asia,India,Tamilnadu,Salem,Tharamangalam MVKM Trust,A.NO.256,77.98,11.7,"Samipattarai, 6th Ward, Vannara street, Tharamangalam, Salem - 636502. ",Salem,A/N.A.Sarangalingam,9944233399,9092837730,-,sa.a256@vethathiri.ac.in,
Asia,India,Tamilnadu,Thanjavur,Peravoorani MVKM Trust,A.NO.257,79.1031242,10.2251867,"Arivuthirukoil, Puthu Road, Sathiyamoorthy Nagar, Peravoorani 614 804.",Kumbakonam,A/N.Rama.Veerasingam,9442247656,9442247656,-,peravurani.mvkmtrust@gmail.com,
Asia,India,Tamilnadu,Dharmapuri,Papparapatti MVKM Trust,A.NO.258,78.055207,12.2087989,"C/o.A.Devarajan, Master In-Charge, K.P. Ramasamy Mudhali Street, Papparapatti Post 636 809. Pennagaram T.K., Dharmapuri Dist.",Hosur,A/N.K.Narasiman,8124769413,9150630654,-,sa.a258@vethathiri.ac.in,
Asia,India,Tamilnadu,Vellore ,Sholinghur MVKM Trust,A.NO.259,79.4224221,13.1158121,"C/o.A/N.N.Chidambaram, No.59, Senghunthar Big Street, Solingar & P.O - 631102.",Thiruvannamalai,A/N.V.Krishnan,9443965069,9843706695,9843228629,yuvaraj9003366@gmail.com,gnanam.yojit@gmail.com
Asia,India,Tamilnadu,Salem,Attayampatti MVKM Trust,A.NO.261,78.046111,11.531389,"31, K.V.A. Arthanari Street, Velanatham, Attayampatti (P.O), Salem - 637 501. ",Salem,A/N. V.Balasubramaniyan,9443347121,9443076176,-,sa.a261@vethathiri.ac.in,
Asia,India,Tamilnadu,Vellore,Meleri MVKM Trust,A.NO.262 (Post only),79.6558242,13.0752392,"No.4/65 Bajanai Koil St, Meleri Village & Po, Arakonam Taluk, Vellore Dt - 632502.",Thiruvallur,A/N.B.VIVEKANANDHAN,9025748227,9380447242,-,vivekanandanb1963@gmail.com,
Asia,India,Tamilnadu,Chennai,Muthamizh Nagar MVKM Trust,A.NO.263,80.2495922,13.1357061,"No.7/289, North Avenue Street, Muthamizh Nagar, Chennai - 600118.",Chennai,A/N.C.M.Lakshmanan,9043047585,-,044-43800638,-,
Asia,India,Tamilnadu,Chennai,Chenkundram MVKM Trust,A.NO.264,80.291872,13.0998554,"6, Abdul Marakayar Street, Chenkundram, Chennai - 600052. ",Thiruvallur,A/N.R.MOORTHY,9840042724,9841456072,-,sengundrammvkmtrust@gmail.com,
Asia,India,Tamilnadu,Vellore ,Vellore Sakthi Nagar MVKM Trust,A.NO.266,79.165278,12.943333,"Opp. A.L-7, Bharathi Nagar 1st Street, Phase III, Vallalar Sathuvachari, Vellore 632 009.",Thiruvannamalai,A/N.K.Chandran,9443098990,9500330700,9994746986,gramgas@gmail.com,
Asia,India,Tamilnadu,Trichy,Thuraiyur MVKM Trust,A.NO.267,78.4971438,11.2953768,"No.1284K, Chithiraipatti Village, Madurapuri Post, Musiri Road, Thuraiyur 621 010, Tiruchy Dist.",Trichy,"A/N sivanamurthi , Balasubrmanian",9994397967,8489972205,,thuraiyur.skyyoga@vethathiri.ac.in,
Asia,India,Tamilnadu,Thiruvarur,Ullikottai MVKM Trust,A.NO.269,79.4162448,10.592771,"1/375, Main Road, Ullikottai 614 018. Mannargudi T.K., Thiruvarur Dist.",Kumbakonam,A/N.T.Balasaminathan,9443865677,9443865677,-,udhayakumar12564@gmail.com,
Asia,India,Tamilnadu,Chennai,Chrompet Umayalpuram MVKM Trust,A.NO.270,80.1909588,12.9822107,"Plot No.9, Athirai Street, Umayalpuram, Chromepet, Chennai - 600 044.",Kancheepuram,A/N.Rama.Sundaresan,9840205758,9940486809,"044-22410634, 9940486809, 9840205758, 9444570398",vw040umayalpuram@gmail.com,
Asia,India,Tamilnadu,Chennai,Saidapet Jones Road MVKM Trust,A.NO.271,80.1391395,13.1180685,"Brindhavan Illam, No.45/ 17 & 18. Jones Road, Saidapet, Chennai - 15.",Chennai,A/N.V.S.Karunagaran,9789078901,9444102603,"044-23813660, 9080888883",jrmmtrust@gmail.com,
Asia,India,Tamilnadu,Viluppuram,Tirukovilur MVKM Trust,A.NO.273,79.2086621,11.9687124,"Sri Gnanantha School Campus, Mela veedhi, Thirukovilur - 605757.",Viluppuram,A/N.Kesavan,9442471098,,-,kamalasekaran84@gmail.com,
Asia,India,Tamilnadu,Ramanathapuram,Ramanathapuram Velipattinam MVKM Trust,A.NO.274,78.1279609,9.9388976,"22, Avaiyar Street, Ramanathapuram - 623 501.",Madurai,A/N.R.B.Ravi,9843669766,9843222906,-,rmdwater@gmail.com,
Asia,India,Tamilnadu,Chennai,Porur Sakthi Nagar MVKM Trust,A.NO.275,80.1630924,13.0289437,"Plot No.40, Ganesh Avenue ( Extn), Sakthinagar, Porur, Chennai - 600 116.",Thiruvallur,A/N. RAGAVENDRAAMMA ,9444589137,9789920656,044-22522001,skyyogapour@gmail.com,
Asia,India,Tamilnadu,Viluppuram,Tindivanam MVKM Trust,A.NO.276,79.218248,12.249181,"No.139, Prakasapuram, Mannar Samy Koil, Tindivanam - 604002.",Viluppuram,A/N.R.Asaithambi,9443422408,8610681392,-,asainaturalyoga@gmail.com,
Asia,India,Tamilnadu,Trichy,Srirangam MVKM Trust,A.NO.277,78.6488324,10.8658734,"No.3A/1, Railway station Road, Srirangam - 620006. ",Trichy," A/N sivakumar,Rajesh","8903300448, 9943861336",9443106922,"0431-2433823, 2431275",srirangam.skyyoga@vethathiri.ac.in,
Asia,India,Tamilnadu,Ranipet,Arcot MVKM Trust,A.NO.278,79.3249221,12.9105318,"Aroct TOC, Devi Nagar, Sri Ramakrishna Metric Hr.Sec.School, Arcot - 632503.",Thiruvannamalai,A/N.S.Janahiraman,9443336852,9994975744,-,bharathiyoga82@gmail.com,t.ashok1983@gmail.com
Asia,India,Tamilnadu,Theni,Bodi Nayakanur MVKM Trust,A.NO.279,77.28025132,9.897590469,"13/10,23w,ZKM English School Backside, Bodi Nayakanur 625 513, Theni Dist.",Dindigul,PRO.S.Sivaraman,9842648698,8760564392,-,tct.bodi02@gmail.com,
Asia,India,Tamilnadu,Thanjavur,Ammapet MVKM Trust,A.NO.282,77.7409162,11.6213431,"66/4, Kothandaramasamy Koil St, Ammapet (P.O), Papanasam (T.K)., Thanjavur - 614401.",Kumbakonam,PRO.S.Sivaraman,9944668872,9486408369,94432392412,ammapettaimvkmtrust@gmail.com,
Asia,India,Tamilnadu,Salem,Salem Karungalpatti MVKM Trust,A.NO.283,78.1535928,11.6345481,"A/N.G.Mallaswaran, Secretary, 41/13, 3rd North Muniyappan Koil Street, Karungalpatti, Salem - 636 006.",Salem,A/N.A.Dhanakotti,9994113672,8754037270,9443041261,sa.a283@vethathiri.ac.in,
Asia,India,Tamilnadu,Chennai,Thiruvanmiyur MVKM Trust,A.NO.284,80.26243082,12.98486575,"No.14-B, CGE Colony, (Near Bhavani Medai), Thiruvanmiyur Kuppam Beach Road, Thiruvamiyur, Chennai - 600 041.",Chennai,A/N.B.Shanmuga Velayudam,9840062350,9940217518,044:42300194,attvmvkmtrust@hotmail.com,
Asia,India,Tamilnadu,Erode,Sivagiri MVKM Trust,A.NO.286,77.7846452,11.1176205,"No.6, Bharathi Street, Sivagiri 638 109. Erode Dt.",Erode,A/N.A.Rajendran,9942443800,9865778900,-,cablerasu@gmail.com,
Asia,India,Tamilnadu,Thirunelveli,Vallioor MVKM Trust,A.NO.287,77.6097164,8.3771142,"No.18,T.B.Road, Kamaraj Nagar, Vallioor - 627117.",Thirunelveli,A/N.A.S.Gnanasekar,9443160655,9750864083,7639929933,manoharang1962@gmail.com,vijayalatha304@gmail.com
Asia,India,Tamilnadu,Nilgiris,Jegathala MVKM Trust,A.NO.288,76.7336521,11.4916043,"No.4/233, Jegathala Villager & Post, The Nilgiris - 643 202.",Coimbatore,A/N..B.Bellan,8903286862,7639768852,-,rajbheeman@gmail.com,
Asia,India,Tamilnadu,Tiruppur,Koduvai MVKM Trust,A.NO.289,77.43759796,10.94335304,"No.3/222/5, Maharishi Nagar, Nachiyarpalayam Road, Koduvai 638 660, Thirupur Dt.",Tiruppur,A/N.K.Arulkumar,9842220222,9976468900,-,koduvaiaarivuthirukovil@gmail.com ,
Asia,India,Tamilnadu,Madurai,Usilampatti MVKM Trust,A.NO.291,77.7913234,9.9614628,"Homeo Clinic, Nadan New St, Usilampatti, Madurai - 625532.",Madurai,A/N.Dr.A.Kannan Prasanna,9894329602,9751223030,04552 - 250228,likegodgift@gmail.com -,
Asia,India,Tamilnadu,Erode,Gopichettipalayam MVKM Trust,A.NO.292,77.4357739,11.4673663,"arivuthiru koil , balavidhya school thavamaiyam, puthusamy koil street, gobichettipalayam, erode-638452",Erode,A/N.K.P.Natarajan,9442550403,9789066595,-,gobimvkmtrust292@gmail.com,
Asia,India,Tamilnadu,Chennai,Guindy Secretariate Colony MVKM Trust,A.NO.293,80.2091297,12.9973507,"No.16/4, Gopalakrishnan St, Ganesh Nagar, Guindy, Chennai - 600032. ",Chennai,A/N.R.Padmavathi,9444491300,-,-,-,
Asia,India,Tamilnadu,Vellore ,Katpadi MVKM Trust,A.NO.294,79.5752867,10.4712297,"Saravanabalaj Constraction, No.31.V.A.F.Complex (2 Floor), Cithur main road, Katpadi, Vellore - 632007",Thiruvannamalai,A/N.S.Manokaran,9443800057,-,-,manomugam@gmail.com,
Asia,India,Tamilnadu,Cuddalore,Thirupathiripuliyur MVKM Trust,A.NO.297,79.7516783,11.7373813,"No.31/28, Kurunji St, Siva Nagar, Vandipalayam Road, Cuddalore - 607004.",Viluppuram,A/N.Geetha,9629308182,9443435455,-,geethurajagopal1@gmail.com,mahasrini1@gmail.com
Asia,India,Tamilnadu,Thiruvarur,Thiruvarur MVKM Trust,A.NO.298,79.5216644,10.7173564,"7A-2, Javulikara Street, Thiruvarur 610 001.",Kumbakonam,A/N.S.Muthu,9443585894,9443585894,-,tvrmvkmtrust@gmail.com,
Asia,India,Tamilnadu,Chennai,Mandaveli MVKM Trust,A.NO.300,80.2591371,13.0223022,"No.8/68, adaijan Mudalai St, Chennai - 600028.",Chennai,A/N.S.K.S.Madhan Mohan,9952099622,9962510617,044-24610617,-,
Asia,India,Tamilnadu,Chennai,Royapuram MVKM Trust,A.NO.302,80.24273581,12.85334097,"56/110, east madha kovil st, rayapuram, Chennai 600013.",Chennai,A/N.D.Sasikala,9600198083,-,-,sasikaladesingh@gmail.com,
Asia,India,Tamilnadu,Thoothukudi,Kovilpatti Alaguvel Nagar MVKM Trust,A.NO.303,77.8667271,9.1754455,"No.386, Main Road, Sri Raja Meera Gold 1 st Floor, Near Town Bus Stand, Kovilpatti - 628501. ",Virudhunagar,A/N.V.R.Natarajan,9442248864,-,04632-227746,alaguvelnagarmvkm@gmail,
Asia,India,Tamilnadu,Dharmapuri,Dharmapuri Bharathipuram MVKM Trust,A.NO.304,78.13623277,12.1065271,"66 Feet Road, (Near Tamil Nadu Warehousing Corporation Limited), Dharmapuri 636 705.",Hosur,A/N.K.Mathulingam,9442633055,9442533745,9486584299,sa.a304@vethathiri.ac.in,thanigaivelm3@gmail.com
Asia,India,Tamilnadu,Coimbatore,Sulur MVKM Trust,A.NO.305,77.1303669,11.01674378,"No.12/3 D, German Garden, Kalangal Pathai, Sulur - 641402.",Coimbatore,A/N.S.V.Nagarajan,9865902879,9842207767,9843364242,vetrixeroxsulur@gmail.com,
Asia,India,Tamilnadu,Ariyalur,Ariyalur MVKM Trust,A.NO.306,79.93585016,12.97609579,"C/o.A/N.P.Sumathy, Secretary, Sumathy Physiotherapy Clinic, Near Vasan Medical, Kailasanathar Koil Street, Theradi, Ariyalur - 621 704.",Trichy,"A/N.A.P.N.Suthakar ,sumathi","9443807475, 9443807475",8428413645,9487522693,ariyalur.skyyoga@vethathiri.ac.in,
Asia,India,Tamilnadu,Thirunelveli,Perumalpuram MVKM Trust,A.NO.308,77.7388258,8.7109497,"6/7, 2nd St, Perumalpuram, Tirunelveli - 627007.",Thirunelveli,A/N.A.Ramasamy,9488353238,6381781313,9366720589,mvkmtrustperumalpuram@gmail.com ,
Asia,India,Tamilnadu,Dindigul,Oddanchatram MVKM Trust,A.NO.309,77.9271895,10.5246647,"Vethathiri nagar Gandhi Market, Byepass Road Oddanchatram 624 619.",Dindigul,PRO.B.Duraisami,9659321952,9965143366,-,tct.odc08@gmail.com,
Asia,India,Tamilnadu,Chennai,Ice House MVKM Trust,A.NO.310,80.2744871,13.0494547,"N.No.75, Dr.Nadesan Salai, Ice House, Triplicane, Chennai - 5.",Chennai,A/N.D.Vijaya Ramakrishna,9444010343,9445181810,044-28445654,vijayaraamakrishnaa@gmail.com,
Asia,India,Tamilnadu,Chennai,Manali New Town MVKM Trust,A.NO.311,80.2776126,13.2032738,"No.2/6, Jayagopal Garodia (Near), Near Manali Pudhu Nagar, Chennai-600103.",Thiruvallur,A/N.E.NALINI,9941546376,-,-,nalinielumalai79@gmail.com,
Asia,India,Tamilnadu,Chennai,Mathur MMDA MVKM Trust,A.NO.312,80.2497646,13.1696082,"C/o.N.Kirubhakaran, Secretary, No.2377, 3rd Main Road, Mathur, Chennai - 600 068.",Thiruvallur,A/N.KIRUBAKARAN,9941106793,9841885418,8939535947, luck.babu@gmail.com, ars6266@gmail.com 
Asia,India,Tamilnadu,Thiruvallur,Thiruvallur MVKM Trust,A.NO.313,80.2336219,13.0361067,"Old No.4/4, New No.75, C.V. Naidu Salai, 2nd floor, Thiruvallur - 602 001.",Thiruvallur,A/N.K.SRINIVASAN,9952081335,9791317611,9786399866,skytmvk2006@gmail.com,
Asia,India,Tamilnadu,Chennai,Mangadu MVKM Trust,A.NO.315,80.1076117,13.0321616,"Plot No.4, 2nd Cross Sundaresan St., Sri Chakra Nagar, Mangadu, Chennai 602 101.",Kancheepuram,A/N.AVR.Kavin Sandron,9940473055,-,-,mangaduskyyoga@gmail.com,revathy0070@gmail.com
Asia,India,Tamilnadu,Thiruvallur,Minjur MVKM Trust,A.NO.316,80.264654,13.267701,"C/o.A.Ramani, Secretary, No.4, Nehru Street, Pachaiamman Nagar, Minjur - 601 203, Ponneri Taluk, Tiruvallur Dt.",Thiruvallur,A/N.RA.VENKATESAN,9444282768,8144933282,-,vengateshanvenkat22126@gmail.com,ramvenkat924@gmail.com
Asia,India,Tamilnadu,Chennai,Poonthamallee MVKM Trust,A.NO.317,80.10024886,13.05723978,"No.19, Maran Nagar Anex, Poonthamallee, Chennai - 600056.",Thiruvallur,A/N.G.SEMBIAN,9444145519,9841715735,,poovaimvkm@gmail.com,
Asia,India,Tamilnadu,Namakkal,Pallipalayam MVKM Trust,A.NO.318,77.7538955,11.3578374,"Vethathiri Nagar, Near Krishnaveni Kalyana Mandapam, Paper Mill Road, Pallipalayam 638 006.",Erode,Ragunathan,9842060900,98949 23122,-,spraguvanavasi@gmail.com,
Asia,India,Tamilnadu,Erode,Dhandampalayam MVKM Trust,A.NO.319,77.73799789,11.09719051,"No.107/67, Main Road, Dhandampalayam (PO), Sivagiri - 638 109. Erode Dt.",Erode,sasikumar,91500 34344,8754632613,"9843222747, 9788904425",gmntindia@gmail.com,
Asia,India,Tamilnadu,Erode,Tiruchengode Vidhyaa Vikas MVKM Trust,A.NO.320,77.3123396,11.0924648,"No.4/51, Unjani Post, Kumaramangalam, Tiruchengode TK, Namakkal Dt - 637205. ",Erode,A/N.S.Gunasekaran,9442279999,9095656899,-,svvhssthasampalayam@gmail.com,
Asia,India,Tamilnadu,Thiruvarur,Vaduvur MVKM Trust,A.NO.322,79.3189354,10.7124436,"Arulagam, Arutperum Jothi Campus, Thatara Street, Vaduvur Via - 614019.",Kumbakonam,A/N.R.Sanjeevi,9444626671,8778189261,-,vaduvurmvkmtrust@gmail.com,
Asia,India,Tamilnadu,Thiruvarur,Mannargudi Melaveedhi MVKM Trust,A.NO.323,79.4507152,10.6648689,"Melaveedhi Arivuthirukoil, Gopala Samuthiram Melaveedhi, Mannargudi & Post 614 001. Thiruvarur Dist.",Kumbakonam,A/N.Lathamaheswari,8489403959,9789650225,9750406401,mannaiwestmvkmtrust@gmail.com,
Asia,India,Tamilnadu,Coimbatore,Kovai Sundarapuram MVKM Trust,A.NO.324,76.97197527,10.96346714,"A/N.Dhanalakshmi, Secretary, 5/11D-2, Gandhiji Road, Sundarapuram PO, Kurinji, Coimbatore - 641 024.",Coimbatore,A/N.R.Udyakumar,9843811282,9944641412,-,ksmvtrust@gmail.com,
Asia,India,Tamilnadu,Chennai,Adambakkam Balakrishnapuram MVKM Trust,A.NO.325,80.17554145,12.89467909,"C/o.A/N.R.Praveen Kumar, Managing Trustee, 1367, First Floor, MIG, TNHB Colony, Sithalapakkam, Chennai 600 126.",Kancheepuram,A/N.N.Rajagopal,9677091921,8939384990,9962062264,adambakkambkpuram@gmail.com,
Asia,India,Tamilnadu,Chennai,Vanagaram MVKM Trust,A.NO.326,80.1854439,13.0461574,"No.1/261, Palaniappa Nagar 3rd Street, Vanagaram Post, Chennai - 600 095.",Thiruvallur,A/N.M.R.SUBRAMANIAN,9840766917,9003839840,-,mrsmanian@gmail.com,
Asia,India,Tamilnadu,Viluppuram,Moongilthuraipattu MVKM Trust,A.NO.327,80.260835,12.9867957,"3/6, Pillayar Koil St, Kamaraj Nagar, Moongilthuraipattu - 605702. ",Viluppuram,A/N.Ranganathan,9942445998,"9976530013, 9442867977",,raviranganathan6@gmail.com,
Asia,India,Tamilnadu,Madurai,Thirumangalam MVKM Trust,A.NO.328,77.9881401,9.8232884,"80/375, Usilai Road, Tirumangalam, Madurai - 625706.",Madurai,A/N. Maragathavalli,9994181180,9442281661,-,krraveendran@gmail.com,p.jaya_sankar@yahoo.co.in
Asia,India,Tamilnadu,Chennai,Madambakkam MVKM Trust,A.NO.330,80.1521428,12.9155116,"No.6, Ambika Nagar Extn, Sudarsana Nagar 4th Street, Madambakkam, Chennai - 600073.",Kancheepuram,A/N.N.Lochana,9840760623,9840096522,-,madambakkamarakattalai2@gmail.com,godswarrior.dharma@gmail.com
Asia,India,Tamilnadu,Kallakuruchi,Chinna Salem MVKM Trust,A.NO.332,79.493,11.941,"No.14, Kadai St (West), Chinna Salem (PO), Kallakurichi TK, Villupuram DT",Viluppuram,A/N.Krishnakumar.A.K,9442759916,6380127657,04151-236653.,chinnaselammvkm@gmail.com,
Asia,India,Tamilnadu,Thiruvannamalai,Cheyyar Anna Nagar MVKM Trust,A.NO.333,79.5343503,12.6793237,"11/1, K.V.Raman Street, Anna Nagar, Cheyyar, Thiruvannamalai - 604407.",Thiruvannamalai,A/N.N.R.Sankaralingam,9442160465,9486235646,-,ennress@gmail.com,
Asia,India,Tamilnadu,Thiruvannamalai,Kalambur Mvkm Trust,A.NO.334,79.21308194,12.6336656,"No.6, Mariyamman Koil Street, Kalambur - 606 903.",Thiruvannamalai,"A/N.J.Saravanan,",9994533135,9790458570,9790626025,saravananj99945@gmail.com,kalambur.mvkm@gmail.com
Asia,India,Tamilnadu,Thiruvannamalai,Subanravpet Mvkm Trust,A.NO.335,79.2880998,12.6652219,"1152/3, Sri Saravana Modern Rice Mill Campus, Vellore Road, Sevoor 632 316, Arni T.K., Thiruvannamalai Dt. ",Thiruvannamalai,A/N.S.Saravanaraj,9842329775,9345253929,-,shrikavee@gmail.com,subanraopetmvkmtrust@gmail.com
Asia,India,Tamilnadu,Cuddalore,Vriddhachalam Nagar Mvkm Trust,A.NO.336,79.3251583,11.5195875,"10/88, Mariamman Koil Street, Pudupet, ",Viluppuram,A/N.Siva. Viswanathan,9486307046,,-,kailaisivam@gmail.com,
Asia,India,Tamilnadu,Chennai,Poonamallee HPS MVKM Trust,A.NO.338,80.1251558,13.04772,"No.62, New No. 7/4 A, 5th Cross st, Thirumal Nagar, Poonamallee, Chennai - 600056.",Thiruvallur,A/N.D.ELANGO,9840585559,9551155569,044-26492464,poonamallee.hpscentre@vethathiri.ac.in,elango1976@gmail.com
Asia,India,Tamilnadu,Chennai,East Tambaram MVKM Trust,A.NO.339,80.15610728,12.91008158,"C/o.A/N. R.Narayanasamy, Secretary, 3B, 1st Street, Thenugambal Nagar, Madambakkam, Chennai - 600 126.",Kancheepuram,A/N.S.Thiyagarajan,9486107026,9600089825,9042764710,easttambaram339@vethathiri.ac.in,
Asia,India,Tamilnadu,Ranipet,Walajapettai MVKM Trust,A.NO.340,80.2429974,13.1282823,"Sri Shanmuga Saraswathi Illam, No.247 A, Bharathi Street, Belliyappa Nagar, Walajapettai - 632513.",Thiruvannamalai,A/N.S.Suresh Babu,9444089983,9486315526,-,rajisuresh1506@gmail.com,
Asia,India,Tamilnadu,Erode,Perundurai MVKM Trust,A.NO.341,77.6215142,11.293821,"136/8,vethathiri nagar, Kanchikoil Road, Perundurai - 638052.",Erode,Prema ,9488027639,9500576308,-,prema150574@gmail.com,
Asia,India,Tamilnadu,Kallakuruchi,Kallakuruchi MVKM Trust (West),A.NO.342,78.96093597,11.73628246,"17/35, Sivam Koil Street, Kallakuruchi - 606202.",Viluppuram,A/N.S.P.Prabakaran,9443306988,9442747008,-,manjulaprabakaran25@gmail.com,
Asia,India,Tamilnadu,Chennai,Kolathur Teachers Colony MVKM Trust,A.NO.346,80.20998547,13.11603816,"No.72, Bharath Rajiv Gandhi Nagar, Kolathur, Chennai - 600099.",Chennai,A/N. C. Karthikeyan,9444219977,-,044-26512833,kolathurteacherscolonymvkm@gmail.com,
Asia,India,Tamilnadu,Chennai,Chennai Kumaran Nagar MVKM Trust,A.NO.347,80.2316085,13.1178796,"3/99, Annal Gandhi Street, (I Cross Street), Kumaran Nagar, Chennai 600 082.",Chennai,A/N. S. Ravichandran,9841137689,-,-,vedhamchits9811@yahoo.com,
Asia,India,Tamilnadu,Chennai,Padmavathy Nagar Ladies MVKM Trust,A.NO.348,80.1593833,12.9045319,"No.65/3, Ashthalakshmi Apartment, Alamelupuram, 2nd Street, Madambakkam, Chennai - 600 126. ",Kancheepuram,A/N.K.Geetha,9940148905,9962404235,044-22293745,padmavathynagartrust@gmail.com,
Asia,India,Tamilnadu,Chennai,Medavakkam MVKM Trust,A.NO.349,80.1923489,12.9171427,"No.11, 1st Cross Street, Chitty Babu Nagar, Pallikaranai, Chennai - 600 100.",Kancheepuram,A/N.V.Sivalingam,9841117527,9884236568,9600147736,mandrammedavakkamtrust@gmail.com,medavakkammvkmt349@yahoo.in
Asia,India,Tamilnadu,Theni,Theni MVKM Trust,A.NO.350,77.59465488,12.9715987,"Theni Arivuthirukovil, 4th South Street, Penniquick Nagar, Thitta Salai, Theni - 625 531.",Dindigul,PRO.O.Rajendaran,9659960343,9994619434,-,tct.theni10@gmail.com,
Asia,India,Tamilnadu,Dindigul,Batlagundu MVKM Trust,A.NO.351,78.1193823,9.9211936,"Plot nagar 9,10 vethathiri nagar RTO Office near madurai main road,Batlagundu, Dindigul Dt - 624202.",Dindigul,A/N. K. Thangavelu,9842080380,9629621235,-,tct.batlagundu11@gmail.com,
Asia,India,Tamilnadu,Theni,Periyakulam MVKM Trust,A.NO.352,77.5378668,10.1220232,"25/4, Kacheri Road, Near Theradi, Thenkarai, Periyakulam 625 601. Theni Dist.",Dindigul,A/N. S.Chinnusamy,9344317380,9344880968,9952815941,tct.periyakulam14@gmail.com,
Asia,India,Tamilnadu,Chennai,Kottur Garden MVKM Trust,A.NO.353,80.244864,13.0206996,"4/20, 3rd Main Road, Kottur Gardens, Chennai - 600085.",Chennai,A/N.Dr.H.Kothandaraman,9944912020,9381048166,-,punarpoosam@yahoo.in,
Asia,India,Tamilnadu,Erode,Kodumudi MVKM Trust,A.NO.355 (Post only),77.8861655,11.0739022,"Near New Bus Stand, Kodumudi (Post) 638 151, Erode Dist.",Erode,Ambujam,96001 03639,9443787950,7502103678,pambu2759@gmail.com,
Asia,India,Tamilnadu,Salem,Mecheri Amman Nagar MVKM Trust,A.NO.356,77.9424531,11.83266,"No.11/4-25, Petrol Bunk Opp, Mettur Main Road, Kaleepatti Post, Mecheri - 636453. Salem Dt.",Salem,A/N.G.Nallathambi ,9486490800,9976381604,-,sa.a368@vethathiri.ac.in,
Asia,India,Tamilnadu,Namakkal,Sendamangalam Vethaloga Vidhyalaya MVKM Trust,A.NO.357,78.234844,11.2801,"Vethaloga Vidhyalaya Matriculation Higher Secondary School, Sendamangalam - 637409.",Salem,A/N. M.K. Guru,9842770314,9842880314,04286-270314,guruvlvguru@gmail.com,
Asia,India,Tamilnadu,Coimbatore,Somanur Karugampalayam MVKM Trust,A.NO.358,77.19229171,11.06972834,"Litercy Mission School (Near), Ram Nagarm, Karugampalayam, Echeepatti Post, Tiruppur-Dt-641668.",Coimbatore,"A/N.A.Mani Velusamy,",9842223095,9842211675,-,somanurtrust147@gmail.com,vethanathan@gmail.com
Asia,India,Tamilnadu,Chennai,Madhavaram MVKM Trust,A.NO.359,80.0924795,13.1244602,"18, Anna Cross Street, Erukancherry, Chennai 600 118.",Thiruvallur,A/N.S.VIJAYENDRAR,9884128168,9884048919,-,skymadhavaram2020@gmail.com,meyyanar.atmpowercontrols@gmail.com
Asia,India,Tamilnadu,Chennai,Chrompet Radha Nagar MVKM Trust,A.NO.360,80.14520889,12.95432153,"B-1, Vinayagam Apartments, No.7, Elumalai Street, Radha Nagar, Chrompet, Chennai - 600044. ",Kancheepuram,A/N.R.Serma Selvaraj,9884374090,9962206217,-,mvkmtrusta41@gmail.com,skychrompet@yahoo.com
Asia,India,Tamilnadu,Madurai,Kamuthi MVKM Trust,A.NO.361,78.3643119,9.4097291,"4, Chayakara Street, Kamuthi - 623603, Ramanathapuram Dt.",Madurai,A/N.Ramalakshmi,9943648391,-,-,gramalakshmi1979@gmail.com,
Asia,India,Tamilnadu,Madurai,Vadipatti MVKM Trust,A.NO.362,77.9610158,10.0843179,"No.2-1-65, Mettuperumal Nagar, Vadipatti - 625218.",Madurai,A/N.R.Manavalan,9976669158,-,-,thavamani1955@gmail.com,
Asia,India,Tamilnadu,Kanyakumari,Marthandam Mvkm Trust,A.NO.363,77.2218365,8.3075307,"6-77, K.R.Medicals, Main Road, Marthandam - 629 165.",Thirunelveli,A/N.t.T.KRISHNA RAJ,9443277888,,-,marthandammvkm@gmail.com ,krishnaraj.marthandam@gmail.com 
Asia,India,Tamilnadu,Thiruvannamalai,Chengam MVKM Trust,A.NO.364,78.8,12.3,"No.264 A, Rajaveedhi, Chengam - 606701. Thiruvannamalai District",Thiruvannamalai,A/N.A.Krishnamoorthy ,9443885842,-,-,ramasamy2067@gmail.com,
Asia,India,Tamilnadu,Chennai,Chennai Ambal Nagar MVKM Trust ,A.NO.365,80.20152975,13.018172,"7/15, Shanmugaraja Street, Gandhi Nagar, Ekkattuthangal, Guindy, Chennai - 600032.",Chennai,A/N.S.Sukumaran,9444192915,9840123209,9791163969,-,
Asia,India,Tamilnadu,Dharmapuri,Palacode MVKM Trust,A.NO.366,78.1248736,12.0838852,"No.507/655, Main Road, Palacode - 636808. Dharmapauri Dt.",Hosur,A/N.P.Dharuman,9965592320,-,-,sa.a366@vethathiri.ac.in,
Asia,India,Tamilnadu,Virudhunagar,Mamsapuram MVKM Trust,A.NO.367,77.58698132,9.499483434,"6, Chinnasamy Pillai Street, Mamsapuram 626 110, Srivilliputhur T.K., Virudhu Nagar Dt.",Virudhunagar,picharrammal,9486361351,-,-,address_thenujeya@gmail.com,
Asia,India,Tamilnadu,Trichy,Samayapuram MVKM Trust,A.NO.369,78.7405357,10.9229564,"No.15, Marriamman High School Road, Samayapuram Post, Tiruchy Dt - 621 112.",Trichy,"A/N.R.Kalaiselvi ,Rajathi",9865717394,8012714545,-,samayapuram.skyyoga@vethathiri.ac.in,
Asia,India,Tamilnadu,Ranipet,Kaveripakkam MVKM Trust,A.NO.370,79.8272506,11.9354653,"No.253, Bharathi Street, Belliappa Nagar, Walajapet (Post), Ranipet Dist 632 513.",Thiruvannamalai,A/N.N.Srinivasan,9443866457,9443866457,-,wcscthukkaraman@gmail.com,
Asia,India,Tamilnadu,Thiruvannamalai,Vandavasi MVKM Trust,A.NO.371,79.28819187,12.6652219,"No.20, Tha.Kishtappa Udaiyar Street, Vandavasi, Thiruvannamalai(DT) - 604408.",Thiruvannamalai,A/N.S.Selvakumar,9360677722,-,-,mvkmtrustvandvasi@gmail.com,
Asia,India,Tamilnadu,Thanjavur,Orathanadu MVKM Trust,A.NO.373,79.2530889,10.6286438,"Jagathambal Complex, 6, Samy Lab, Royar Street, Orathanadu 614 625, Thanjavur Dist ",Kumbakonam,A/N.P.Ramasamy,9842252568,9443585989,-,ambikapathy62@gmail.com,
Asia,India,Tamilnadu,Chennai,Villivakkam Thirunagar MVKM Trust,A.NO.374,80.20232927,13.10001903,"14/55, Thiru Nagar, 8th Street, Villivakkam, Chennai 600 049.",Chennai,A/N.V.Rajalakshmi,9710282069,9094328901,-,lakshmiatchayalingam@gmail.com,
Asia,India,Tamilnadu,Chennai,Tambaram MVKM Trust,A.NO.375,80.106839,12.9247314,"Sri Ramana Vidhayalaya Matriculation School, No.6, Kalyan Nagar Main Road, Mudichur Road, Chennai 600 045.",Kancheepuram,A/N.Gnana Saravanan,9445005569,9940096020,"9940273154, 8438482682",premakumarins97@gmail.com,
Asia,India,Tamilnadu,Chennai,Vyasarpadi MVKM Trust,A.NO.377,80.243695,13.11416396,"Plat 3A, Block 1, KKR Richy Dale, 131, Madhavaram High Road, Perambur, Chennai 600 011.",Chennai,A/N.B.V.Perumal,9940161007,9381053661,-,"ch.a377@vethathiri.ac.in,bvpyvm@gmail.com",
Asia,India,Tamilnadu,Erode,Shree Gurukulam MVKM Trust,A.NO.378,77.4063625,11.4570383,"Moolavaikkal, Karattadipalayam (Post), Gobichettipalayam 638 453, Erode Dist.",Erode,Dr.K.R.Rangaraj,9443186265,-,"04285-240997, 241997, 241697",shreegurukulam@gmail.com,
Asia,India,Tamilnadu,Kallakuruchi,Ulundurpet MVKM Trust,A.NO.379,79.2730576,11.6771859,"No.18, Kandasamipuram East, Ulundurpet 606 107",Viluppuram,A/N.K.Balaganapathi,9865756619,8883666686,-,adhiannamalai12@gmail.com,
Asia,India,Tamilnadu,Thoothukudi,Udankudi MVKM Trust,A.NO.380,78.02600584,8.428118548,"Door No.1A-18B, Puthumanai Puthu Street, Udankudi 628 203.",Virudhunagar,A/N.S.Sathiyamoorthy,9443469201,9942938399,-,eternalsathya@gmail.com,
Asia,India,Tamilnadu,Chennai,Avadi Kasturibai Nagar MVKM Trust,A.NO.381,80.2532139,12.9501128,"No.10, Anbazhakan 2nd Street, Gandhi Nagar, Avadi, Chennai 600 054.",Thiruvallur,A/N.ETHIRAJULU,9445789736,9094360203,9445351957,ejayakumar@rediffmail.com,
Asia,India,Tamilnadu,Chennai,Besant Nagar MVKM Trust,A.NO.382,80.26202918,12.99543225,"Jenith Akash, 80/5, T.M.Maistry Street, Thiruvanmiyur, Chennai 600 041.",Chennai,A/N.V.Pandurangan,9840137876,9940678769,044-65498955,zenithbuilder@gmail.com,
Asia,India,Tamilnadu,Cuddalore,Vadalur MVKM Trust,A.NO.385,78.422916,10.9608336,"9C, Murugan Koil Street, Abathranapuram, Vadalur 607 303. Cuddalore Dist.",Viluppuram,A/N.K.Paramasivam,9841771712,9488023488,-,paramasivam.vmvkm@gmail.com,
Asia,India,Tamilnadu,Chennai,Korattur PPICF MVKM Trust,A.NO.386,80.1810617,13.1156777,"No.2, 42nd Street, Korattur, Chennai 600 080.",Thiruvallur,A/N.GALA RAVICHANDRAN,9444304013,9094226135,9841033575,koratturmvkm@gmail.com,
Asia,India,Tamilnadu,Chennai,Mugapare Paneer Nagar MVKM Trust,A.NO.387,80.18415226,13.08658398,"5, Balu Nagar, Mogappair, Chennai 600 037.",Thiruvallur,A/N.R.RAJAGOPAL,9444418241,9840861519,-,mogappairskytrust2020@gmail.com,gopal132971@gmail.com
Asia,India,Tamilnadu,Cuddalore,Bhuvanagiri MVKM Trust,A.NO.390,79.6530174,11.4459041,"25D-3/NA, Bismi Complex, Bhuvanagiri 608 602, Cuddalore Dist.",Viluppuram,A/N.R.Senguttuvan,9443876925,-,-,bhuvanagirimvkmtrust2011@gmail.com,
Asia,India,Tamilnadu,Karur,Andipatti MVKM Trust,A.NO.391,77.47690272,10.0103658,"vethathiri nagar sri selva vinayar nagar backside,vaigai road, Andipatti Post, Theni Dist. Pin: 625 512",Dindigul,A/N.K.Ravi,9942304555,9865988992,-,tct.aundipatty11@gmail.com,
Asia,India,Tamilnadu,Cuddalore,Panruti MVKM Trust,A.NO.393,79.55402055,11.7692363,"2/48A, 2nd Cross Street, Police Line, Kamaraj Nagar, Panruti 607 106.",Viluppuram,A/N.Sumithra,6380417301,9842549111,,panrutimvkmtrust@gmail.com,
Asia,India,Tamilnadu,Thanjavur,Madukkur MVKM Trust,A.NO.395,79.3203356,10.5461977,"No.89, Vallalar Street, Madukkur 614 903.",Kumbakonam,A/N.S.S.B.Prakasam,9443360321,9944047026,-,madukkurmvkmtrust@gmail.com,
Asia,India,Tamilnadu,Thiruvannamalai,Thanipadi MVKM Trust,A.NO.396,78.8360988,12.1086378,"No.340, Forest Banglow Street, Thanipadi - 606 708. Thiruvannamalai District.",Thiruvannamalai,A/N. A.Ragunath,9585224545,9444100046,9442177289,bharathavidhyalayatpd@gmail.com,
Asia,India,Tamilnadu,Chennai,Hasthinapuram MVKM Trust,A.NO.397,80.1573604,12.9056464,"Plot No.10, Room No.25, Maruthi Nagar, Hasthinapuram, Chennai 600 064.",Kancheepuram,A/N.T.E.Seshathri,9444412408,-,-,hpmtrust@yahoo.in,godakbharathi@gmail.com
Asia,India,Tamilnadu,Erode,Vellode MVKM Trust,A.NO.400,77.7311167,11.3381465,"NO.465, Dharumar Nagar, Valarmathi Thirumana Mandapa Street, V.Vellode Post 638 112, Erode Dist.",Erode,A/N.V.C.Kumaresan,9443563360,-,-,-,
Asia,India,Tamilnadu,Chennai,"Sempakkam MVKM Trust,",A.NO.403,80.16160004,12.93227645,"No.10, Srishti Residency, Bagyam Nagar 4th Street, Sempakkam, Chennai 600 073.",Kancheepuram,A/N. B.Ramamoorthy,9444209735,9840336875,-,sembakkammvkm@gmail.com,
Asia,India,Tamilnadu,Thirunelveli,Palayankottai Jawahar Nagar Vethalogaa MVKM Trust,A.NO.406,77.73030777,8.701446076,"A157, N.G.O. ""A"" Colony, Tirunelveli 627 007.",Thirunelveli,A/N.P.Lakshmanan,9994175496,9442151108,9442415798,plaxmanan815@gmail.com,subbuamutha56@gmail.com
Asia,India,Tamilnadu,Namakkal,Vennandur MVKM Trust,A.NO.407,78.0105028,11.1109717,"4/7B, Vettukadu, Vennandur, Namakkal Dist 637 505",Salem,A/N.S.Karthikeyan,9942733319,9488683880,-,vethakarthik@gmail.com,
Asia,India,Tamilnadu,Chennai,Keelakkattalai MVKM Trust,A.NO.409,80.1810029,12.956592,"No.8, Kalaivani Street, Keelakkattalai, Chennai 600 117.",Kancheepuram,A/N.D.Devaki,9003061633,-,-,keelkattalaimvkmtrust@gmail.com,
Asia,India,Tamilnadu,Cuddalore,Manjakuppam MVKM Trust,A.NO.411,79.760077,11.7631811,"No.10-D, Chinnappan Street, Manjakuppam 607 001, Cudalore Dist.",Viluppuram,A/N.Rajalakshmi,9840794591,,9940907899,rbyamunaa@gmail.com,
Asia,India,Tamilnadu,Thirunelveli,Sambavarvadakarai MVKM Trust,A.NO.412,77.5535243,9.4465782,"6-10-28, South Agraharam, Sambavarvadakarai Post, Tenkasi T.K. 627 856.",Thirunelveli,A/N.R.Esaki,9442331631,6381638070,9994098792,presakki@gmail.com ,
Asia,India,Tamilnadu,Chengalpattu,Chengalpattu MVKM Trust,A.NO.415,79.984936,12.6593927,"No.15/1, Gandeepan Street, Chengalpet 603 001.",Kancheepuram,A/N.V.Siva,9444433339,9444339530,-,cmvkmt415@gmail.com,
Asia,India,Tamilnadu,Chennai,East Tambaram Thirumazhisai Street MVKM Trust,A.NO.416,80.13068973,12.92968178,"51/25, Muthuramalingar Street, East Tambaram, Chennai 600 059.",Kancheepuram,A/N.N.Hemalatha,9884156518,9940156759,8056137141,iamhemanana@gmail.com,ettsmvkmarakattalai2015@gmail.com
Asia,India,Tamilnadu,Kancheepuram,Kancheepuram Iyyampettai MVKM Trust,A.NO.418,79.73682589,12.81842295,"C/o.A/N.R.Valli, Secretary, No.124, Govindaraju Street, Periyar Nagar, Kancheepuram 631 503.",Kancheepuram,A/N.A.Gangadharan,9952691198,9543406194,9443325933,kanchipuramayyanpettrust@yahoo.in,padmanaban.tg@gmail.com
Asia,India,Tamilnadu,Chennai,Alandur MVKM Trust,A.NO.419,80.2006371,12.9974873,"Old No.40, New No.34, Madhavapuram East Street, Alandur, Chennai - 600 016.",Kancheepuram,A/N.M.Thenmozhi,9094723326,9092906938,-,wcscalandurtrust.419@gmail.com,
Asia,India,Tamilnadu,Nagapattinam,Sirkali MVKM Trust,A.NO.421,79.7346811,11.2380137,"No.14, Thiyagaraja Nagar, Sirkali Post - 609 110. Nagapattinam District.",Kumbakonam,A/N. A. Chellammal,8760214460,8760214460,-,sirkazhimvkmtrust@gmail.com,
Asia,India,Tamilnadu,Coimbatore,Annur MVKM Trust,A.NO.422,77.10514547,11.24978544,"No.133/2-A-5-1, V.O.C. Street, 1st Floor, Angappa Mudaliar Colony, Annur 641 653, Coimbatore Dist.",Coimbatore,A/N.M.Thamarai,9789988949,-,-,annurmvkm14@gmail.com,
Asia,India,Tamilnadu,Coimbatore,Veeriyampalayam MVKM Trust,A.NO.423,77.03084074,11.05636194,"36, Maharaja Nagar, Nehru Nagar West, Kalapatti Post, Coimbatore 641 048.",Coimbatore,A/N.G.Pankajam,8072439350,9842586167,-,vvtrust423@gmail.com,
Asia,India,Tamilnadu,Thirunelveli,Nellai Shreenivassa Nagar MVKM Trust,A.NO.424,77.7493104,8.6994513,"A-14/2, Thendran Nagar, Maharaja Nagar Post 527 011, Tirunelveli Dist. ",Thirunelveli,A/N.A.Jagadeesan,9944135485,9486240097,9442061770,shreenivassanagar.mvkm@gmail.com ,
Asia,India,Tamilnadu,Thiruvallur,Ponneri MVKM Trust,A.NO.426 (Post only),80.14331106,13.33508911,"Puthuvoyal Village & Post 601 206, Gumidipundi Taluk, Thiruvallur Dist.",Thiruvallur,A/N.A.Prabhakaran,9443193994,9791685931,"9940421082, 9629896921 ",prabhakaranappavu@gmail.com,venkatesan1706@gmail.com
Asia,India,Tamilnadu,Chennai,T.Nagar Pothys MVKM Trust,A.NO.427,80.2321029,13.0379113,"C/o.A/N.S.Sekar, A.O., No.75, D, Sri Rajalakshmi Flats, 2nd Cross St, New NGGO Colony, (Near E.B.Colony) Adambakkam, Chennai  600 088.",Chennai,A/N.S.Pothyraj,9444165220,8124409986,-,-,
Asia,India,Tamilnadu,Kancheepuram,Naickenpet MVKM Trust,A.NO.428,79.7683262,12.8070632,"No.83, Big Street, Naickenpet, Kancheepuram 631 601.",Kancheepuram,A/N.D.Thanigaiarasu,9843530959,9444879265,-,nayaganpetmvkmt@yahoo.com,arasu.leela@gmail.com
Asia,India,Tamilnadu,Erode,Vallipuram Grama MVKM Trust,A.NO.429,77.80242227,11.12712158,"6/9, Kovil pudur, Va. Kurukkam Palayam, Sivagiri 638 109, Erode Dist.",Erode,savitha ,99435 07921,9442260384,, savithayoga123@gmail.com,
Asia,India,Tamilnadu,Viluppuram,Nallanpillaipetral MVKM Trust,A.NO.430 (Post only),79.487898,11.9539016,"5/45, Bank Street, Nallampillai Petrol Post 604 152, Chenjee T.K., Villupuram Dist.",Viluppuram,A/N.G.Arulalan,9597324953,9500449598,9444848220,pushpam417@gmail.com,
Asia,India,Tamilnadu,Virudhunagar,Sivakasi V.M. MVKM Trust,A.NO.431,77.95,9.583333,"No.953, E/A1-Gnanagiri Road, National Colony, Backside of Suruthi Vidhyodhaya School, Sivakasi 626 189,Virudhu Nagar Dist.",Virudhunagar,A/N.R.Chandramohan,9443125703,9443324173,9994796599,sivakasimvkm@gmail.com,
Asia,India,Tamilnadu,Thirunelveli,Alangulam MVKM Trust,A.NO.432,77.4839173,8.8695365,"No.85, Kamaraj Nagar, Alankulam - 627 851, Tirunelveli Dist.",Thirunelveli,A/N.R.Athithan,9944395675,9788128002,9486702567,athithanmanonmani43@gmail.com ,smartmurugan71@gmail.com 
Asia,India,Tamilnadu,Dindigul,Nilakkottai MVKM Trust,A.NO.433,77.8677011,10.2112577,"PLOT NO 14 , Arivuthirukovil Ananda Nagar, Nilakkottai 624 208.",Dindigul,A/N.K.M.Subramanian,9842130583,9842076775,-,tct.nilakottai12@gmail.com,
Asia,India,Tamilnadu,Coimbatore,Kinathukadavu MVKM Trust,A.NO.434,77.01913665,10.82156121,"C/o.A/N.K.Kannaiyan, No.120, Pollachi Main Road, Kinathukadavu 642 109,",Coimbatore,A/N.K.S.Gopal,9842281931,9600907337,-,,
Asia,India,Tamilnadu,Coimbatore,Mannur Ramanathapuram MVKM Trust,A.NO.435,77.00302178,10.72837027,"No.6/617, Ramanathapuram, Mannur Post 642 005, Pollachi Taluk, Coimbatore Dist.",Coimbatore,A/N.R.A.Sakthivel,9487575587,9976824345,-,,
Asia,India,Tamilnadu,Thoothukudi,Ettayapuram MVKM Trust,A.NO.436,77.9995589,9.1470884,"5/61A, Pound Street, Ettayapuram 628 902. Thoothukudi Dist.",Virudhunagar,A/N.soudararajan A/N.J.Anusuya,7708868427,9787951577,9787951577 9786900000,vvjk.epm@gmail.com,
Asia,India,Tamilnadu,Chennai,Saligramam MVKM Trust,A.NO.437,80.1855529,13.07373066,"No.85, 3rd Street, (S2, 2nd Floor), SBI Colony, Virugambakkam, Chennai 600 092.",Chennai,A/N.V.K.Subramanian,9962385093,9894073711,-,vksmanian27@gmail.com,
Asia,India,Tamilnadu,Karur,Velayuthampalayam MVKM Trust,A.NO.439,77.71725582,11.3410364,"63, Erode Salai, Velayuthampalayam Post, Karur Dist 639 117.",Erode,sivakumar,94435 51907,9944888604,-, jayeesiva@gmail.com,
Asia,India,Tamilnadu,Thanjavur,Thanjai Valanaadu MVKM Trust,A.NO.440,79.3760378,10.958899,"No.4, Natarajapuram North, State Bank Colony Road, Medical College Post, Thanjavur 613 004.",Kumbakonam,A/N.S.N. Kittappa,9965602273,9965602273,9487031370,thanjaivalanaadu2014@gmail.com,
Asia,India,Tamilnadu,Karur,Kulithalai MVKM Trust,A.NO.441,78.4227716,10.9335904,"No.25-H, Theppakulam Street, Kulithalai 639 104, Karur Dist.",Erode,A/N.R.Saravanakumar,9787722476,9843550791,-,lakshmiselva12@gmail.com,
Asia,India,Tamilnadu,Karur,Nedungoor MVKM Trust,A.NO.446 (Post only),78.0800915,10.95,"nedungoor grammam, Mel Nedungoor Post 639 111, Aravakuruchi tk,karur dt.",Erode,A/N.R.Nallasivam,"98,946,953,429,789,400,000",9786967925,-,parithi111@gmail.com,
Asia,India,Tamilnadu,Vellore ,Ambur Pallitheru MVKM Trust,A.NO.447,78.7166084,12.7903613,"T.O.C., Naiduhall Complex, Pallitheru Village, Umarapath Post 635 808, Ambur T.K., Vellore Dist.",Thiruvannamalai,A/N.G.Venugopal,9629519073,9629519079,-,dhanusu24@gamil.com,
Asia,India,Tamilnadu,Viluppuram,Villupuram Salamedu NGGO Colony MVKM Trust,A.NO.450,76.98887911,10.9802672,"No.80, Imayam Veedhi, N.G.G.O. Colony, Salamedu, Villupuram 605 602.",Viluppuram,A/N.P.Natarajan,9597814495,9486389510,-,vpmsalamedu.450@gmail.com,
Asia,India,Tamilnadu,Trichy,Tiruchirappalli Ponmalaipatti MVKM Trust,A.NO.451,78.7180027,10.7708054,"No.50, Udayar Main Road, Ponnmalaipatti, Tiruchi 620 004.",Trichy,"A/N.R.Sekar, Divia",9443840246,9787851578,7200933042,ponmalaipatti.skyyoga@vethathiri.ac.in,
Asia,India,Tamilnadu,Trichy,Tiruchirappalli Rockcity MVKM Trust,A.NO.453,78.64705735,10.8083793,"No.86, Chinna Chetty Street, Vazhga Valamudan Illam, Trichy 620 008.",Trichy,A/N.V.Sureshkumar,9443591010,9788038395,9442868323,rockcity.skyyoga@vethathiri.ac.in,
Asia,India,Tamilnadu,Dindigul,"Chinnalapatti MVKM Trust,",A.NO.454,77.9228416,10.2890442,"V.P.N. Street, Keelakotai, Chinnalapatti 624 301.",Dindigul,APR.B.Indirabarani,9894051699,9994571028,-,tct.chinnalapatti13@gmail.com,
Asia,India,Tamilnadu,Theni,Chinnamanur MVKM Trust,A.NO.455,77.38808355,9.856000288,"Radha krishna rice mill street ,Building society Chinnamanur 625 515, Theni District,.",Dindigul,APR. Selvakumar,9444600850,9688185652,-,tct.chinnamanur15@gmail.com,
Asia,India,Tamilnadu,Chennai,ICF MVKM Trust,A.NO.457,80.2190478,13.0983999,"R-31, 12th Street, Anna Nagar, Chennai - 600 040. ",Thiruvallur,A/N. K. SAMPATH KUMAR,9176629956,9150546681,9566002804,icfmvkmt@gmail.com, radhasampath1979@gmail.com
Asia,India,Tamilnadu,Trichy,Tiruchirappalli K.K.Nagar MVKM Trust,A.NO.458,78.67679851,10.76399245,"No.6, Cholan Salai, Iyyappa Nagar, Tiruchi 620 021.",Trichy,A/N.R.Subramanian,9942185516,9042055523,-,kknagar.skyyoga@vethathiri.ac.in,
Asia,India,Tamilnadu,Dharmapuri,Dharmapuri South MVKM Trust,A.NO.459,78.1528497,12.1153472,"5-B, 4th Street, Bharathipuram, Dharmapuri 636 705.",Hosur,A/N.M.Kalaiselvi,9994541911,9150324760,-,sa.a459@vethathiri.ac.in,
Asia,India,Tamilnadu,Vellore ,Rasimalai MVKM Trust,A.NO.461,79.1336413,12.9115027,"No.98, Avalkara Street, Kosappettai, Vellore 632 001.",Thiruvannamalai,A/N.R.Srinivasan,9894421254,9443210152,-,srinivasan.vedha@gmail.com,
Asia,India,Tamilnadu,Puthukottai,Pudukottai Subramaniyapuram MVKM Trust,A.NO.462,78.82622211,10.39810636,"No.19, Subramaniyapuram, NGO Colony Extn., Pudukkottai 622 005.",Trichy,"A/N Srider, Gunasilan",9842549663,8608192996,-,pdksspuram.skyyoga@vethathiri.ac.in,
Asia,India,Tamilnadu,Thirunelveli,Nellai City MVKM Trust,A.NO.464,77.71840035,8.730529446,"5/2B, Parachiamman Koil Street, Vannarpettai, Tirunelveli 627 003.",Thirunelveli,A/N.T.Powl Raj,9842132137,9244558066,9843520616,nellaicitymvkmtrust@gmail.com ,iamsureshksk@gmail.com 
Asia,India,Tamilnadu,Thiruvannamalai,Kalasapakkam MVKM Trust,A.NO.466,79.11022003,12.43751264,"Chinna Street, South Pallipattu Village & Post, Kalasapakkam 606 751.",Thiruvannamalai,A/N.C.Ramamurthy ,9442804908,8056620762,-,ssivanesan1973@gmail.com,
Asia,India,Tamilnadu,Thanjavur,Vangarampettai MVKM Trust,A.NO.471,79.2708047,10.9251895,"6, Salma Complex, Kadai Veethi, Papanasam 614 205, Thanjavur Dist.",Kumbakonam,A/N.K.Ganesan,8903160712,8098064620,-,vangarampettaivision@gmail.com,
Asia,India,Tamilnadu,Kanyakumari,Villukuri MVKM Trust,A.NO.472,77.3459854,8.223185413,"4/154, Thendral Street, Pandarakadu, Villukuri Post 629 180. Kanyakumari Dist.",Thirunelveli,A/N.S.Joseph Edwin,9600759050,9489281244,8870538806,ahilanjoewoutres@gmail.com ,riana4129@gmail.com
Asia,India,Tamilnadu,Sivagangai ,Sivagangai Maravamangalam MVKM Trust,A.NO.473,78.65283703,9.769305902,"Nadu Street, Maravamangalam Post 630 554, Kalaiyar Koil Taluk, Sivagangai Dist.",Madurai,A/N.K.Murugan,"97,878,317,519,986,100,000",9965950072,9489488465,saravanangeethapriya@gmail.com,
Asia,India,Tamilnadu,Chennai,Pammal Muthamizh Nagar MVKM Trust,A.NO.474,80.13868758,12.97340262,"No.9, Padmanaban Street, Krishna Nagar, Pammal, Chennai 600 075.",Kancheepuram,A/N.U.Amirtha,9025993319,9750070074,9710077258,poongodi.u@gmail.com,
Asia,India,Tamilnadu,Chidambaram,Chidambaram-Thiruchitrambalam MVKM Trust,A.NO.476,79.70701232,11.38595939,"318, South First Cross Street, Marriyappa Nagar, Annamalai Nagar Post, Chidambaram 608 002.",Viluppuram,A/N.Pragadeeswaran. S,8637442056,9894877844,04144-238907,spvazhga@gmail.com,guna_a3@yahoo.com
Asia,India,Tamilnadu,Salem,Ayothiyapattnam MVKM Trust,A.NO.477,78.2369101,11.66935894,"No.140/2-1/11, K.M. Nagar, Ayothiyapattnam Post 636 103, Salem District.",Salem,A/N.S.Mani,9443269666,9443824817,-,sa.a38@vethathiri.ac.in,
Asia,India,Tamilnadu,Coimbatore,Kovai South Ramanathapuram MVKM Trust,A.NO.481,76.99108507,10.99521759,"No.26/2, Bharathi Nagar, 4th Veethi, Ramanathapuram Post, Coimbatore 641 045.",Coimbatore,A/N.A.Annamalai,9787330898,9443364184,-,cbesrmpskyyoga@gmail.com,cbesrnpskyyoga@gmail.com
Asia,India,Tamilnadu,Kanyakumari,Kumari Vadaseri MVKM Trust,A.NO.482,77.43150654,8.196190893,"Arattu Road, Kesava perumal Colony, (Near SMRV Hr. Sec. School), Vadaseri, Nagercoil 629 001. Kanyakumari Dist.",Thirunelveli,A/N.L.Vasanthakumari,9942858806,9600305236,6374946534,thangamoni2@gmail.com ,santhanampranav@gmail.com
Asia,India,Tamilnadu,Madurai,K. Pudur MVKM Trust,A.NO.483,78.14733601,9.95254361,"Gnana Kudil, No.11, E.M.G. Nagar, 2nd Street, 2nd Cross, K.Pudur, Madurai 625 007.",Madurai,A/N.S.Balan,9487145599,9486950099,-,kpmvkmt@gmail.com,
Asia,India,Tamilnadu,Tiruppur,Tirupur Amarjothi Nagar MVKM Trust,A.NO.485,77.36631894,11.10303719,"21, Amarjothi Garden Ext., Kangeyam Road, Tirupur 641 604.",Tiruppur,A/N.S.V.Easwaran,9994942602,-,0421-4355588,amarjothisky@gmail.com,
Asia,India,Tamilnadu,Tiruppur,Tirupur Pandiyan Nagar MVKM Trust,A.NO.486,77.34948182,11.16458439,"8/1467-B, R.S.Puram 1st Veethi, P.N. Road, Pandiyan Nagar, Tirupur 641 602.",Tiruppur,A/N.A.Muthukumar,9003948642,9443761308,0421-6957777,tprpandiannagar.mmak@gmail.com ,
Asia,India,Tamilnadu,Tiruppur,Tirupur 15 Velampalayam MVKM Trust,A.NO.487,77.30479901,11.14391897,"Valluvar Thottam, Swarnapuri Avenue, 15 Velampalayam 641 652. Tirupur Dist.",Tiruppur,A/N. K.M.Natarajan,9150505024,9150505025,9487140644,t15vmma@gmail.com,
Asia,India,Tamilnadu,Tiruppur,Tirupur Samundipuram MVKM Trust,A.NO.488,77.34812171,11.10134379,"1, Poonthottam, Murungampalayam West, Avinashi Road, Tirupur 641 603.",Tiruppur,T/S.S.Nataraj,9842225875,9361129295,-,samundipuramatk@gmail.com ,
Asia,India,Tamilnadu,Kancheepuram,Karumbakkam MVKM Trust,A.NO.489,79.57537805,10.4712297,"Karumbakkam Arivuthirukoil Street, Kottaikadu Post, Cheyur T.K., Kancheepuram Dist.",Kancheepuram,A/N.K.Selvamani,9445201219,9087200751,-,guruselva2457@gmail.com,
Asia,India,Tamilnadu,Tiruppur,Kunnathur MVKM Trust,A.NO.491,77.34164847,11.28226963,"Malayapalayam Road, Perumal Koil Near, Kunnathur 638 103.",Tiruppur,A/N.O.R.Palaniswamy,9842763570,9524485047,-,kunnathuratk@gmail.com,
Asia,India,Tamilnadu,Tiruppur,Tirupur Karuvampalayam MVKM Trust,A.NO.492,77.3404976,11.09899756,"No.26, Jothipuram, Alankadu, Karuvampalayam, Tiruppur 641 604.",Tiruppur,A/N.S.Murugasamy,9865731699,9842272448,-,tkpmvktrust@gmail.com,
Asia,India,Tamilnadu,Tiruppur,Uthukuli MVKM Trust,A.NO.493,77.44851644,11.17543963,"Kathithamalai Pathai, Uthukuli 638 751.",Tiruppur,A/N.S.Appusamy,9443944850,9443454788,-,tirupur.uthukuli.trust@gmail.com ,
Asia,India,Tamilnadu,Tiruppur,Vavipalayam MVKM Trust,A.NO.494,77.38377184,11.16067029,"Opp. to Agricultural Co-operative Society, Neruperichal Post 641 602. Vavipalayam, Tirupur Dist.",Tiruppur,A/N.T.R.Mohann,9843038241,9786600525,9442470234,vavipalayamtrust@gmail.com,
Asia,India,Tamilnadu,Chennai,Old Pallavaram MVKM Trust,A.NO.496,80.1603018,12.9605383,"Flat B/1, Block-2, Jains Green, 91, Dharga Road, Zamin Pallavaram, Chennai 600 043.",Kancheepuram,A/N.M.V.Krishnamoorthy,9444050184,9445404366,-,oldpallavaramtrust@gmail.com,
Asia,India,Tamilnadu,Kancheepuram,Chinna Kancheepuram Womens MVKM Trust,A.NO.498,79.70451117,12.82176395,"32B, Narayanapalayam Street, Chinna Kancheepuram 631 501.",Kancheepuram,A/N.Parvathi Thanikaiarasu,9444929754,8015343874,"9943431101, 7418652252",g.thanigaiarasu@gmail.com,
Asia,India,Tamilnadu,Tiruppur,Perumanallur MVKM Trust,A.NO.499,77.3542582,11.2053175,"C/o.A/N.R.Saravanan, Secretary, 183, S.S. Nagar, 3rd Veedhi, Perumanallur 641 666.",Tiruppur,Dr.A/N.V.Govindarajan,9894758149,9677936130,-,sarvanalmqc007@yahoo.co.in,
Asia,India,Tamilnadu,Trichy,Trichi Anna Nagar MVKM Trust,A.NO.500,78.7043033,10.75972772,"M9, Phase-I, Anna Nagar, Tiruchi - 620 026.",Trichy,"A/N. S.Kalidasan , Rajender",9443711891,9443661646,986546561,annanagar.skyyoga@vethathiri.ac.in,
Asia,India,Tamilnadu,Puthukottai,Thirumayam MVKM Trust,A.NO.501,78.74620938,10.24464815,"1/14, Big Street, Thirumalai Nagar, Thirumayam, Pudukottai Dist - 622 507.",Trichy,A/N.S.Sivakami,9943374107,9842074079,9655472931,thirumaiam.skyyoga@vethathiri.ac.in,
Asia,India,Tamilnadu,Vellore,Jothipuram Paranji MVKM Trust,A.NO.503,79.52496977,13.09434632,"Plot No.911/5, Jothipuram, (Near Kalaimagal School), Arakonam Taluk, Vellore Dist 632 510.",Thiruvallur,A/N. CHINNADURAI ,6383505072,9843913939,-,jothipurammvkmtrust@gmail.com,
Asia,India,Tamilnadu,Chennai,Chennai Kaladipet MVKM Trust,A.NO.504,80.26491055,13.06096089,"26/27A, Janki Ammal Estate, Kaladipet, Thiruvottriyur, Chennai 600 019.",Thiruvallur,A/N.M.VENKATACHALAPATHY,9444187969,9962962719,-,wcsc.kpmvkm@gmail.com,
Asia,India,Tamilnadu,Thirunelveli,Marungoor MVKM Trust,A.NO.506,77.50158438,8.169519405,"9/78, South Street, Marungoor 629 402. ",Thirunelveli,A/N.L.Nallaperumal,9245720305,8220381021,7502153528,nallaperumal30676@gmail.com ,vinusubash4@gmail.com 
Asia,India,Tamilnadu,Chennai,Aminjikarai Collectorate Colony MVKM Trust,A.NO.507,80.21961968,13.06948732,"84, 5th Cross Street, Aminjikarai, Chennai 600 029.",Chennai,A/N.H.Banumathi,9566059692,8098327327,-,banuvedha@gmail.com,
Asia,India,Tamilnadu,Chennai,"Jafferkhanpet Muthurangam Block MVKM Trust,",A.NO.508,80.21000375,13.02719747,"16, Janaki Raman Street, Muthurangam Block, Jafferkhanpet, Chennai 600 083.",Chennai,A/N.Geetha Mahalingam,9940480107,9600188570,9566137132,shyamahalingam@gmail.com,
Asia,India,Tamilnadu,Thiruvallur,"Thiruvallur Ondikuppam MVKM Trust,",A.NO.511,79.92253961,13.1089348,"No.7, Arumugam Street, Ondikuppam, Thiruvallur 602 001.",Thiruvallur,A/N.M.A.ARULKUMAR,9787109487,8012002009,-,arulkumaracu@gmail.com,
Asia,India,Tamilnadu,Chennai,Chennai Lakshmipuram MVKM Trust,A.NO.512,80.16014484,13.13012478,"55B, Thiruthanni Nagar, 1st Main Road, Puthur, Ambathur, Chennai 600 053.",Thiruvallur,A/N.M.RAVISHANKAR,8124001990,9445348729,9445005576,ravishankar23503@gmail.com,
Asia,India,Tamilnadu,Kanyakumari,Kottaram MVKM Trust,A.NO.513,77.52661226,8.119095778,"8/51, Mela Street, Kottaram 629 703.",Thirunelveli,A/N.N.Karthik,9600292167,9488407271,9787303811,binu19sa@gmail.com,
Asia,India,Tamilnadu,Chennai,Chennai Bakthavachalam Colony MVKM Trust,A.NO.514,80.24762823,13.05281002,"No.157, Bharathidasan Street, Kakkan G. Colony, B-1 Block, Chennai 600 039.",Chennai,A/N.B. Jothi,9840894645,-,-,-,
Asia,India,Tamilnadu,Tiruppur,Muthur MVKM Trust,A.NO.515,78.25228392,11.21738491,"91D, Perumalputhur, Muthur, Muthur Panchayat 638 105, Thiruppur Dist.",Tiruppur,A/N.S.Kuppusamy,9842955498,9842692029,-,skyarivuthirukovilmuthur@gmail.com,
Asia,India,Tamilnadu,Kanyakumari,Kulasekharam MVKM Trust,A.NO.516,77.30692857,8.347961228,"17/198, Vendalikadu Post 629 161, Kanyakumari Dist.",Thirunelveli,A/N.P.Krishnan Kutty,9443992705,8675429488,9442280554,k.kutty1942@gamail.com ,hk280554@gmail.com 
Asia,India,Tamilnadu,Coimbatore,Devarayampalayam MVKM Trust,A.NO.517,77.26754291,11.19598656,"10/488A, Kamaraj Veethi, V.S.V. Colony, Avinashi 641 654.",Tiruppur,A/N.K.Nallusamy,9787709018,9087349631,9080197380,dvpmmvkmtrust.tupzone@gmail.com,
Asia,UAE,Abu Dhabi & Al Ain,Abu Dhabi,Abudhabi - Ladies Centre,unknown,54.36959418,24.49689285,"Iron Fist Sport Club & Gym, Hamdan street, Near Krishna Sweets - Abu Dhabi.",UAE & Oman,A/N. KavithaVijayabaskar,00971 55 1015971,-,-,skyyogaabudhabi2020@gmail.com,
Asia,UAE,Abu Dhabi & Al Ain,Abu Dhabi,Abudhabi - SKY Centre,unknown,54.36959418,24.49689285,"Iron Fist Sport Club & Gym, Hamdan street, Near Krishna Sweets - Abu Dhabi.",UAE & Oman,A/N Selva Rangaraj,00971 55 5512890,-,-,skyyogaabudhabi2020@gmail.com,
Asia,UAE,Abu Dhabi & Al Ain,Al Ain,Al-Ain Abudhabi Sub centre,WCSC/APP(S)/UAE/013,55.75434157,24.22004265,AL AIN,UAE & Oman,A/N. Muthuraman.M,00971 50 3317814,-,-,skyyogaabudhabi2020@gmail.com,
Asia,UAE,Abu Dhabi & Al Ain,Abu Dhabi,"Musaffah, Abudhabi Sub Centre",WCSC/APP(S)/UAE/012,54.53025343,24.33433015,"Nirtya Kala Dance & Music Center, Mohamed Bin Zayed CityME-10 - Mussafah, Abu Dhabi.",UAE & Oman,A/N Subbiah Arumugam,00971 50 2726439,-,-,skyyogaabudhabi2020@gmail.com,
Asia,UAE,Abu Dhabi & Al Ain,Abu Dhabi,SKY Yoga Club -Abudhabi,WCSC/Aff/UAE/005,54.4083366,24.4989668,"901-1, Plot C 36, Street 16, Tourist Club Area, Abu Dhabi, UAE.",UAE & Oman,A/N. Vijayabaskar,00971 55 1015971,,-,jvijayabaskar@gmail.com,
Australasia/Oceania,Australia,New South Wales,Homebush,"Vethathiri Yoga Centre, New South Wales",unknown,151.081191,-33.86544888,"45, The Crescent, Homebush, Sydney, New South Wales - 2140, Australia",Australia,A/N. Dr. Barathy Balasubramanium - President,0061-404 904 702,0061-290 298 979,"0061-412 992 536, +91-9003100666 (India)",sydneyskyyoga@gmail.com,"sydneyvyc@gmail.com, "
Australasia/Oceania,Australia,Perth,Huntingdale,"Perth SKY Meditation Centre, Western Australia",unknown,115.9703455,-32.0844753,"11 Roscommon Vista,Huntingdale, WA 6110",Australia,"A/N. Prabhakaran, A/N. Velu",0061-449 151 968,0061-480 183 296,-,perth.sky.yoga@gmail.com,veluswamy.r68@gmail.com
Australasia/Oceania,Australia,Victoria,Magill,Adelaide SKY Yoga ,Victoria SKY Sub Centre,138.6715822,-34.89742309,"33 Eton Avenue, Magill, SA-5072",Australia,A/N Aravind Rangarajan,0061-415 863 819,-,-,puruchith@hotmail.com,
Australasia/Oceania,Australia,Victoria,Dandenong,Victoria SKY Meditation Society,WCSC/AFF/AUS/007,145.2101399,-37.98522426,"No. 9, Rodd Street, Dandenong, Victoria - 3175, Australia",Australia,SKY Asst. Prof. B. Parthasarathy - President,0061-430 096 552,9791094228 (India),"0061-434 264 253,0061-387 075 684",victoria.sky@hotmail.com,
Australasia/Oceania,Australia,Victoria,Clarinda,Melaleuca Community Centre (Victoria SKY Sub Centre),unknown,145.1063401,-37.92746541,"Melaleuca activity hub, 31 Melaleuca Drive,Clarinda,Vic 3169",Australia,Asst.Prof.B.Parthasarathy,0061-430 096 552,-,-,bpartha2002@live.com,
Europe,Austria,Vorarlberg,Vorarlberg,Austria SKY Meditation Centre,WCSC/AFF/AUT/026,47.21007641,9.689105925,"A/N. Thomas Stockinger Master I/C, Walagaustrasse 18, 6824 Schlins, Austria / Vorarlberg,",Europe,A/N. Thomas Stockinger Master I/C,0043-6505105772,-,-,"thomas.stockinger@gmx.at, ",austria@vethathiri.ac.in
Asia,Bahrain,Bahrain,Manama,Bahrain SKY Centre,unknown,50.5844787,26.22843047,Bahrain,Bahrain,Saminath Seker, 00973 - 39229093.,-,-,saminaths@yahoo.com,saminaths@gmail.com
Asia,Cambodia,Cambodia,CAMBODIA,Cambodia SKY Centre,unknown,104.9138501,11.55162588,"Phnom Penh, Near Olympic Market, Cambodia",,-,-,-,-,-,
North America,Canada,Canada,Toronto,SKY Yoga Centre - Toronto Canada,WCSC/AFF/CAN/015,-79.25177649,43.82011906,"Middlefield Sai Centre 80-F Nashdene Road, Unit 130 Scarborough, ON M1V 5E4 Canada.",USA,President A/N Murugesu Sivasangaram,001-416-799-7592,-,-,admin@skyyogacanada.com,
North America,Canada,Canada,Toronto-West,SKY Yoga -Toronto West,unknown,-79.5898171,43.67891042,"40 Voyager court North Etobikoke ,ON M9W 4Y3 Toronto Canada",USA,-,-,-,-,-,
Europe,Denmark,Denmark,Vildbjerg,SKY Denmark,unknown,8.758747854,56.19141585,"Agards VEJ 18, 7480 Vildbjerg, Denmark.",Europe,"A/N. K. Jayaratnam - Herning, Denmark. A/N. Visakan","0045-96606024, 0045-28140085, 0045 - 97132486",-,-,"kjeyaratnam@gmail.com, ",sky.denmark.eu@gmail.com
Asia,UAE,Dubai,Al Nahda,Dubai - Al Nahda (Ladies),WCSC/APP(S)/UAE/040,55.3843647,25.2912233," Flat No. 102, Buamiim Building, Near Zulekha Hospital, Al Nahda - 2 Dubai ",UAE & Oman, A/N. Priya,00971 55 9939291,-,-,skyalnahdaladies@gmail.com,mmurugaraj@gmail.com
Asia,UAE,Dubai,Dubai - DIP,"Dubai Dubai Investment Park, Green Community - East",unknown,55.1561407,25.005669,"PARTY HALL SWIMMING POOL 05 , GREEN COMMUNITY EAST, NEAR NMC HOSPITAL",UAE & Oman," A/N. Gnanaeaswari, A/N. Ramkumar ","00971 55 4041600, ",00971 55 3006600,-,skydip@gmail.com,mmurugaraj@gmail.com
Asia,UAE,Dubai,Discovery Gardens,Dubai - Discovery Gardens,unknown,54.947555,25.0757595,"FLAT-117, ZEN CLUSTER BUILDING-09, ASTER CLINIC BUILDING, DUBAI",UAE & Oman, A/N. Gnanaeswari,00971 55 4041600,-,-,skygardensdxb@gmail.com,mmurugaraj@gmail.com
Asia,UAE,Dubai,Discovery Gardens,Dubai-Discovery Gardens(ladies),unknown,55.1260204,25.0918278,"LADIES- DUBAI - DISCOVERY GARDENS FLAT-318 , ZEN CLUSTER , BUILDING 10, ASTER SPECIALITY CLINIC BUILDING, DUBAI",UAE & Oman,A/N. Anuratha,00971 50 9207067,-,-,skygardensdxb@gmail.com,mmurugaraj@gmail.com
Asia,UAE,Dubai,Karama,Dubai - Karama,WCSC/APP(S)/UAE/003,55.30875186,25.25142618,"GOLDEN FALCON KARATE CENTRE, MEZANNINE FLOOR , AL ADIL SUPERMARKET BUILDING",UAE & Oman, A/N. Baranidaran,00971 56 7533010,-,-,skykarama@gmail.com,mmurugaraj@gmail.com
Asia,UAE,Dubai,Karama,Dubai-Karama(ladies),unknown,55.2952825,25.26030044,"FLAT - 404 , KARAMA 4 BUILDING (GOLDEN STAR KARATE ), NEAR LULU HYPER MARKET , BEHIND KALYAN SILKS, DUBAI",UAE & Oman, A/N. Vennilla,00971 55 9961852,-,-,skykarama@gmail.com,mmurugaraj@gmail.com
Asia,UAE,Dubai,Muhaisnah,Dubai - Muhaisnah (Ladies),WCSC/APP(S)/UAE/005,55.39824541,25.28220601," Flat No. - 409, Hamda Building, Near Madina Mall, Muhaisnah - 4, Dubai",UAE & Oman,A/N. Anuratha,00971 50 9207067,-,-,skymuhaisnah@gmail.com,mmurugaraj@gmail.com
Asia,UAE,Dubai,Muhaisnah,Dubai - Muhaisnah,WCSC/APP(S)/UAE/004,55.39824541,25.28220601," Flat - 409, Hamda Building, Near Muhaisnah - 4, Dubai.",UAE & Oman, A/N. Muthukumar,00971 50 1483590,-,-,skymuhaisnah@gmail.com,mmurugaraj@gmail.com
Asia,UAE,Sharjah,Abu Shagara,Sharjah - Abushagara,WCSC/APP(S)/UAE/011,55.39529142,25.31297437," Flat No. 431 Alnaqoos Building, Near AbuShagara Park, AbuShagara,Sharjah",UAE & Oman,A/N. Ambika,00971 55 1806707,-,-,skyabushagara@gmail.com,mmurugaraj@gmail.com
Asia,UAE,Sharjah,Al Nahda,Sharjah - Al Nahda,WCSC/APP(S)/UAE/009,55.3913984,25.3548448,"GOLDEN FALCON KARATE CENTRE, SEALAND RESTAURANT BUILDING , AL NAHDA , SHARJAH",UAE & Oman, A/N. Satheeshkumar,00971 55 9910146,-,-,skyalnahda@gmail.com,mmurugaraj@gmail.com
Asia,UAE,Sharjah,Al Qasimia,Sharjah - Al Qasimia(Ladies),unknown,55.3923691,25.3420258,"FLAT-801 , AL OWAIS BUILDING ,OPPOSITE TO AL BUSTAN TOWER , NEAR CRYSTAL PLAZA HOTEL, SHARJAH",UAE & Oman, A/N. Prasannadevi,00971 55 4903934,-,-,skysharjah@gmail.com,mmurugaraj@gmail.com
Asia,UAE,Sharjah,Al Qasimia,Sharjah - Al Qasimia,WCSC/APP(S)/UAE/010,55.3893686,25.3417989,"NIMR AL KHALEEJ KARATE CENTRE M02, TARIQ BUILDING , NEAR SPARK HOTEL , AL NAD, SHARJAH.",UAE & Oman, A/N. Kumar,00971 50 5398996,-,-,skysharjah@gmail.com,mmurugaraj@gmail.com
Asia,UAE,Sharjah,Muwaileh,Sharjah - Muwaileh,WCSC/APP(S)/UAE/008,55.4527446,25.28507842,"AL HUDA CHILDREN SKILL DEVELOPMENT CENTRE , SHAIKHA BUILDING,E102 , NEXT TO HILAL AL MADINA SUPERMARKET, ShARJAH",UAE & Oman,"A/N.Ilayaraja, A/N.Karthikeyan","00971 05 62471108,",00971 55 8085352,-,skynationalpaints@gmail.com,mmurugaraj@gmail.com
Asia,UAE,Sharjah,Muwaileh,Sharjah-Muwaileh(Ladies),unknown,55.45015358,25.2885682,"FLAT-302 , BUILDING NO-3521, OPPOSITE TO TAREEQ AL NOOF STATIONARY, MUWAILEH SCHOOL ZONE AREA, SHARJAH",UAE & Oman,"Gokila, Lekamani","00971 52 5262440, ",00971 55 3766330,-,skynationalpaints@gmail.com,mmurugaraj@gmail.com
Asia,UAE,Ajman,Rashidiya,Ajman - Rashidiya,unknown,55.44839818,25.39894458,"FLAT-108 , AL SHALI BUILDING , OPPOSITE TO FALCON TOWER-A5, NEAR NESTO HYPERMARKET, AJMAN",UAE & Oman,"A/N Ganeshkumar, A/N Suthakarpandian","00971 52 8333016,",00971 55 2935443,-,wcscuae@gmail.com,mmurugaraj@gmail.com
Europe,France,France,Courbevoie,Grieny Centre,unknown,2.255966029,48.89541891,2 pl de Hotel de ville courbevoie 92400 France,Europe,SKY Asst. Prof.(T) S. Bartha Sarathy,0033-641201163,-,-,s.barthasarathy@yahoo.com,
Asia,Japan,Tokyo,Omihachiman shi,SKY Tokyo,unknown,136.1088284,35.1190739,"Shiga - 523-0815, Omihachiman shi, Wakaba cho3Chome 1796-9,",Japan,A/N. R. Manikandan ,0081 9060588297,0081 9443010793,-,maninature@gmail.com,nmtradingjpn@gmail.com
Asia,Kuwait,Kuwait,abbasiya ,Abbasiya SKY Meditation Centre - Kuwait,WCSC/APP/KWT/010,47.9282,29.2521,Kuwait,Kuwait,SKY Asst. Prof.(T) K. Jyothi ,00965 99583201,-,-,jyothik7@yahoo.com,a.jothi@fourfilms.com
Asia,Kuwait,Kuwait,Fahaheel,Fahaheel SKY Meditation Centre - Kuwait,WCSC/APP/KWT/011,48.13117084,29.08746204,"Unity Center, Block-9, Opp. Mia Mia restaurant, Fahaheel, Kuwait.",Kuwait,SKY Asst. Prof.(T) M.R. Rajendran ,00965 66467054,00965 66394426,-,mr_rajendran@hotmail.com,
Asia,Kuwait,Kuwait,Kuwait City,SKY Kuwait,WCSC/APP/KWT/008,47.97785105,29.37626783,Kuwait,Kuwait,A/N. Kannan Ravi ,00965 97892835,-,-,kannanravi65@hotmail.com,sky.kuwait.wcsc@gmail.com
Asia,Kuwait,Kuwait,Mangaf,Mangaf SKY Meditation Center - Kuwait,WCSC/APP/KWT/008,47.48197204,29.31166,"Seva Dharsan Hall- Near Al Mulla Exchange-Block No.4, kuwait",Kuwait,A/N. Kannan Ravi ,00965 97892835,-,-,kannanravi65@hotmail.com,sky.kuwait.wcsc@gmail.com
Asia,Kuwait,Kuwait,Salmiya,Salmiya SKY Meditation Centre - Kuwait,WCSC/APP/KWT/009,47.83330395,29.30438896,"Block. .10 Street Essa Al Qatami Avenue. 22. Building. 5, Salmiya, Kuwait.",Kuwait,A/N. G. Subramaniam ,"00965 97136197,00965 97583685",-,-,saravanankwt25@gmail.com,
Asia,Malaysia,Malaysia,Batu Caves,"SKY Human Excellence Batu Caves (Batu Caves, KL)",WCSC/APP/MYS/023,101.6802597,3.245140872,"C/O Munieswarar Temple, Kenneison Brothers Jalan Railway 68100 Batu Caves, Malaysia",Malaysia,"A/N. Lachimy, A/P Rengsamy ",0060-016-955-4282,-,-,mahendrensamy@gmail.com,skykantan@yahoo.com 
Asia,Malaysia,Malaysia,Dickson,SKY Meditation Centre Port Dickson (Port Dickson),unknown,101.8211898,2.5181555," No.2590, Taman P.D Utama, 71000 Port, Dickson, Malaysia.",Malaysia,A/N. M. Mohana Dass ,0060-010-809-9511,-,-,-,
Asia,Malaysia,Malaysia,IPOH,Vethathiri Manavalakalai Sangam,WCSC/APP(S)/MYS/033,101.0421633,4.595857719," Vallalar Anbu nilayam, No:3, Laluan Buntong Jaya 19, RPT Sesa Rishah, Cbuntong 5 Buntong, Ipoh 3100, Perak, Malaysia.",Malaysia,A/N. Soamsundram ,0060-012-5105570,-,-,m.selvaraju@hotmail.com,
Asia,Malaysia,Malaysia,Johor,Bukit Indah SKY Meditation Sub centre,unknown,103.6502986,1.479823878,"No 27 Jalan Indah, 10/1 Taman Bukit indah. Malaysia",Malaysia,-,-,-,-,-,
Asia,Malaysia,Malaysia,Johor,Danga utama SKY Meditation Sub centre,unknown,103.6183495,2.566000217,"No:17 - 02, 3rd floor, Jalan Permata 4 Purat Perdangangau, Danga utama, 81300, Johor Baru, Malaysia",Malaysia,-,-,-,-,-,
Asia,Malaysia,Malaysia,Johor,Persatuan Meditasi SKY Malaysia,unknown,103.3120438,2.010852088,"No.24, Jalan 13, Taman Seri Jaya, 86000 Kluang, Johor, Malaysia.",Malaysia,-,-,-,-,-,
Asia,Malaysia,Malaysia,Johor,SKY Kulai,unknown,103.6225836,1.623519791,"1853, Jalan Jambu 25,Taman Muhibbah, Saleng, 81400 Senai, Kulai, Johor, Malaysia",Malaysia,-,-,-,-,-,
Asia,Malaysia,Malaysia,Johor,"SKY Meditation Centre, J.B.",unknown,103.7518723,1.48625245,"No.7-20, Jalan Dato Jaafar 1, Taman Dato, Onn Impian Business Park 80350, Johor.",Malaysia,-,-,-,-,-,
Asia,Malaysia,Malaysia,Johor,Vethathiri Maharishi Meditation Society,unknown,103.321847,2.005164366,"No.4, 1st Floor, Jalan Hang Tuah 4/1, Taman Muhibbah, 86000, Kluang, Johor, Malaysia",Malaysia,-,-,-,-,-,
Asia,Malaysia,Malaysia,Klang,"SKY Meditation Centre, Klang",WCSC/APP(S)/MYS/046,101.4789047,2.9945776,"No.35, Lorong Dato Dagang Soc Sentosa, Klang.",Malaysia,A/N. Ligeswari,0060-014-631-6903,-,-,-,
Asia,Malaysia,Malaysia,Kuala lumpur,"Ayappan Centre (Batu Caves) (Gombak - Batu Caves, KL)",unknown,101.6896911,3.219930778,"No.37, Jalan 53/10, Taman Koperasi Polis 2, Batu Caves, KL, Malaysia",Malaysia,A/N. Segar ,0060-012-644-6266,0060-012-694-6266,-,gpsegar@gmail.com,
Asia,Malaysia,Malaysia,Kuala lumpur,Brickfields SKY Centre,unknown,101.6931043,3.134158856,"Kalamandapam (Small Hall), Jalan Scot, Brickfields, Kuala Lumpur, Malaysia.",Malaysia,A/N. Nirmala ,0060-010-221-6474,-,-,-,
Asia,Malaysia,Malaysia,Kuala lumpur,SKY Centre - Malaysia,unknown,101.7444242,3.11333524,"No.11A, Jalan Perdana, 6/4, Taman Pandan Perdana, Cheras - 55300, Kuala Lumpur, Malaysia.",Malaysia,SKY Asst. Prof. (T) N. Nageswara Rao ,0060-019-356-9160,-,-,ns_raj05@yahoo.com,
Asia,Malaysia,Malaysia,Kulim,Kulim SKY Meditation Sub Centre,unknown,100.5550048,5.386697033,"Persatuan, Telugu Sangam Kulim, 1st Floor (Opp to mini Stadium) Keladi, Kulim Kedah, Malaysia",Malaysia,A/N. Balakrishnan,0060-014-940-3103 ,-,-,vethathiri.kulim@yahoo.com,
Asia,Malaysia,Malaysia,Perak,R.M. Yoga Meditation Centre - IPOH,unknown,101.0734394,4.608595656,"No.68, Jalan Tun Abdul Razak 30100, IPOH, Perak, Malaysia.",Malaysia,A/N. Dr. RM Muthiah,0060-012-591-449,-,-,rampillay7272@hotmail.com,
Asia,Malaysia,Malaysia,Perak,SKY Meditation Centre - Buntong (IPOH),unknown,101.0895418,4.605097568,"Vallalar Anbu nilayam, No:3, Laluan Buntong Jaya 19, RPT Sesa Rishah Cbuntong 5 Buntong, Ipoh 3100, Perak, Malaysia",Malaysia,"A/N. Soamsundram, Master I/C",0060-012-510-5570,-,-,soamsundramboss@gmail.com,
Asia,Malaysia,Malaysia,Perak,Yogi Vethathiri Maharishi Meditation and Spiritual Association of Malaysia,WCSC/AFF/MYS/021,101.1558037,4.666080861,"No.11-A Laluan Sungai Choh - 7, Taman Berjaya Tanjong Rambutan, IPOH, Perak, Malaysia.",Malaysia,A/N. M. Selvaraju A/N. Muniandy,0060-012-557-1814,0060-012-557-1814,-,m.selvaraju@hotmail.com,
Asia,Malaysia,Malaysia,Selangor,"Aanmiegam SKY Meditation Centre (Puchong, Selangor)",unknown,101.6407792,3.059938609,"K-02-06, Jalan PPK2, Kinrara Town Centre, Taman Kinrara Sek 3, 47100 Puchong, Selangor, Malaysia",Malaysia,A/N. Anandavelu,0060-017-640-8122,,-,-,
Asia,Malaysia,Malaysia,Selangor,Anggerik SKY Meditation Centre,unknown,101.5683853,3.430603199,"No.32, Jln. Anggerik 1B, Sek BB4, Bandar Bukit Beruntung, 48300 Rawang, Selangor, Malaysia",Malaysia,"SKY Asst. Prof.(T) Susila Alagar,",0060-012-392-7410,0060-012-392-8640,-,sdc.skyanggerikbb4@gmail.com,
Asia,Malaysia,Malaysia,Selangor,Banting SKY Centre,unknown,101.5333122,2.817126906,"No.22 Jalan Emas 26, Bandar Sungai Emas, Banting, Selngor - 42700, Malaysia",Malaysia,A/N. Hemalatha,0060-016-230-0965,,-,ramaishu1605@gmail.com,
Asia,Malaysia,Malaysia,Selangor,"Pertubuhan Pengamal Meditasi Vethathiri Dan Yoga Semenyih, Selangor",unknown,101.8603369,2.926024095,"No.34, Jalan 5/12, Bandar Rinching - 43500 Semenyih, Selangor, Malaysia.",Malaysia,"A/N. Arumugam Balakrishnan, A/N. M. Venkatachalapathi",0060-012-390-7767,0060-012-342-3401,0060-012-342-3401,"vsmanavalakai@gmail.com,",srivinothengineering@gmail.com
Asia,Malaysia,Malaysia,Selangor,Rawang SKY Meditation Sub Centre,unknown,101.5797615,3.329160055,"C6/1, Jalan Rawang Mutiara 2, Mutiara Bussiness Park, Rawang, Selangor, Malaysia",Malaysia,"SKY Asst. Prof.(T) Susila Alagar,",0060-012-392-7410,0060-012-392-8640,-,sdc.skyanggerikbb4@gmail.com,
Asia,Malaysia,Malaysia,Selangor,SKY Living Science Centre Malaysia,unknown,101.5699726,3.3999698,"20, Jalan Daisi 3, Bukit Sentosa, 48300 Rawang, Selangor, Malaysia",Malaysia,"A/N. Prasanna Shanmuganathan, Master I/C",0060-011-277-97627,,-,sky.livingsciencemalaysia@gmail.com,
Asia,Malaysia,Malaysia,Selangor,SKY Puchong Centre,unknown,101.6178623,3.039954678,"Puchong, Selangor, Malaysia",Malaysia,"A/N. Karmegam, Master In-charge,",0060-012-623-91578 ,,-,kmegam@gmail.com,
Asia,Malaysia,Malaysia,Seremban,Pertubuhan Penganut Vethathiri Sky Manavalakalai Seremban Malaysia,WCSC/AFF/MYS/043,101.9198631,2.715925653,"C-8-3, Jalan Dataran Sentral 3, Dataran Sentral, Tingkat, 70200 Seremaban, Negeri Sembilan Darul Khusus, Malaysia",Malaysia,A/N. Arumugam Balakrishnan ,0060-012-342-3401 ,-,-,asharini3401@yahoo.com,vsmanavalakalai@gmail.com
Asia,Nepal,Kathmandu,Kathmandu,SKY Centre - Nepal,unknown,85.2774207,27.6630019,"Kirtipur, Kathmandu, Nepal",Nepal,Jaysingh Sah,00977 9843366587,-,-,jaysingh.sah@outlook.com,
Europe,Netherlands,Netherlands,Amsterdam,Netherlands SKY Centre,WCSC/AFF/NLD/027,5.1856909,52.0250832," Kloostertuin 17, 3994 ZI, Houen, Netherland",Europe,A/N. Rajah Sagarajah ,0031-620404113,-,-,nsagarajah@gmail.com,
Europe,Norway,Norway,Oslo,SKY Oslo,WCSC/AFF/NOR/025,10.86747472,59.95824693,"Norges Hindu Kultur Senter, 1st floor, (Oslo Sivasubramaniyar Temple Building), Martinsstrandlis vei 10, 0956 OSLO, Norway",Europe,A/N. Jamuna Akilann,0047-48105860,-,-,skyoslo.norway@gmail.com,jamuna.akilann@gmail.com
Europe,Norway,Norway,Stavanger,SKY Stavanger,unknown,5.698413526,58.94678524,"Springarstien 61, 4021 Stavanger, Norway.",Europe,A/N. Rakkini Muralitharan ,"0047-5187 1273, 0047-9227 0116 ",-,-,skyoslo.norway@gmail.com,
Asia,Oman,Muscat,Muscat,SKY Muscat,unknown,58.42447525,23.63668218," Bahwan Clinic, Suhail Bahwan Group, PO Box No.169, Muscat 100, Sultanate of Oman.",UAE & Oman,A/N. Dr. Ashok Jain ,00968-9973 5816,00968 9524 0423,-,sky.muscat.wcsc@gmail.com,rajeshu.easun@gmail.com
Asia,Oman,Sohar,Sohar,SKY Sohar,unknown,56.7292072,24.34004306," Building 825, Villa No.17, Way No.4636, Al Waqaibah, Sohar, Sultanate of Oman.",UAE & Oman,A/N. G. Sairam ,00968-5551 9834,-,-,saibhuvi@gmail.com,bhuvisai@yahoo.com
Asia,Qatar,Al Khor,Al Khor,Khor SKY Meditation Centre,unknown,51.5171049,25.2705454," PO Box 14172, Ibn Sinha Street, 3rd Floor, Flora Tower, Muntaza, Doha , Qatar.",Qatar,SKY Prof. (T) Sudalai Muthu ,00974 - 55519834,0091-9487410435,-,vvssmuthu@gmail.com,
Asia,Qatar,Doha,Doha,Qatar SKY Centre,unknown,51.5171049,25.2705454," PO Box 14172, Ibn Sinha Street, 3rd Floor, Flora Tower, Muntaza, Doha , Qatar.",Qatar,SKY Prof. (T) Sudalai Muthu ,00974 - 55519834,0091-9487410435,-,vvssmuthu@gmail.com,
Asia,Singapore,Singapore,Singapore,Arasa Kesari Sivan Temple,WCSC/APP(S)/SGP/024,103.7300089,1.4193127,"No.25, Sungai Kadut Ave, Singapore - 729 679. Nearest MRT: Kranji",Singapore,A/N. V.K. Varathan ,0065 - 91804476,-,-,vkvarathan@yahoo.com.sg,
Asia,Singapore,Singapore,Singapore,Arulmigu Velmurugan Gnana Muneeswarar Temple,WCSC/APP(S)/SGP/021,103.9081848,1.388959713,"No.50, Rivervale Crescent (Senkang), Singapore - 545 029. Nearest LRT: Bakau",Singapore,A/N. Jaya Rani,0065 - 97680755,-,-,yogasky.sg@gmail.com,
Asia,Singapore,Singapore,Singapore,Bukit Batok Civil Service Club,unknown,103.7493017,1.353197674,"No.91, Bukit Batok West Ave 2, Singapore.",Singapore,-,-,-,-,-,
Asia,Singapore,Singapore,Singapore,Derma Muneeswaran Temple,unknown,103.873139,1.36658032,"Serangoon North Ave 1, Singapore.",Singapore,-,-,-,-,-,
Asia,Singapore,Singapore,Singapore,Hwi Yoh Community Club,unknown,103.8715518,1.373120034,"Serangoon North Ave 3, Singapore",Singapore,-,-,-,-,-,
Asia,Singapore,Singapore,Singapore,Jurong Green Community Centre,unknown,103.709277,1.315148514,"No.90, Boon Lay, Singapore - 649 520",Singapore,-,-,-,-,-,
Asia,Singapore,Singapore,Singapore,Simplified Kundalini Yoga Society,unknown,103.8514333,1.324210596,"No.101, Balestier Road, Singapore - 329 678.",Singapore,"SKY Asst. Prof. (T) G. Centhil Kumar, Master Incharge",0065 96255145, 0065 93874955,0065 96387274,info@skysociety.org.sg,
Asia,Singapore,Singapore,Singapore,SKY Meditation Centre - Singapore (Amma Centre),WCSC/AFF/SGP/020,103.8537566,1.309068988,"3 Hindoo Road, Opp. to Broadway Hotel, Serangoon Road, Singapore - 209 106.",Singapore,"SKY Asst. Prof. (T) G. Centhil Kumar,","0065 90011762, ","0065 9452187,","0065 91804476, 0065 96199157",yogasky.sg@gmail.com,
Asia,Singapore,Singapore,Singapore,Sri Muneeswaran Temple,WCSC/APP(S)/SGP/020,103.798187,1.302685303,"No.3, Common Wealth Drive, Singapore - 149 594. Nearest MRT: Common Wealth -",Singapore,A/N. Tamil Selvi , 0065 - 91410571,-,-,yogasky.sg@gmail.com,
Asia,Singapore,Singapore,Singapore,Sri Ruthra Kaliamman Temple,unknown,103.8139292,1.281814144,"No.100 Depot Road, Singapore.",Singapore,-,-,-,-,bpr783@gmail.com,
Asia,Singapore,Singapore,Singapore,Supreme Kundalini Yoga Society,WCSC/AFF/SGP/017,103.8521866,1.308346132,"No.2, Kampong Kapor Road,(Singai Tamil Sangam) Singapore - 208 674.",Singapore,"SKY Asst. Prof. Bavani Sridhar,","0065-81188374, 0065-96315247, 0065-98188456",-,-,sg.skys.wcsc@gmail.com,sridhargovind@hotmail.com 
Asia,Singapore,Singapore,Singapore,Vethathiri Maharishi Simplified Kundalini Yoga,unknown,103.8678208,1.330383674,"53A, Woodsville Close, Potong Pasir, Singapore - 357 788.",Singapore,SKY Prof. (T) M. Viswalingam SKY Asst. Prof. R. Anbalagan A/N. Senthil Raja,"0065 96624248, 0065 91462157",0065 90033327, 0065 98210187,21viswa@gmail.com,rajpsenthil@yahoo.com
Asia,Sri Lanka,Batticaloa,Batticaloa,Batticoloa SKY Sub Centre,unknown,81.7122953,7.7048747,"Pillayar Kovil Road, Kalladi, Batticoloa.",Sri Lanka,A/N. K.Jeganathan ,0094-779589423 ,0094-777627168,-,-,
Asia,Sri Lanka,Colombo,Colombo,36th Lane SKY Sub Centre,unknown,79.86073168,6.870009219,"36th Lane, Srilanka",Sri Lanka,A/N. Dr. S. Balasubramaniam ,0094-777726732,-,-,susi22bala8@yahoo.com,
Asia,Sri Lanka,Colombo,Colombo,Modera SKY Sub Centre,unknown,79.8634809,6.96149469,"74, Delasalle Street, Modera, Colombo - 15.",Sri Lanka,A/N. A. Kathirvelpillai - President ,0094-755055728,0094-776481939,0094-774084430,-,
Asia,Sri Lanka,Colombo,Colombo,New Chetty Street SKY Sub Centre,unknown,79.86029816,6.944136958,"93, New Chetty Street, Kotahena, Colombo - 13.",Sri Lanka,A/N. C. Kanagaraj - President ,0094-1123913362,0094-774951607,0094-777769183,ckanagaraj7777@gmail.com,
Asia,Sri Lanka,Colombo,Colombo,"Sri Lanka SKY Trust - Wellawatte, Colombo",unknown,79.86281317,6.865945566,"No.53/1A, Ramakrishna Road, Colombo - 6.",Sri Lanka,SKY Prof. (T). A. Maduraiveeran - President,0094 - 776248895,0094 - 777364885, 0094 - 112363516,vasanthakumar955@gmail.com,"psselvaratnam@gmail.com,"
Asia,Sri Lanka,Colombo,Colombo,Viveka SKY Sub Centre,unknown,79.85932614,6.943051698,"Vivekananda Hall, Colombo - 13. Kotahena, Colombo - 13.",Sri Lanka,A/N. P. Marish Rella - President,0094-776034886,0094-775987030,-,marstelahpunitharajah@yahoo.com,
Asia,Sri Lanka,Colombo,Colombo,Wasala Road SKY Sub Centre,unknown,79.86045187,6.949371074,"33/8, Janatha MW Place, Kotahena, Colombo - 13.",Sri Lanka,A/N. H.I. Srimathie - President,0094-777971875,0094-728087302,-, shanthini32@gmail.com,"hishrimathie@gmail.com,"
Asia,Sri Lanka,Hatton,Hatton,Hatton SKY Meditation Centre,unknown,80.57093558,6.831643548,"4/21, 1/1, Pansala Road, Hatton.",Sri Lanka,A/N. N. Balasundaram - President ,0094-714208211,0094-718180122,-,kmchitharan@gmail.com,
Asia,Sri Lanka,Jaffna,Jaffna,Temple Road SKY Sub Centre,unknown,80.0140385,9.673905,"14/4, 1st Lane, Temple Road, Jaffna.",Sri Lanka,A/N. Dharmini ,0094-714711128,0094-774528839,-,devakianne@hotmail.com,
Asia,Sri Lanka,Jaffna,Jaffna,Thirunelvy SKY Sub Centre,unknown,80.0107008,9.6893993,"12, Siva School Lane, Thirunelvy Road, Jaffna.",Sri Lanka,A/N. M. Indiravathi ,0094-775420123,0094-718182087,-,-,
Asia,Sri Lanka,Jaffna,Jaffna,Vannarpannai SKY Meditation Centre,unknown,80.0109279,9.6844054,"3/8, Kesaavil 1st Lane, Vannaarpannai, Jaffna.",Sri Lanka,A/N. S. Muruganandavel - President ,0094-777368745, 0094-771235646,-,parwathy@ymail.com,susi22bala8@yahoo.com
Asia,Sri Lanka,Kodikamam,Kodikamam,Vellampokkatti SKY Sub Centre,unknown,80.22141671,9.686943365,"Vellampokkaddy, Kodikamam.",Sri Lanka, A/N. A. Sarojadevi ,0094-775314654,0094-773694114,-,skyvellam@gmail.com,
Asia,Sri Lanka,Nawalapitiya,Nawalapitiya,Nawalapitiya SKY Sub Centre,unknown,80.53556511,7.054445095,"8V, Theater Road, Nawalapitiya.",Sri Lanka,A/N.Dr.Yoganandhan,0094-773403544,0094-777673580,-,kanapathyasothan@gmail.com,
Asia,Sri Lanka,Vavuniya,Vavuniya,Vavuniya SKY Meditation Centre,unknown,80.3886085,8.7554484,"Kaliyamman Thevasthana Thiyana Mandapam, Mannar Road, Vavuniya.",Sri Lanka,A/N. R. Kirubamoorthy - President A/N. S. Chandiran - Secretary,0094-774926079,0094-752479662,-,-,
Asia,Sri Lanka,Wattala,Wattala,Wattala SKY Sub Centre,unknown,79.8587999,6.9843117,"96B, Hekkitha Road, Wattala, Srilanka.",Sri Lanka,A/N. R. Ganakendiran - President A/N. U. Subramaniam - Secretary,0094-777330451,0094-772205779,-,skywattala@yahoo.com,ganeshk73@hotmail.com
Europe,Switzerland,Zürich,Bahnhaldenstrasse,SKY Zurich,unknown,6.115344275,46.21200619," Av. Edmond-Vaucher 9, 1219- Chatelaine, Geneva, Switzerland.",Europe,A/N. Suvendraraja Thurai raja,0041-7632608110,0041-7651 05729,0041-2279 69473,sky.geneva.swiss@gmail.com,
Asia,Thailand,Bangkok,Bangkok,Bangkok SKY Meditation Centre,unknown,100.5583968,13.73503514," 9B, Siam Mansion, 87 Sukumvit Soi 12, Bangkok 10110, Thailand. ",Thailand,SKY Prof. VR. Mathivanan ,0066-38-533068,0066-2-2517777,0066-87-0790595,mathivanansky@gmail.com,
Europe,UK,London,Harrow,UK SKY Meditation Centre Harrow,unknown,-0.351274902,51.5866424,74 Pinner View Harrow HA1 4QF United Kingdom,Europe,A/N S.Uthayanan,0044-7785241435,,-,"skyuk@vethathiri.ac.in,",
Europe,UK,London,Ilford,EAST LONDON - Ilford SKY Centre,unknown,0.081641798,51.56380793,"Vinayager Temple, 299-303 Ley Street, Ilford IG1 4BN.",Europe,A/N. Gupta - Ilford,0044-7985492367 ,-,-,mt_bals@yahoo.com,
Europe,UK,London,Middlesex,SKY Trust UK,WCSC/APP/GBR/013,-0.331571063,51.58255715,"Victoria Hall, Sheepcote Road, Harrow, Middlesex HA1 2JE, United Kingdom.",Europe,A/N Gangakumaran ,0044-7766442273,-,-,"aurumrajan@yahoo.com,",skyogauk@aol.com
North America,USA,California,Berkeley,SKY Meditation Centre - Bay Area,unknown,-122.2879667,37.82594145,Berkeley CA,USA,"Asst. Prof. Radjendirane Cothandaramane, Mrs. Sharon Walsh",001-520-884-4373,001-510-456-8953,001-916-276-7791,mksreeniv@gmail.com,sky.bayarea@yahoo.com
North America,USA,California,Cupertino,Cupertino SKY Sub Center (SKYBayArea),WCSC/APP(S)/USA/056,-122.04108,37.29747492,"1436,South Stelling Road, Cupertino, CA 95014",USA,A/N. Shanthi Sivanesan,001-408-203-5248,001-408-650-2696,-,shanthijayasekhar@gmail.com,
North America,USA,California,Fremont,Fremont Meditation Centre,WCSC/AFF/USA/003,-121.971982,37.55681531,"2000 Walnut Ave Apt O201, Fremont, CA-94538.",USA,Lakshmi Palaniappan; Murali Sreenivasan,001-510-402-4940,001-510-456-8953,001-510-656-6714,wcsc.co.usa@vethathiri.edu.in,laxmipalani99@yahoo.com
North America,USA,California,Los Angeles,LOS ANGELS SKY Meditation Centre (SOCAL SKY IRVINE),WCSC/APP/ USA/012,-117.8631979,33.69920654,"Mandir, 1732 Reynolds Ave Irvine, CA 92614.",USA,M. Gopal Krishnan ,001-714-679-0519,-,-,socalskyus@gmail.com,murugkrish@yahoo.com
North America,USA,California,Milpitas,Milpitas SKY Sub Center (SKYBayArea),WCSC/APP(S)/USA/017,-121.9181752,37.44682123,"Shirdi Sai Temple, 1221 California Cir Milpitas, CA 95035, USA",USA,A/N. Nagarajan Madhavan Asst. Prof. Shanthi Jayasekar,001-408-585-8750,001-408-203-5248,-,cmnagarajan@yahoo.com,jayasekar@yahoo.com
North America,USA,California,Pleasanton,Pleasanton SKY Sub Center (SKYBayArea),WCSC/APP(S)/USA/055,-121.9106637,37.67519511,"3937, Petrified Forest CT, Pleasanton, CA-94588 USA",USA,Asst. Prof. Rajendran Sarangapani ,001-408-390-1826,-,-,rajendran.sarangapani@gmail.com,
North America,USA,California,San Ramon,San Ramon Meditation Centre,WCSC/APP(S)/USA/019,-121.9821308,37.78664079,"Sri Datta Sai Mandir, 1901 San Ramon Valley Blvd, San Ramon, CA-94583 USA.",USA,A/N. Rajendran Sarangapani,001-408-390-1826,-,-,rajendran.sarangapani@gmail.com,
North America,USA,California,Sunnyvale,Sunnyvale SKY Sub Center (SKYBayArea),WCSC/APP(S)/USA/049,-122.026082,37.34596512,"1476 Floyd AVE, Sunnny vale, CA 94087, USA",USA,"A/N. Arivalagan Angusamy, Master I/C",001-650-575-9633,-,-,ari.angusamy@gmail.com,angusamy@gmail.com
North America,USA,Colorado,Centennial,Denver SKY Meditation Centre - Colorado (USA - West),WCSC/APP(S)/USA/016,-104.8073193,39.6074527,"5979 S Helena Ct, Centennial, CO 80016.",USA,A/N. Sriram Ganesh ,001-303-627-9418,001-720-608-2429,-,sganes@yahoo.com,usa.denver.sky@gmail.com
North America,USA,Colorado,Sacramento,Sacramento Meditation Centre,WCSC/APP(S)/USA/001,-121.2863304,38.82522868,"1101, Halifax Way, Rocklin,California",USA,"A/P. Radjendiran Codandaramane, A/N. Viji Krishnakumar",001-916-276-7791,001-916-749-0124,-,skysacramento@googlegroups.com,c_radjou@yahoo.com
North America,USA,Florida,Miramar,South Florida SKY Meditation Centre,WCSC/APP/USA/031,-80.35732783,25.95969325,"15671,SW 53 Street, Miramar, FL 33027",USA,APT. Raviumar ,001 - 224-374-8314,001-919-397-4210,-,rravikumar27@yahoo.com,
North America,USA,Georgia,Cumming,Atlanta SKY Meditation Center,WCSC/APP/USA/036,-84.18293595,34.11727606,"2475 Old Atlanta Road, Cumming GA 30041",USA,A/N. Chandrasekhar Kuppuswamy ,001-404-451-3972,001-404-919-4117,-,chandkuppu@gmail.com,atlantaskygroup@gmail.com
North America,USA,Illinois,Vernon Hills,Chicago SKY Meditation Center,WCSC/APP/USA/039,-87.96443958,42.23548567,USA - 95765,USA,A/N. Aruloli Rajaram,001-847-984-2036,001-847-281-6078,-,chicago.skyyoga@gmail.com,
North America,USA,Maryland,Ellicott City,Ellicott City SKY Center,WCSC/APP/USA/042,-77.40341516,38.88257342,"13294 D Blueberry LN, Fairefax VA, 22033",USA,A/N. Vikram Renganathan,001-202-897-9054,-,-,vikram.renganathan@gmail.com,
North America,USA,Massachusetts,Norwood,Norwood SKY Center,WCSC/APP/USA/035,-71.22210276,42.17368106,"751 Lansdowne Way, Apt. No.108, Norwood, MA 02062.",USA,A/N. Wilson Jebarajmani,001-617-834-5391,-,-,wilsprabhu@gmail.com,
North America,USA,Michigan,Detroit,Detroit Meditation Sub Centre,WCSC/APP(S)/USA/002,-83.49902568,42.48287755,"SV Temple, Michigan, 26233, Taft Road, Movi, MI-48374, USA",USA,A/N. Subraamniyan Ganapathipilai,001-248-635-6716,001-248-464-4410,-,subraemail@yahoo.com,
North America,USA,Missouri,Ballwin,"SKY Meditation Center, St.Louis",WCSC/APP/USA/038,-90.5791909,38.57539137,"1408 Buckhurst Ct, Ballwin, MO 63021.",USA,A/N. Boomi Senthil Nathan Lakshmanan ,001-650-793-5037,-,-,stlskysociety@gmail.com,senthilsky0@gmail.com
North America,USA,New Jersey,Cranbury,Cranbury SKY Sub Center (SKY NewJersey),WCSC/APP(S)/USA/050,-74.50435989,40.35331876,"39 Friendship Road, Cranbury, NJ 08512.",USA,A/N. Ponbharathi Phhiah ,001-732-397-5631,-,-,tobharathi@gmail.com,
North America,USA,New Jersey,Edison,North Edison SKY Sub Center (SKY NewJersey),WCSC/APP(S)/USA/052,-74.34079905,40.60218872,"212 W Sherman Ave, Edison NJ 08820.",USA,A/N. Selvi Subramanian ,001-201-210-8591,-,-,selvimaharajan@gmail.com,
North America,USA,New Jersey,Edison,South Edison SKY Sub Center (SKY New Jersey),WCSC/APP(S)/USA/051,-74.3316659,40.5506471,"193, Evergreen Road, Edison, NJ 08837.",USA,A/N. Muthuraja M Pillai ,001-551-200-7894,-,-,muthuajar@yahoo.com,
North America,USA,New Jersey,Franklin Park,Franklin Park SKY Center (SKY NewJersey),unknown,-74.53202618,40.44166754,"Y.B.Chois Tae Kwon Do, 3001 Highway 27, Franklin Park, NJ 08823.",USA,A/N. Dr. Priyatarssini ,001-732-595-6802,-,-,priyatarssini@gmail.com,
North America,USA,New Jersey,Freehold,Freehold SKY Sub Center (SKY NewJersey),WCSC/APP(S)/USA/053,-74.27064014,40.28803415,"201 Old Mill Road, Freehold, NJ 07728.",USA,A/N. Sivajyothi Priadeep ,001-732-277-0135,-,-,esivajyothi@yahoo.com,
North America,USA,New Jersey,Jersey City,Jersey City Meditation Center,WCSC/APP(S)/USA/ 054,-74.06374965,40.73707896,"18 Skillman Ave, Jersey City, NJ 07306",USA,A/N. Tarun Mundarth ,001-201-736-9030,-,-,tmundarth@gmail.com,
North America,USA,New Jersey,Monmouth,SKY Meditation Center - New Jersey,WCSC/Aff/USA/032,-74.51813422,40.40507614,"10 Oak tree Road, Monmouth Junction, Newjersy - 08852.",USA,A/N. Priyatarsini Balamuruga ,001-732-595-6802,001-201-736-9030,-,priyatarssini@gmail.com,skynewjersey@gmail.com
North America,USA,New York,New York,New York SKY Center (SKY New York),unknown,-73.703383,40.75012081,"78-14, 270 Street, New Hyde Park, New York - 11040, USA.",USA,SKY Prof. K. Damodaran ,001-718-776-3287,-,-,raginikr@aol.com ,damodaran1951@gmail.com
North America,USA,North Carolina,Morrisville,North Carolina SKY Center,WCSC/APP/USA/014,-78.84097427,35.83302273,406 Trolley Car Way Morrisville NC 27560,USA,A/N. Vikram Renganathan ,001-919-830-9764,-,-,sky.northcarolina@gmail.com,vikram.renganathan@gmail.com
North America,USA,Texas,Bellaire,Houston SKY Center,WCSC/APP/USA/016,-95.45374739,29.69193747,"4522, Maple, Bellaire, Texas 77401, ",USA,SKY Sr. Prof. Meena Narayanasami,001-713-667-7448,-,-,meenanswami@yahoo.com,
North America,USA,Texas,McKinney,McKinney SKY Meditation Center,unknown,-96.76525289,33.2087658,10921 Calvert Pl McKinney TX 75071,USA,A/N. Punitha Venugopal,001-682-321-6823,-,-,punitha.venugopal@gmail.com,
North America,USA,Texas,Plano,Plano SKY Meditation Centre,unknown,-96.75992869,33.09238019,8308 Sand Ridge Dr Plano TX 75025,USA,Asst. Prof.(T). N. Uma Devi,001-469-531-5970,001-469-406-8422,-,vethathiriskydallas@gmail.com,umadavy@yahoo.com
North America,USA,Virginia,Fairfax,Fairfax SKY Center,WCSC/APP/USA/040,-77.49452048,38.91342144,"25452 Schooley Mill Chantilly, Virginia 20152 ",USA,A/N. Siva Kumar Srinivasan,001-703-364-8151,-,-,siva.salem@gmail.com,
North America,USA,Virginia,Richmond,Richmond SKY Center,unknown,-77.62193359,37.64840696,"11801 chase Wellesley Dr, Apt 1213, Richmond, VA23233",USA,A/N. Vikram Renganathan,001-919-930-9764,-,-,vikram.renganathan@gmail.com,
North America,USA,Washington,Bellevue,Bellevue SKY Center (SKYSeattle),WCSC/AFF/USA/002 ,-122.1120672,47.61350686,"408 172nd Pl NE, Bellevue, WA - 98008. ",USA,SKY Prof.(T) V. Meera,001-425-283-3066,-,-,seattleskysociety@gmail.com,
North America,USA,Washington,Sammamish,Seattle SKY Society - Sammamish Centre,unknown,-122.0367283,47.61483498,"555 227th CT NE, Sammamish, 98074.",USA,SKY Asst. Prof. (T) Vikna Rajesh,001-425-445-4491 ,-,-,viknarajesh@yahoo.com,
